{"type": "FeatureCollection", "features": [{"type": "Feature", "geometry": {"type": "Polygon", "coordinates": [[[-121.69732199959532, 37.782438000269586], [-121.69083900012363, 37.78401900002072], [-121.68975000035248, 37.78428700019985], [-121.68774099996625, 37.78477999996748], [-121.68669700040093, 37.78503599990761], [-121.68255800015292, 37.786045999966944], [-121.67682200014563, 37.78744499991711], [-121.6715039997148, 37.788739000230876], [-121.67037200028595, 37.78901400008277], [-121.6662930003124, 37.79000699965052], [-121.65539899970784, 37.79267099970948], [-121.63579300003566, 37.79672299999663], [-121.63447199956259, 37.796996000335305], [-121.6233069996947, 37.8001190000371], [-121.62234400032024, 37.8003880001433], [-121.62162299989679, 37.800590000317825], [-121.62135599993312, 37.800665000157636], [-121.6210749997257, 37.800743000250996], [-121.62041799977467, 37.80092600025592], [-121.62029399992612, 37.80096099974747], [-121.6202510002684, 37.80097300031971], [-121.61989300006812, 37.80107300028052], [-121.61954400008867, 37.801170999897806], [-121.61936199961546, 37.80122200021942], [-121.61491799976896, 37.802313999991675], [-121.61309099985591, 37.802763000078606], [-121.60941000026564, 37.803667000293196], [-121.60487699983233, 37.80478099991226], [-121.60042299994006, 37.80587499966679], [-121.59551100028841, 37.80708100018817], [-121.58655199955194, 37.80927999974135], [-121.58212699997199, 37.8103199999395], [-121.58134000032462, 37.8105050002997], [-121.58049900025055, 37.81070299987249], [-121.58016699998953, 37.810781000010074], [-121.57925499977038, 37.81099499980051], [-121.57734900021461, 37.811442999661736], [-121.5772630000009, 37.81146299966818], [-121.57700500025807, 37.811527000220195], [-121.56118599958305, 37.81545400003004], [-121.56083400012886, 37.81553900019252], [-121.56046699970773, 37.815627999890445], [-121.56022700040653, 37.815688000040815], [-121.55997299996332, 37.81575099986244], [-121.55885300023, 37.816027999735525], [-121.55839000044773, 37.81614299983097], [-121.55784700029952, 37.8162779998687], [-121.55699700000466, 37.816487999752084], [-121.55698399958584, 37.81663400012995], [-121.55697000024044, 37.816797999704605], [-121.55694799960084, 37.817071000352094], [-121.55693599990529, 37.817218000173355], [-121.55507300000723, 37.817442000013976], [-121.55483700000566, 37.81746699994135], [-121.55450599956956, 37.81759200016089], [-121.55423799978095, 37.81774299988261], [-121.55389899984722, 37.818004999818285], [-121.55351100040804, 37.818385999882786], [-121.55331100039149, 37.81882500010772], [-121.55325799978972, 37.819525000209225], [-121.55320699973609, 37.82006899978739], [-121.55277999993882, 37.82106400022231], [-121.55245500024886, 37.82214699983936], [-121.55231600033166, 37.82207400017135], [-121.55208000033012, 37.82249699986912], [-121.55225900043025, 37.82279799970263], [-121.55252100037107, 37.82345499973344], [-121.55249799990654, 37.82403400005759], [-121.55216700036875, 37.82442299995588], [-121.55172299995475, 37.824630999800796], [-121.55135899990667, 37.82485700012763], [-121.55115399986724, 37.82510100006149], [-121.55114200017168, 37.82526400020466], [-121.55122300036253, 37.82577400005101], [-121.55126799967006, 37.82598699989512], [-121.55165500018266, 37.826186000283265], [-121.55196200032934, 37.82642199985549], [-121.55215599959978, 37.8267739997032], [-121.55223599996573, 37.82712699975303], [-121.55205400039085, 37.82747099967451], [-121.55179699957456, 37.82771299999083], [-121.55209500039872, 37.82895700028526], [-121.55209500039872, 37.82970299987389], [-121.55196900000203, 37.83000499983013], [-121.55142000000605, 37.83063699984053], [-121.55097099956915, 37.83115499986953], [-121.54984900018603, 37.83287599990446], [-121.5494590001987, 37.83356900033474], [-121.54899200021845, 37.83375399989752], [-121.54774400043861, 37.833382999930805], [-121.54626899997977, 37.83254699979366], [-121.54609400007757, 37.832448000279655], [-121.5458709995965, 37.83233799987555], [-121.54565700023457, 37.83233799987555], [-121.54513599982766, 37.832388000273085], [-121.5441869997986, 37.83254499972593], [-121.54333099965592, 37.832873000171034], [-121.54289600036108, 37.83307300010747], [-121.54246700001565, 37.83337200003716], [-121.54220400024992, 37.833785999740286], [-121.54203199982247, 37.834206999683104], [-121.54186100011826, 37.83478499971376], [-121.54160400020032, 37.83542000026779], [-121.54129000038094, 37.8357699997784], [-121.54085500018778, 37.83608400027347], [-121.54021300030533, 37.83631200025182], [-121.53943499998049, 37.83658299970468], [-121.53894999955858, 37.8368750001266], [-121.53852199993645, 37.8371540001205], [-121.53818700020068, 37.83742500002735], [-121.53805099975823, 37.83776000015661], [-121.53800100042783, 37.838023999893935], [-121.53806599982686, 37.838316999888164], [-121.53825099977476, 37.83864500021047], [-121.53846500003502, 37.838873000077], [-121.53865800037887, 37.83902299994091], [-121.53887199974079, 37.839301000026694], [-121.53891000027394, 37.83954099997253], [-121.53883599975578, 37.83980099997855], [-121.53850100002002, 37.84012499965292], [-121.5384009995626, 37.84026799994981], [-121.53821499978974, 37.84059600010948], [-121.53798700018415, 37.840909999925316], [-121.53795899969671, 37.84125200030943], [-121.53797299994044, 37.841494999674715], [-121.53804400008553, 37.84182300005309], [-121.53810099998694, 37.84209399983189], [-121.53815799988837, 37.842322999934154], [-121.53815799988837, 37.842635999949266], [-121.53804400008553, 37.842950000302274], [-121.53769299955796, 37.843282999681385], [-121.53751799965576, 37.8434880002621], [-121.53705099967551, 37.84384900025927], [-121.53679200010777, 37.844175999869236], [-121.53667499993189, 37.844400999689434], [-121.53659499956593, 37.844722999990935], [-121.53664200031994, 37.84509300016557], [-121.53676600016847, 37.845815999913206], [-121.5367970001306, 37.846263999804606], [-121.53658500041851, 37.84665499993978], [-121.53630000001317, 37.846925999696964], [-121.53582800001006, 37.84715499969171], [-121.53562299997066, 37.84722100017464], [-121.53532599986974, 37.847316999868774], [-121.53493199968442, 37.847536000343645], [-121.5346689999187, 37.84788400016842], [-121.53453900022234, 37.848056999996025], [-121.53448700034383, 37.84819400017014], [-121.53434199968054, 37.848559999977304], [-121.53416699977836, 37.84902299986334], [-121.53410800022712, 37.84933900029794], [-121.53410200037936, 37.84945700003216], [-121.53414500003707, 37.84961900011707], [-121.53424700014432, 37.84989099977442], [-121.53445899985641, 37.8501510001779], [-121.53470499990372, 37.85034899978837], [-121.53522399976247, 37.850578999936474], [-121.53574299962123, 37.85075500024991], [-121.53619899973083, 37.85081400007154], [-121.53652500014407, 37.850801999799074], [-121.53720899985927, 37.85083799990132], [-121.5376330001818, 37.850597999833404], [-121.53777899977167, 37.850021999887694], [-121.53802599964385, 37.84962199987884], [-121.53841200033156, 37.84925100027708], [-121.53903800032046, 37.84888400018606], [-121.53948799968394, 37.848833000162266], [-121.5400350000301, 37.84884200025248], [-121.5403849998345, 37.8491229999947], [-121.54038099963653, 37.84925299989178], [-121.54071999957023, 37.84941300010525], [-121.54097599966327, 37.84993900002702], [-121.54126600009148, 37.85038199967176], [-121.54173100042192, 37.850917000320266], [-121.54201000008118, 37.85131399999464], [-121.54203299964739, 37.85180300009128], [-121.54162599994162, 37.85250400025999], [-121.54135899997792, 37.853113000046186], [-121.54137700041957, 37.85354600015246], [-121.54154700029888, 37.85421200030039], [-121.54148299982647, 37.85521599993152], [-121.54103099991487, 37.855740000152224], [-121.54059200042201, 37.85631500004304], [-121.54034600037474, 37.85671599997296], [-121.54034899984947, 37.85724100022375], [-121.54064299957733, 37.857597000025386], [-121.54111700012861, 37.85774500001071], [-121.54168399966794, 37.85761600024138], [-121.54275400007083, 37.85717300009], [-121.54386700013144, 37.856765000097845], [-121.54494300038215, 37.85612299984558], [-121.54607800018405, 37.85554899995224], [-121.54679799988428, 37.855345999724584], [-121.54749599984318, 37.85522600003288], [-121.54808800039523, 37.85541099988979], [-121.54843700037466, 37.855650999894095], [-121.54899399986826, 37.856249999965705], [-121.54928000009855, 37.85672499981016], [-121.549516999925, 37.85698600028524], [-121.55023800034843, 37.85780099977431], [-121.55088899955337, 37.8587969999118], [-121.55134999968583, 37.85966400033506], [-121.55167600009906, 37.8603999999003], [-121.55213300003356, 37.860825999723026], [-121.5525239998458, 37.86111599989853], [-121.55283600001536, 37.8611819999405], [-121.55312300007051, 37.8609630002832], [-121.55325600013988, 37.86056800010444], [-121.5533759997905, 37.85997499975963], [-121.5537420003867, 37.85923300004637], [-121.55432200034484, 37.85858099965763], [-121.55525499958209, 37.858006999754515], [-121.556176999847, 37.85805100022649], [-121.55727300018916, 37.85824499973781], [-121.55790800039888, 37.85840899973802], [-121.55844599962592, 37.85861400011173], [-121.55925099971496, 37.85884500003996], [-121.55989199977247, 37.85882500010854], [-121.56032600014075, 37.85859600018823], [-121.56061900004372, 37.85818600018908], [-121.56109400041986, 37.85781000018831], [-121.56181300029517, 37.857135000133965], [-121.56209399960424, 37.85675700032578], [-121.56226699985659, 37.856429999766696], [-121.56234700022253, 37.8560850000575], [-121.56230100019178, 37.85568200009184], [-121.56206699984006, 37.855275999809955], [-121.56148699988191, 37.854741999671816], [-121.56122199956805, 37.85428399999435], [-121.56122900013908, 37.8537719998547], [-121.56150899962323, 37.85333299972674], [-121.56197700032668, 37.85313799994621], [-121.56260999998828, 37.853353999836], [-121.56334499975709, 37.85422700030153], [-121.56495199956214, 37.85666999999982], [-121.56532499983105, 37.857188000197915], [-121.56590300013936, 37.85786299976692], [-121.56631999989087, 37.85806600015574], [-121.56671400007619, 37.858009999884196], [-121.56697400036715, 37.857860000340466], [-121.56700500032929, 37.857837000005176], [-121.56708899999487, 37.85777700008347], [-121.56714199969835, 37.85773899972955], [-121.56723999960762, 37.85766899995948], [-121.56729200038448, 37.85761600024138], [-121.5675760000666, 37.85732899992828], [-121.56801700010759, 37.857041999916234], [-121.56874100000576, 37.85702100014827], [-121.56955699996547, 37.8572439996754], [-121.57045400011599, 37.857585000147736], [-121.57058800001028, 37.858009999884196], [-121.56985200041655, 37.85853099999454], [-121.56937000036771, 37.858880999760885], [-121.5690890001603, 37.859252999867046], [-121.56876699994501, 37.85978499991363], [-121.56869999999788, 37.85981499977257], [-121.56829300029212, 37.85999900015323], [-121.56897799983221, 37.86057300014685], [-121.56960600036923, 37.86066000012152], [-121.56981200023357, 37.86068900032667], [-121.57068300044484, 37.86064600001842], [-121.57179399995732, 37.86048300004058], [-121.57301800034601, 37.860204999664404], [-121.57425899955481, 37.85983600016304], [-121.5755930004467, 37.85927799981254], [-121.57637199969815, 37.858778000000186], [-121.5770939999465, 37.858234000005865], [-121.57757500017043, 37.85795300023542], [-121.57802100023427, 37.857820999983524], [-121.5786499996979, 37.85804099979915], [-121.57896500024047, 37.85849700017587], [-121.57918600017344, 37.85953699971379], [-121.57942899984766, 37.86015999975489], [-121.5794649998327, 37.8606610001288], [-121.57950300036583, 37.86107199983776], [-121.57913199974675, 37.86151299996865], [-121.57794599989121, 37.862102000045084], [-121.57690899999858, 37.862440000078905], [-121.57546299985204, 37.86311799969916], [-121.57444400040106, 37.8637649998427], [-121.57379599977257, 37.864324000221345], [-121.5735179999382, 37.86492699981874], [-121.57338900006677, 37.86575100030179], [-121.57373999969606, 37.866515000180975], [-121.57439300034746, 37.86705800012123], [-121.57514499983472, 37.867709999980164], [-121.57580500015882, 37.868143000147576], [-121.57673900011926, 37.868594000220604], [-121.57796699980761, 37.8694069999279], [-121.578832999996, 37.86994999983065], [-121.57933400031142, 37.87063700011647], [-121.57938500036505, 37.871456999707725], [-121.57942499964972, 37.87230000018368], [-121.57819399958831, 37.875479999821735], [-121.57650999979042, 37.878424999759886], [-121.5757830004175, 37.879890000020545], [-121.57500799956736, 37.88082799999025], [-121.57459900021176, 37.88173200033358], [-121.57409799989635, 37.88256399986036], [-121.57387000029073, 37.88339500021526], [-121.57418900013293, 37.88401000025038], [-121.57455200035609, 37.88451500026646], [-121.5748489995587, 37.88502100004111], [-121.57511300004766, 37.88567400011535], [-121.57555400008862, 37.88649799968434], [-121.57592200033467, 37.887550999933595], [-121.57587299993085, 37.88805300015552], [-121.57585100018953, 37.888293000193464], [-121.57553200034732, 37.88898000026673], [-121.57496300025984, 37.8894500001884], [-121.57393899988769, 37.88972099998324], [-121.57218599959448, 37.89015399980117], [-121.57079800007259, 37.89057000030739], [-121.56990099992203, 37.89085799977177], [-121.56912099994736, 37.89124799982056], [-121.56837500030785, 37.89168000028778], [-121.56767899999875, 37.892430999784175], [-121.56717900040658, 37.89375099972709], [-121.56688300013056, 37.89458200001779], [-121.56640500027969, 37.89521400014179], [-121.56624500044612, 37.89593700018893], [-121.56610900000366, 37.89671399972935], [-121.56590399996428, 37.897672000207976], [-121.56620000024026, 37.89877399997089], [-121.56695099990264, 37.899912999950025], [-121.56816199987253, 37.90101699981219], [-121.56911299955144, 37.90152099997573], [-121.57022899998509, 37.90188300011523], [-121.57100399993689, 37.902155999812194], [-121.57176899984297, 37.90249700009864], [-121.57242999999197, 37.903058000287395], [-121.5727780001465, 37.90373900000456], [-121.57282400017726, 37.90430100006348], [-121.57262599981054, 37.90466500023296], [-121.57224900024198, 37.905012000209794], [-121.57092199992115, 37.905960000114305], [-121.5683929998512, 37.90725200034437], [-121.56476900016233, 37.90900900002198], [-121.5632889996806, 37.91060099984588], [-121.56304199980842, 37.91161700029569], [-121.56321199968772, 37.91221700033905], [-121.56398300033987, 37.91334299990012], [-121.56451300006928, 37.91402900006392], [-121.56484699998015, 37.914491000329825], [-121.56532400000613, 37.915056999676665], [-121.5657099997955, 37.91555900011856], [-121.56591900003286, 37.91609900000205], [-121.56598099995713, 37.916259000334875], [-121.56595599984279, 37.916963000074254], [-121.56559400034287, 37.918192999657435], [-121.56565600026715, 37.91849000025575], [-121.56511399994383, 37.91917300013555], [-121.56318699957338, 37.91987800024244], [-121.56186400034878, 37.9204360000049], [-121.55987000003115, 37.92086199983121], [-121.55826200040123, 37.921380999913254], [-121.55727400001408, 37.92200600030528], [-121.5568310003233, 37.922667000071066], [-121.55641899969633, 37.92330200023487], [-121.55640799982567, 37.92363900015468], [-121.55668700038326, 37.9240269996826], [-121.55739700003771, 37.924747999685884], [-121.55798500039178, 37.92535899995834], [-121.55849099983175, 37.92620800015296], [-121.55878200008489, 37.92702899999023], [-121.55889900026077, 37.92792599978146], [-121.55878600028286, 37.92873499994452], [-121.55848300033416, 37.92957400020321], [-121.55832299960228, 37.929847999665505], [-121.55757500031297, 37.93059800029409], [-121.55712300040133, 37.93146200008226], [-121.55727400001408, 37.93224700008368], [-121.55766999984921, 37.93275700011914], [-121.55809400017174, 37.93312299994781], [-121.55873699987907, 37.93372800030149], [-121.55970799964943, 37.93438799983931], [-121.56079200029606, 37.93515799995843], [-121.56145500009488, 37.93588500021136], [-121.5618030002494, 37.936751999965026], [-121.5619370001437, 37.93761200029882], [-121.5618500001051, 37.9382249999723], [-121.561634000195, 37.93895500002077], [-121.56104300036621, 37.939389999896925], [-121.5608800001596, 37.939880000085985], [-121.56125599990324, 37.94091299990048], [-121.56147400036143, 37.94155200034959], [-121.56201300031171, 37.94213199989822], [-121.56323500015225, 37.94268300004682], [-121.56361799956859, 37.94344000004806], [-121.56340599985647, 37.94427300005522], [-121.56278800026351, 37.9446900002013], [-121.56190799983139, 37.944881000150744], [-121.56100400000817, 37.944919999738154], [-121.55995899971961, 37.944960000292525], [-121.55922200030095, 37.945149999971946], [-121.55817500036258, 37.94537899992072], [-121.55777199995646, 37.94590899988602], [-121.55758299981056, 37.94649600014958], [-121.5578459995763, 37.94700700003536], [-121.55818000038546, 37.94736699968288], [-121.55901399988849, 37.94748200031032], [-121.56003800026065, 37.947606000113794], [-121.5606829996178, 37.94757899991735], [-121.562471999896, 37.94692100032686], [-121.56364000020822, 37.94611000001185], [-121.56459400026016, 37.94516699971426], [-121.56554999996195, 37.94416800013986], [-121.56662200001465, 37.94396100002916], [-121.56740899966202, 37.94398199980002], [-121.56817299974318, 37.94455000013072], [-121.56860299991351, 37.945458999799534], [-121.56874699985354, 37.946368999817906], [-121.56898799987796, 37.94761800019791], [-121.56884599958774, 37.948451999826666], [-121.56851500004994, 37.9491709999767], [-121.56794500013756, 37.94985400032073], [-121.56649499979306, 37.95100999970904], [-121.56518900028692, 37.95220300035053], [-121.5645470004045, 37.952772000344346], [-121.56369200008673, 37.95351199988793], [-121.56333100041172, 37.954084000124325], [-121.5635139998115, 37.95474499974874], [-121.56411300003623, 37.95511499972266], [-121.56526100025692, 37.95511499972266], [-121.56645999963295, 37.95489000023819], [-121.57015600019017, 37.954223999736485], [-121.57218300011976, 37.953905999938705], [-121.57358900008332, 37.95375600025119], [-121.57451999967076, 37.95443899975974], [-121.57518800039072, 37.95504499973653], [-121.57528499957681, 37.95561300024839], [-121.57514300018491, 37.95623900013903], [-121.57450100030249, 37.9569389997856], [-121.57328899960935, 37.957318999734376], [-121.57157800004725, 37.95753000018225], [-121.56988900022647, 37.95749499993169], [-121.56796400040415, 37.95747800020872], [-121.56653699962585, 37.95761400000723], [-121.56558599994695, 37.957784999682964], [-121.5651109995708, 37.95823899974424], [-121.5649700000038, 37.9589599999011], [-121.56513800023328, 37.9598489996542], [-121.5657109996204, 37.96051300001244], [-121.56639299968579, 37.960984999893306], [-121.57012400040311, 37.96326200021447], [-121.57299999990435, 37.96575200024013], [-121.57334499968584, 37.966074999698854], [-121.57371299993187, 37.96643400010494], [-121.57391299994842, 37.967253000347995], [-121.57384500017636, 37.97057800004746], [-121.5740250001014, 37.97125300025008], [-121.57414800012506, 37.97181300002487], [-121.57442400030959, 37.97247699983684], [-121.57482299961946, 37.973025000008164], [-121.57554999989067, 37.973675000337344], [-121.57647999965319, 37.97392799994755], [-121.57714699964994, 37.97424399968018], [-121.57783700011126, 37.97459599995884], [-121.57866099956856, 37.97522300005802], [-121.57946200035794, 37.97598200009324], [-121.57994299968357, 37.976113000336014], [-121.58020999964725, 37.97637000015467], [-121.57999299991228, 37.97696699971815], [-121.5793109998469, 37.97744200026208], [-121.57861200006307, 37.97762700030551], [-121.57696500007506, 37.97775900027728], [-121.57541799964619, 37.97748200010048], [-121.5742369998135, 37.97741600024921], [-121.57328799978443, 37.97765400007765], [-121.5727060001765, 37.97809000005824], [-121.57239300018202, 37.97904500031382], [-121.57314200019458, 37.97995700018164], [-121.57358300023556, 37.98030899996891], [-121.57558400022586, 37.98066500007224], [-121.57761399963019, 37.98096900024139], [-121.57952699975696, 37.98154999988898], [-121.58053400041067, 37.982081999669376], [-121.58137799995944, 37.982760000291975], [-121.58183400006902, 37.98305900006118], [-121.58235999960048, 37.9834610003455], [-121.58246300043096, 37.98392199990518], [-121.58102499978202, 37.98952500035194], [-121.58002600042258, 37.99103400005689], [-121.57837900043457, 37.99232899990933], [-121.57714800037319, 37.99338500022256], [-121.57634999995683, 37.99421699978059], [-121.57608399981808, 37.99485499986429], [-121.57627100031412, 37.99586900033359], [-121.57649300007198, 37.9959779997074], [-121.57688399988422, 37.9965729998763], [-121.57736199973509, 37.99712700017125], [-121.57794099986832, 37.99743900014888], [-121.5790999999597, 37.99787099972373], [-121.57923600040212, 37.998114999912545], [-121.57894500014899, 37.998549999816696], [-121.57783000043857, 37.99902500010117], [-121.57576699962566, 37.99895899980604], [-121.57451999967076, 37.99887999970717], [-121.57352899980886, 37.99890799969817], [-121.57264699972693, 37.99868799978423], [-121.5722569997396, 37.99872199996203], [-121.5712080001514, 37.99886599970764], [-121.5705600004212, 37.99902500010117], [-121.56989400024933, 37.99952699965112], [-121.569428000094, 38.0004250000693], [-121.56897799983221, 38.00138999991114], [-121.56884499976285, 38.00223400033862], [-121.569095999833, 38.002788999833534], [-121.56961200021702, 38.00315999995291], [-121.57095899973105, 38.00329200000056], [-121.57237800011342, 38.003264000267706], [-121.57391399977331, 38.00322700019985], [-121.57485000028194, 38.00308200032789], [-121.57599900032754, 38.00329200000056], [-121.5775800001933, 38.00359599984996], [-121.57824499964194, 38.00389800019414], [-121.57871099979727, 38.0042549999788], [-121.57907700039348, 38.004769999944806], [-121.5794599998098, 38.00541899992112], [-121.57979500044388, 38.006231000067515], [-121.57984200029954, 38.006435999883045], [-121.57994699988151, 38.007062999707806], [-121.57991000007159, 38.00778300006549], [-121.57963200023725, 38.00853500006224], [-121.57925800014344, 38.009100999825094], [-121.57849599971212, 38.01027799983095], [-121.57787899994405, 38.01082000026402], [-121.57701500030377, 38.01111000025775], [-121.57508499956026, 38.01150700000464], [-121.57330500040119, 38.01171799968856], [-121.57154100023733, 38.0115739997017], [-121.56954500026988, 38.011389000325785], [-121.56886200037958, 38.011427999976746], [-121.56815000017697, 38.01138299983325], [-121.56714900026935, 38.011982999947364], [-121.56686700023707, 38.01270899978994], [-121.56696500014634, 38.013528000249345], [-121.56793099989385, 38.01429399994478], [-121.56902899988586, 38.014796999740526], [-121.57100899995976, 38.015258999850595], [-121.57169100002515, 38.0156160002251], [-121.5722070004092, 38.01594499972442], [-121.57260499989414, 38.016395000219106], [-121.57278900001715, 38.01690999983261], [-121.57275499968196, 38.01746500005076], [-121.57261999996277, 38.01800199975396], [-121.57205199970018, 38.0184100002388], [-121.57124099976336, 38.018578999845495], [-121.57028500006157, 38.018684000208864], [-121.56889499999156, 38.01863900027378], [-121.56799799984101, 38.01852100004533], [-121.56643399969369, 38.01807099986543], [-121.56520199980739, 38.01734600005445], [-121.56449100032799, 38.01660699999802], [-121.56311899980129, 38.0160080002431], [-121.56189799978564, 38.01560700000507], [-121.56106900030548, 38.01544099999511], [-121.56025400017072, 38.015466999978834], [-121.55946900017315, 38.0156140001763], [-121.55832099995244, 38.01573200013109], [-121.55797199997299, 38.01594599974432], [-121.55772699975061, 38.01622599982257], [-121.55752799955896, 38.0166150000845], [-121.55755400039656, 38.017036999869546], [-121.55773900034448, 38.0175149999916], [-121.55806800023245, 38.018227999682146], [-121.55847599976316, 38.018846000029555], [-121.55884499983408, 38.019429999652125], [-121.55962200033403, 38.020080000024514], [-121.56043900011862, 38.02089199983698], [-121.56125699972816, 38.02154100003629], [-121.56224000009242, 38.022547999951826], [-121.56330399974922, 38.02391299968447], [-121.56375400001102, 38.02475699981611], [-121.56395700040062, 38.02537299980835], [-121.56448999960479, 38.02621799998505], [-121.56416200044002, 38.02852500035109], [-121.56422600001413, 38.02969900028146], [-121.56487000044469, 38.030212000149135], [-121.56531200031056, 38.030304000284765], [-121.5663709999445, 38.030293999921824], [-121.56860799993638, 38.0298159996613], [-121.56994000028007, 38.029688000003574], [-121.57081700033915, 38.029760999758395], [-121.57138800007644, 38.03042299975823], [-121.57180900002592, 38.031375999717035], [-121.57159899996364, 38.032949999668276], [-121.57102800022633, 38.035237999972665], [-121.57081899998899, 38.0380030000199], [-121.57126900025078, 38.04010000023062], [-121.57216899987606, 38.041412000194256], [-121.57300900012517, 38.04215000014624], [-121.57415099959978, 38.04279399982688], [-121.57604199998526, 38.04298499988996], [-121.57763399972167, 38.0429600001249], [-121.57901399974598, 38.042340999766786], [-121.58018500043121, 38.04126799983679], [-121.58084499985698, 38.039743000285036], [-121.58078600030576, 38.03878899981634], [-121.58042599955732, 38.03795599977559], [-121.57979500044388, 38.0366449998936], [-121.57907499984535, 38.03571499977156], [-121.57835400032019, 38.03454700004243], [-121.57794800043935, 38.03381700021675], [-121.57811199957257, 38.03307100007614], [-121.57883399982092, 38.03263999968769], [-121.57993000016309, 38.03211599992838], [-121.58081499971976, 38.03202099983662], [-121.58168599993104, 38.03235499966648], [-121.58264599983075, 38.0332130000017], [-121.58357800014139, 38.03438099977714], [-121.58438800025331, 38.03602500018097], [-121.58466100006478, 38.03731400016219], [-121.58486799975401, 38.038290000134815], [-121.5850779998163, 38.04026699995647], [-121.58471899979111, 38.04354500031452], [-121.58345699976759, 38.04751300018493], [-121.58230500024722, 38.05143599974207], [-121.58242700044596, 38.05380700022643], [-121.58351100019425, 38.05928000020924], [-121.58387900044028, 38.05989699996537], [-121.58359400003494, 38.06058000020762], [-121.58324599988039, 38.06139100007735], [-121.58291899964223, 38.06290200015132], [-121.58264599983075, 38.06372100034729], [-121.58224400014784, 38.06438799991509], [-121.58219300009424, 38.065158999934724], [-121.58244699963915, 38.06636900026112], [-121.58238600043806, 38.067537000139964], [-121.58220300013997, 38.068423000118734], [-121.58183400006902, 38.06889400009816], [-121.58138399980723, 38.06916900004129], [-121.58113100008725, 38.06925700003107], [-121.5806060003807, 38.069390999812185], [-121.57977000032953, 38.06960099968261], [-121.57848900003941, 38.07005999999802], [-121.57747899991097, 38.07047900026281], [-121.57600099997738, 38.07114799969192], [-121.57482900036554, 38.0718399999565], [-121.57384699982617, 38.07274200008566], [-121.57317700035468, 38.07348699986584], [-121.57289299977421, 38.07374200005026], [-121.57292299991146, 38.07423900006227], [-121.57540199975269, 38.07647400019381], [-121.57607600032044, 38.07725700021476], [-121.57674900016502, 38.07819300008197], [-121.57701399958057, 38.08012299978947], [-121.57696599989998, 38.08161299977909], [-121.57727899989443, 38.08493800001823], [-121.57723100021384, 38.08600800029561], [-121.57776000011839, 38.08946600008312], [-121.57833800042668, 38.09173900034164], [-121.57882100030044, 38.092556999651805], [-121.57925200029568, 38.09341999966545], [-121.58002200022457, 38.094414000300304], [-121.58063599961959, 38.094159000092326], [-121.58128400024812, 38.09393699986051], [-121.58224999999564, 38.09489000009913], [-121.58528299985572, 38.096365999844274], [-121.58696300035398, 38.09667499965843], [-121.58809399995795, 38.096807000148516], [-121.58845499963297, 38.09687699985113], [-121.58952900023382, 38.09708600035173], [-121.59143899998756, 38.097448000000746], [-121.5933639998099, 38.09771299968108], [-121.59759299957125, 38.09854899984442], [-121.60492299986308, 38.09987800022116], [-121.61365300027069, 38.09965000006616], [-121.62606400026858, 38.09847999992921], [-121.62737599962253, 38.09835999979856], [-121.62795300010592, 38.098099000177136], [-121.628353000139, 38.097918000068354], [-121.62899400019649, 38.09726099987478], [-121.6295740001546, 38.09601100004651], [-121.63009200018848, 38.094606999971546], [-121.63091599964578, 38.09241800007065], [-121.63164899976479, 38.09073899973763], [-121.63242500043984, 38.08899399993648], [-121.63259500031914, 38.0886110000477], [-121.63424300013206, 38.08722199978051], [-121.6365770002083, 38.08639099968086], [-121.63808799975386, 38.08613100021537], [-121.64051399989162, 38.08639099968086], [-121.64284899979279, 38.08684799975005], [-121.64518299986904, 38.08741299985011], [-121.64698399984283, 38.08832799964749], [-121.64814299993418, 38.089258999868214], [-121.6484330003624, 38.08959500028945], [-121.64875399985445, 38.09003700015791], [-121.64898300018332, 38.09014400000263], [-121.64936399994984, 38.09031899988678], [-121.65206399972396, 38.091618999747226], [-121.66186500035938, 38.09561800024076], [-121.66246500040901, 38.09561800024076], [-121.67306500038738, 38.093517999671555], [-121.67847499998143, 38.08985399973679], [-121.67926500000183, 38.089318999652676], [-121.67954600020923, 38.08852899984213], [-121.68023499994733, 38.086595000245744], [-121.6809239996854, 38.08466099968698], [-121.68099300018068, 38.0844670001243], [-121.68106199977765, 38.08427300004679], [-121.68186500021687, 38.08201899977732], [-121.68176499975944, 38.08131900027489], [-121.68166500020033, 38.08061899972801], [-121.68139300021379, 38.07989000025784], [-121.6810579995797, 38.078699999663264], [-121.68066099991968, 38.0778230000644], [-121.68024900019101, 38.076647999665795], [-121.68003499993078, 38.075411999733774], [-121.67992899962557, 38.07418400029119], [-121.67989799966344, 38.07278700001715], [-121.67982200039377, 38.07185700004927], [-121.67970000019503, 38.070574999941634], [-121.67962300020213, 38.06946900027899], [-121.67959300006488, 38.06811099965642], [-121.67965400016426, 38.066996999982635], [-121.679776000363, 38.06577600033377], [-121.67976499959406, 38.06561899987985], [-121.67976499959406, 38.06511899983359], [-121.67996499961058, 38.064718999741], [-121.67998999972494, 38.064569999647865], [-121.68026400025963, 38.063525000246194], [-121.68056899985817, 38.062807999772936], [-121.68085900028638, 38.062129000202354], [-121.68147000020666, 38.06124399979025], [-121.68203400027127, 38.06066400015962], [-121.68285400042892, 38.05985699981675], [-121.68291899982795, 38.05979400022799], [-121.68306500031612, 38.05961900014255], [-121.6833649998918, 38.059418999835636], [-121.68356499990834, 38.05921899968938], [-121.68376499992485, 38.05901899970389], [-121.68439900030968, 38.05852100011641], [-121.68526499959975, 38.058020000217994], [-121.68536099985923, 38.05790299992138], [-121.68626499968245, 38.057320000201294], [-121.69166500012908, 38.05352000009843], [-121.69201300028364, 38.05319599995475], [-121.69334100042938, 38.051746000092805], [-121.69462299964609, 38.05041099972087], [-121.69604200002846, 38.049121999667776], [-121.69717099998256, 38.04785500031823], [-121.69796500020097, 38.04712000005714], [-121.69811699963861, 38.046985999813884], [-121.69876500026713, 38.04631999970694], [-121.69976500034983, 38.0452199997198], [-121.7006649999751, 38.04471999966459], [-121.70094000033471, 38.044482999919936], [-121.70277100044574, 38.043484000122405], [-121.70434300009065, 38.04248399977145], [-121.70564000027429, 38.041866000007865], [-121.70596499996428, 38.04171999979206], [-121.70656500001391, 38.04131999986099], [-121.7068450003964, 38.04120299975463], [-121.70756199972358, 38.040851999728936], [-121.70813099981105, 38.04059300009053], [-121.70956100006407, 38.03994400027826], [-121.71093400041568, 38.039409999884754], [-121.71246000002984, 38.038890999690004], [-121.71386400034359, 38.03850200024193], [-121.71529799989625, 38.03814300014742], [-121.71656499994263, 38.03782000029862], [-121.7168650004166, 38.03771999979382], [-121.72556499978869, 38.033820000252206], [-121.72576499980521, 38.033719999946236], [-121.72592499963879, 38.03364000002766], [-121.72596599964669, 38.03362000021126], [-121.72601400022556, 38.03357900007531], [-121.72665100008514, 38.03304700025092], [-121.72742900040996, 38.03246700007766], [-121.72807899979, 38.032048999906294], [-121.72854300029549, 38.0317500003279], [-121.72942799985215, 38.03114699986295], [-121.73171699972256, 38.02951399995542], [-121.731965000318, 38.029419999863244], [-121.73236500035108, 38.029120000327914], [-121.73256500036761, 38.02901999997396], [-121.73286499994327, 38.028920000191064], [-121.73363999989509, 38.02847699983667], [-121.73470399955188, 38.027919999808034], [-121.73626799969921, 38.02731900009622], [-121.73782400034892, 38.02663000021833], [-121.7395039999489, 38.02616400009191], [-121.74110099970817, 38.02581900018901], [-121.7419350001095, 38.025635999747244], [-121.74448099989786, 38.02508699992528], [-121.74666400036138, 38.024698000051714], [-121.74890800002595, 38.02436200017582], [-121.74908399975304, 38.02434800008859], [-121.75071499984752, 38.024234000188464], [-121.75162100021888, 38.02430499990496], [-121.75167999977012, 38.02430800033003], [-121.75186600044128, 38.02431900000041], [-121.75388300032512, 38.02420300024083], [-121.75491299964675, 38.0241880002158], [-121.7558030001246, 38.02412899999316], [-121.75597999967661, 38.02411900020263], [-121.75825100000365, 38.02412899999316], [-121.7600009999238, 38.02392699985482], [-121.76198500019571, 38.02375199965609], [-121.76347399999993, 38.02351799974012], [-121.76434699986105, 38.0233480002821], [-121.7643739996252, 38.02334200006094], [-121.76512699983573, 38.02319499979581], [-121.76647000005009, 38.0227759998673], [-121.76793399974, 38.02216499965473], [-121.76949000038971, 38.02156999980856], [-121.77061900034384, 38.02111199964892], [-121.77190099956054, 38.020692999840215], [-121.77298500020714, 38.02036499967617], [-121.77452500006503, 38.01977699984972], [-121.77583700031725, 38.0193820002561], [-121.77748500013016, 38.01891700001282], [-121.77827199977753, 38.01901999993607], [-121.77884199968994, 38.01894800007362], [-121.77991000044302, 38.0188259997128], [-121.78139000002645, 38.01861200001636], [-121.78314400014455, 38.01853599981505], [-121.78427300009868, 38.01853599981505], [-121.78543300001498, 38.01860400014786], [-121.78643999977034, 38.018643000206175], [-121.78743099963222, 38.018475000024786], [-121.78877300002169, 38.018421000086875], [-121.78961300027083, 38.01846700014133], [-121.7904690004135, 38.018619999883946], [-121.79076899998915, 38.018619999883946], [-121.79116900002224, 38.01872000027857], [-121.79191600038494, 38.01888699991862], [-121.79344199999912, 38.01911599987847], [-121.79486200020638, 38.01946200017554], [-121.796263999972, 38.0200459998431], [-121.79656699992069, 38.02011999996798], [-121.7980180000901, 38.020862999796385], [-121.80000099963877, 38.02129000033225], [-121.80106600001879, 38.02141999969137], [-121.80127000023332, 38.02162199966426], [-121.80146600005187, 38.02141999969137], [-121.8024460000431, 38.02136799969234], [-121.8033730003309, 38.02132000015037], [-121.804867000158, 38.02111999995128], [-121.8050370000373, 38.02105299978025], [-121.80680700004895, 38.02076400015713], [-121.80833299966312, 38.02046599977091], [-121.8087960003437, 38.020396999791295], [-121.80931000017961, 38.02032100002578], [-121.810653000394, 38.02028999983803], [-121.81190399964854, 38.02035899991839], [-121.81330799996229, 38.02053499968556], [-121.81451300008442, 38.02075599981585], [-121.81567300000069, 38.02103799981808], [-121.81590700035241, 38.021125999646756], [-121.81695400029079, 38.02151899985977], [-121.81817500030644, 38.022190000149045], [-121.8190180000303, 38.022875000326664], [-121.81915600012256, 38.02298699966293], [-121.81974799977627, 38.023376000128415], [-121.82017799994657, 38.02365899986972], [-121.82124599980135, 38.02442900015187], [-121.8222709999984, 38.025022000342965], [-121.82267100003148, 38.0253219996759], [-121.82306699986661, 38.02531999989199], [-121.82349399966388, 38.02551800017124], [-121.82386699993278, 38.02569199980336], [-121.82490200017558, 38.026281000163934], [-121.82536699960768, 38.02662000006149], [-121.82568499962498, 38.02674700025377], [-121.82586700009816, 38.02682000010868], [-121.82684200006652, 38.02738600019879], [-121.82755900029203, 38.027798000232416], [-121.82766700024706, 38.027919999808034], [-121.82806700028013, 38.028020000248304], [-121.82836699985579, 38.02822000001174], [-121.82871900020831, 38.0285149997453], [-121.83021399986032, 38.02965199966152], [-121.83031699979249, 38.029722999788476], [-121.83058100028146, 38.02990400026918], [-121.83161800017407, 38.030666000050715], [-121.83178600040354, 38.030841999826144], [-121.83212199996424, 38.03110099998511], [-121.8341980002976, 38.034733000156976], [-121.83656300033601, 38.03740299997953], [-121.83700600002682, 38.037891000291154], [-121.83720400039351, 38.03809000027214], [-121.83731099962532, 38.038241999651575], [-121.83793599978932, 38.0389439996931], [-121.83840899961731, 38.04008900009977], [-121.83897400040517, 38.041453999861936], [-121.83958399960221, 38.04291900026529], [-121.84056100011871, 38.04526900020082], [-121.84085099964862, 38.04702400002394], [-121.84106400008393, 38.048335000143844], [-121.84165900011071, 38.051973999672626], [-121.8420399998772, 38.052564999940294], [-121.84680199974106, 38.05995500024812], [-121.85102700020276, 38.06293500015774], [-121.85363900011338, 38.06477599967737], [-121.85385199965039, 38.06485300005447], [-121.85452399967001, 38.065089000273794], [-121.86213799964396, 38.06606599991244], [-121.8624430001408, 38.06606599991244], [-121.86246200040738, 38.066029999773605], [-121.86253400037741, 38.0658980002917], [-121.86253400037741, 38.065676999870576], [-121.86264099960921, 38.06492900029213], [-121.86311400033553, 38.06347199964876], [-121.8631469999475, 38.06340299986764], [-121.86364800026291, 38.06238100009287], [-121.86447199972024, 38.060985000148904], [-121.86518899994572, 38.0599090000764], [-121.86636399993061, 38.05831400001086], [-121.86740199964814, 38.056894999956], [-121.86766899961184, 38.05657799969218], [-121.8685459996709, 38.055545000156314], [-121.86940099998863, 38.054598999922575], [-121.86946899976071, 38.05451900017802], [-121.86958199973861, 38.05441400024801], [-121.87064799994356, 38.053439999881945], [-121.8711009996801, 38.05302700027347], [-121.87270800038341, 38.05184400006749], [-121.87458999964974, 38.05076800000035], [-121.87460600044159, 38.05075800030951], [-121.87474299981062, 38.05067600010479], [-121.87504800030746, 38.05055400023404], [-121.87607199978129, 38.05012499997867], [-121.87770799989862, 38.049514000097844], [-121.87823500015332, 38.0493180001452], [-121.88018400026509, 38.0487089997483], [-121.8827600001907, 38.04815599980459], [-121.88356299973158, 38.047984000350716], [-121.8844630002552, 38.047765000177414], [-121.88501999974879, 38.04762899981761], [-121.88517700010762, 38.047590999921574], [-121.8866740003078, 38.04722900033281], [-121.88669400039927, 38.04722400024583], [-121.88725799956556, 38.047113999660816], [-121.88957300027357, 38.046657000335536], [-121.89071200027344, 38.046531999911814], [-121.8918010000446, 38.046414000040386], [-121.89332699965878, 38.046184999807124], [-121.8962420004164, 38.04584900015486], [-121.89888199991609, 38.045574000292035], [-121.90117099978649, 38.04536099981709], [-121.90315400023349, 38.04533000032069], [-121.90466999980188, 38.04531999988703], [-121.90544599957862, 38.04520400013311], [-121.90680100038688, 38.04500200009854], [-121.90778499967774, 38.04501199986823], [-121.9085699996753, 38.04501999968299], [-121.91014300004343, 38.04495599972557], [-121.91160900028146, 38.04503000015763], [-121.91194300019231, 38.04504799973515], [-121.91257400020406, 38.04507599977664], [-121.91362199996738, 38.045124000024956], [-121.91554400031497, 38.04521599982342], [-121.91733000022012, 38.045429000012795], [-121.91890100004015, 38.04558200004539], [-121.92079400007542, 38.04572599970074], [-121.92212100039626, 38.045900999755546], [-121.9233259996201, 38.04612300008416], [-121.92442500033532, 38.0462679996964], [-121.92452800026749, 38.0462830001522], [-121.9258139996821, 38.046474000310525], [-121.92802700028285, 38.046969000309275], [-121.92809699970475, 38.0469830003177], [-121.92845999992792, 38.04705399991519], [-121.92882499980091, 38.04712599974553], [-121.92932699994122, 38.047224999838804], [-121.92953799982843, 38.0472669997093], [-121.93100300024153, 38.04760999987206], [-121.93189600019413, 38.0478760000758], [-121.93274300011595, 38.04813000010225], [-121.93275800018456, 38.048133999839415], [-121.93280300039044, 38.04814700004469], [-121.9328179995607, 38.048152000068676], [-121.93337099975466, 38.048288000164334], [-121.93429899986735, 38.048517999761565], [-121.93503199998635, 38.04869600035019], [-121.93542799982148, 38.048792999884725], [-121.93557900033255, 38.04885599974691], [-121.93634300041369, 38.0491739997734], [-121.93758000032285, 38.049745999912204], [-121.93776199989775, 38.049830000273495], [-121.93867800031487, 38.05018899966187], [-121.93957799994014, 38.050441000346396], [-121.94093600022313, 38.05091399985875], [-121.94232499956995, 38.05140199996598], [-121.94377099971646, 38.0519430001469], [-121.94383500018891, 38.05196700014595], [-121.94519299957358, 38.05241700008649], [-121.94585700009561, 38.05261300023009], [-121.94676500011681, 38.052881999901075], [-121.94685899982814, 38.052905000076905], [-121.94864200025859, 38.05334799980777], [-121.94989500006129, 38.05367799984478], [-121.95054899963925, 38.05385100027721], [-121.95091100003751, 38.053918000159], [-121.95091199986241, 38.054130000288865], [-121.95091699988531, 38.05476599982369], [-121.95091900043343, 38.054978000326784], [-121.95567899974913, 38.05781599986971], [-121.95720199988855, 38.058643000146915], [-121.96220800014987, 38.06136500012506], [-121.9652090002229, 38.06260799969472], [-121.96956199983282, 38.064411000011255], [-121.97228099987355, 38.06553800010856], [-121.97744000029574, 38.066840000027184], [-121.98315799986133, 38.06729699993344], [-121.98667100012047, 38.06692499989624], [-121.98732700024657, 38.066840000027184], [-121.98756700044608, 38.06680899972588], [-121.99135199979344, 38.06631999975993], [-121.99670899968402, 38.065765999864446], [-122.00060299970964, 38.06536499972039], [-122.0010730000629, 38.0653090002961], [-122.00568099994095, 38.064759000060825], [-122.00791499955977, 38.06449299968015], [-122.01290499992756, 38.06379700034627], [-122.01517500042972, 38.06348100035345], [-122.01982599996549, 38.06227099965241], [-122.02497500034191, 38.060290000103684], [-122.02841099970982, 38.059189999969426], [-122.02923400024052, 38.05929600025598], [-122.03277300043888, 38.059752999893874], [-122.03625999986039, 38.060204000183624], [-122.04594000012202, 38.060204000183624], [-122.05033899976269, 38.060204000183624], [-122.05038599961834, 38.06019800015256], [-122.0508740004133, 38.0602009998145], [-122.0568730001863, 38.0613359998409], [-122.05943099967024, 38.06182000007827], [-122.06110299977257, 38.06213700026834], [-122.06125599993344, 38.06209900012391], [-122.06250700008634, 38.061709000106525], [-122.06365100010908, 38.061404000050025], [-122.06500900039207, 38.060985000148904], [-122.0665960001056, 38.060358999991166], [-122.06729800026247, 38.06007700000991], [-122.07526299986571, 38.055156000061416], [-122.0761480003207, 38.054615000285416], [-122.0765449999807, 38.054408999944435], [-122.07672800027882, 38.05431799987703], [-122.07743000043568, 38.05400499989288], [-122.07982600043623, 38.053172999870405], [-122.08098499962927, 38.05283000030736], [-122.08251100014176, 38.05235699973555], [-122.08415899995468, 38.05186099985485], [-122.08459199959971, 38.051679000344976], [-122.08574599966822, 38.05119700002437], [-122.08723500037077, 38.050634000067845], [-122.08874599991633, 38.05009199985489], [-122.09031799956124, 38.04971800024191], [-122.09274399969901, 38.04935200018181], [-122.09312500036383, 38.04926799997944], [-122.09337499971078, 38.04911999982627], [-122.09384599988897, 38.04896700011332], [-122.09526100007335, 38.048507000187854], [-122.09573300007646, 38.04835500018615], [-122.09600099986507, 38.04826800010367], [-122.0968059999541, 38.04800599965354], [-122.09707499956762, 38.0479200001546], [-122.09872599975355, 38.04746000001716], [-122.09968400000349, 38.047048999816276], [-122.099776000065, 38.047008000124045], [-122.1005510000168, 38.04667599982097], [-122.10183399995672, 38.04620600004372], [-122.10258899981704, 38.045931000106975], [-122.10275700004654, 38.045876000278604], [-122.1158350000412, 38.04029400001617], [-122.11795700040533, 38.039388999821504], [-122.1180829999037, 38.039339999650466], [-122.11884899963468, 38.03882999986588], [-122.11925299986574, 38.03856199992056], [-122.12009499976472, 38.03822099996093], [-122.12039500023866, 38.03814000028903], [-122.12049800017083, 38.03811399985999], [-122.12064100028597, 38.03808000026466], [-122.12080799979225, 38.038038999795226], [-122.12088700033325, 38.03802000019118], [-122.12091200044762, 38.03801300003785], [-122.12092699961791, 38.03800800002905], [-122.1209760000217, 38.03799399971954], [-122.12099199991523, 38.037990000135956], [-122.12113099983243, 38.037891000291154], [-122.12152900021567, 38.037609000064045], [-122.1217429995776, 38.037470999783004], [-122.12197399955627, 38.037220999903596], [-122.12210999999871, 38.037034999739696], [-122.1224520003055, 38.03662500019019], [-122.122536999796, 38.03652399972965], [-122.12316100013504, 38.0360819998236], [-122.12359299995518, 38.035891999898965], [-122.12372400037475, 38.03583500010851], [-122.12387599981241, 38.035764000245386], [-122.1239729998968, 38.035716999979215], [-122.12568000015924, 38.03539900023133], [-122.12706799968115, 38.03518299989554], [-122.12782799956433, 38.035123000278794], [-122.1281849999397, 38.035060999679814], [-122.13017400023448, 38.03471800016526], [-122.13028700021236, 38.03471200016772], [-122.1315359998171, 38.03449200015392], [-122.13317299975935, 38.0340689999398], [-122.1335429996552, 38.033962999914834], [-122.13439299995011, 38.033719999946236], [-122.13608799961865, 38.03321500027769], [-122.13713799993009, 38.03284100007117], [-122.13936599970113, 38.032176999684], [-122.1415330002711, 38.03186200024906], [-122.14311999998463, 38.03176100029614], [-122.14361999957686, 38.03176399970828], [-122.14518100024942, 38.03177499967443], [-122.14686599987225, 38.03172699987439], [-122.14707699975945, 38.031721000339374], [-122.14737600040853, 38.031721000339374], [-122.1482769998587, 38.031721000339374], [-122.14857700033266, 38.031721000339374], [-122.14929299983493, 38.03180800027055], [-122.15024699988686, 38.03192600032923], [-122.15143299974243, 38.03213799975331], [-122.15186399973764, 38.032216000301496], [-122.15214699959488, 38.03224899999136], [-122.1530520001413, 38.03235300007454], [-122.15351200044887, 38.03240699965122], [-122.15575000026564, 38.03278199974121], [-122.15596899965044, 38.0328189997498], [-122.15665200043904, 38.03291700029421], [-122.15669099989881, 38.03292199994305], [-122.15681200027264, 38.032939999666546], [-122.15685199955729, 38.032945999809236], [-122.15741899999495, 38.03302599977822], [-122.15799800012817, 38.03310899972447], [-122.1589289997156, 38.03324599994993], [-122.15911700003656, 38.033298999792855], [-122.15925000010597, 38.033337999812964], [-122.15968100010119, 38.033398999966074], [-122.15999699957037, 38.03344499981593], [-122.16044000015948, 38.03363499972031], [-122.1606529996965, 38.03373399965769], [-122.16088799987311, 38.03378000000473], [-122.1621950001025, 38.034040000161816], [-122.16320199985789, 38.03429900033413], [-122.1645769998593, 38.03472100016387], [-122.16459100010302, 38.03473199968596], [-122.16520100019841, 38.03522200032756], [-122.16566200033083, 38.03539900023133], [-122.16585700032451, 38.035474000169486], [-122.16607499988439, 38.03561499993016], [-122.16674199988117, 38.03604599979381], [-122.16719399979279, 38.03646000012935], [-122.1673829999387, 38.03663399995126], [-122.16757700010744, 38.03672099970723], [-122.16783999987318, 38.03703800035088], [-122.16798899983608, 38.03721500011111], [-122.16864900016019, 38.03799800001037], [-122.16916800001893, 38.038744999910236], [-122.16953600026496, 38.03927499997949], [-122.16965599991558, 38.03944799978176], [-122.16971700001491, 38.039531999930965], [-122.17060900014262, 38.040711000145926], [-122.17078499986971, 38.040943000263965], [-122.1738539997148, 38.04500200009854], [-122.17470800020764, 38.046130999777525], [-122.17493900018633, 38.04643099967386], [-122.17508899997415, 38.04662700028161], [-122.17609599972954, 38.04777200010587], [-122.17618799979104, 38.04786299982234], [-122.17721399981302, 38.04868199996193], [-122.1782890002388, 38.04954199984611], [-122.18386299986437, 38.05399700035257], [-122.19033100016574, 38.05549600018727], [-122.19480500014949, 38.05653299969294], [-122.19492099960212, 38.056560000120236], [-122.1952710003048, 38.05664099992757], [-122.19538799958237, 38.05666800031497], [-122.19547600034421, 38.05668800020258], [-122.19574300030791, 38.05675000017304], [-122.19583199999637, 38.05677100020819], [-122.19596400024086, 38.056801000348976], [-122.19636000007597, 38.05689399978773], [-122.19649200032045, 38.056925000045915], [-122.19712300033221, 38.05707199981382], [-122.19754699975643, 38.057169000273674], [-122.19867900008363, 38.05743000030377], [-122.20067699970089, 38.05789399994522], [-122.20071500023404, 38.05790299992138], [-122.20084599975529, 38.05793399975216], [-122.20177800006594, 38.058119999875906], [-122.20290899966989, 38.05825900029096], [-122.20460699971152, 38.05846900028506], [-122.20597199966721, 38.05863699998787], [-122.20630300010332, 38.058678000239915], [-122.20743500043048, 38.0588179997371], [-122.20868800023318, 38.05897200021858], [-122.21056799984969, 38.059203999762516], [-122.21244699964127, 38.05943599998553], [-122.21370000034229, 38.05959100000516], [-122.21588000043273, 38.05986000019998], [-122.22242300017886, 38.060666999802514], [-122.22456399991128, 38.06093099972039], [-122.22460499991918, 38.06093600028567], [-122.22471899972199, 38.06094999974473], [-122.22506299967856, 38.06099200022775], [-122.22517800020462, 38.0610059996761], [-122.22519300027322, 38.06100799990017], [-122.22523599993092, 38.06101399986486], [-122.22531799994671, 38.06101399986486], [-122.22574300009413, 38.06101700020066], [-122.22585500024712, 38.06101800031257], [-122.22588500038435, 38.06101800031257], [-122.2259310004151, 38.06101899971717], [-122.22594499976049, 38.061019999829014], [-122.22612499968555, 38.06104100005348], [-122.22618499996001, 38.06104800012692], [-122.22641299956565, 38.06107300008069], [-122.22648999955852, 38.06108199966593], [-122.22671399986451, 38.06110700031538], [-122.22674499982665, 38.06110899982939], [-122.22799099995666, 38.06120599988935], [-122.22842600014982, 38.06127799994544], [-122.22896000007724, 38.061367999739154], [-122.22898299964345, 38.061372000167516], [-122.22926700022389, 38.06142099973877], [-122.2295989995866, 38.06148000033373], [-122.23011400014572, 38.06157300019199], [-122.23045100042961, 38.06161900002498], [-122.23145700036011, 38.06174300004571], [-122.23207900015102, 38.06182000007827], [-122.23295200001213, 38.06210000022104], [-122.23473299989442, 38.062369999773374], [-122.24279700013014, 38.06359499998896], [-122.24410600000934, 38.063795000198375], [-122.24525099985703, 38.063969000126875], [-122.24548299966062, 38.06392200028452], [-122.24690899971567, 38.06363400013991], [-122.24997500008601, 38.0630159999817], [-122.25777900003077, 38.06144299995421], [-122.26345099956565, 38.06030200015032], [-122.26472099998509, 38.06004699979748], [-122.26482800011519, 38.06002399974416], [-122.26534699997397, 38.0599179998048], [-122.26797800015113, 38.0602210001512], [-122.26957800028346, 38.0604039997597], [-122.27438199998011, 38.06095900005234], [-122.27598299993736, 38.061144000157505], [-122.27646199961312, 38.06119899983098], [-122.27688099991279, 38.06124700011661], [-122.27790100008698, 38.06136400001788], [-122.27838099958771, 38.061420000339666], [-122.2921950000744, 38.06378799968044], [-122.31783499967969, 38.06818299999001], [-122.33363900028608, 38.070891999680626], [-122.3474539996994, 38.073260000074065], [-122.35165400004676, 38.06960800035154], [-122.36425400019056, 38.058655999900516], [-122.36845500036283, 38.05500600010706], [-122.36995900023568, 38.053697999842065], [-122.37447500005221, 38.04977400027915], [-122.37597999975002, 38.048465999897395], [-122.37665799961742, 38.04759999974982], [-122.37733399983503, 38.046737000183455], [-122.38139600009012, 38.04155200017202], [-122.38275100000008, 38.03982400030646], [-122.38475700001325, 38.037262999852416], [-122.39077599987775, 38.02958100017335], [-122.39137599992738, 38.028816000187184], [-122.39278299971585, 38.0270210001863], [-122.39447699955952, 38.02519599973774], [-122.39956200036187, 38.01972200019513], [-122.40125799985533, 38.01789799982211], [-122.40522600039911, 38.01362499965184], [-122.41368300009692, 38.004521999960495], [-122.4171229996628, 38.000802000058464], [-122.41793799979757, 37.99992200005692], [-122.42108299981064, 37.99652200023294], [-122.42248399975132, 37.994921999911696], [-122.42452099972668, 37.99268099981496], [-122.4349270004346, 37.98124099966066], [-122.43839600031275, 37.9774279997116], [-122.43944999992382, 37.97626799965102], [-122.44158399998354, 37.97392299981534], [-122.44158399998354, 37.97239000030041], [-122.44158399998354, 37.97082300029299], [-122.44156399989205, 37.970263000047886], [-122.44150399961761, 37.96858299988527], [-122.44148400042442, 37.968023000258384], [-122.44148400042442, 37.967718000321625], [-122.44148400042442, 37.966804999954704], [-122.44148400042442, 37.966500999901555], [-122.44148400042442, 37.96532499993916], [-122.44148400042442, 37.961797999704366], [-122.44148400042442, 37.960623000270814], [-122.4413830001421, 37.95998299987086], [-122.44108299966813, 37.958061999812315], [-122.4409839999339, 37.95742299986972], [-122.43978300000974, 37.953303000270665], [-122.436182999712, 37.94094300000596], [-122.43498299961276, 37.93682399973963], [-122.43477900029659, 37.936335999807625], [-122.43416900020122, 37.934873000118436], [-122.43399799959866, 37.93445999980401], [-122.4339830004284, 37.934424999898845], [-122.43396499998674, 37.9343870001247], [-122.43388299997095, 37.93422399969587], [-122.43378300041184, 37.9340240000799], [-122.43359199971782, 37.933489000079824], [-122.43261000007678, 37.9307400002546], [-122.43228299983862, 37.929824000068926], [-122.43221599989148, 37.92977099983961], [-122.43036200021425, 37.92830399997321], [-122.4302049998554, 37.92817899968807], [-122.42644399989919, 37.9252019998082], [-122.42460199991753, 37.92374400034405], [-122.42268299994296, 37.922223999986265], [-122.42004699974294, 37.920131000202154], [-122.41214200041415, 37.91385499992949], [-122.40950700003903, 37.911763000144894], [-122.4025929996738, 37.90627400000989], [-122.39938200043682, 37.903725000291345], [-122.38174000004672, 37.8899549997623], [-122.37478200019889, 37.88452499993701], [-122.37458200018236, 37.88436399968816], [-122.37398200013271, 37.88388400016003], [-122.37378200011617, 37.88372500002528], [-122.3731209999672, 37.88388400016003], [-122.37114199971816, 37.88436399968816], [-122.3704820002924, 37.88452499993701], [-122.36818099982813, 37.885064000304475], [-122.36128099970662, 37.886684999748255], [-122.35898099996555, 37.88722500025857], [-122.35689999960928, 37.88766399983857], [-122.35065999981185, 37.88898499979894], [-122.34858100000372, 37.88942499984576], [-122.34600000005527, 37.889996999662095], [-122.33826100040784, 37.89171499997667], [-122.33568100028431, 37.89228800001181], [-122.33339800026167, 37.892794000249246], [-122.33103900007107, 37.893317000232905], [-122.32941399982438, 37.893676999778684], [-122.31711300032967, 37.89640799987938], [-122.31298099975434, 37.89732499964788], [-122.31284199983718, 37.89734799970701], [-122.31209199999972, 37.89736799981424], [-122.31199200044061, 37.897390999859994], [-122.31177700035546, 37.897432999770786], [-122.31166799967721, 37.897455000288375], [-122.31135899988072, 37.89749000006713], [-122.3107169999983, 37.89756300022054], [-122.30947699971608, 37.89770299973919], [-122.30927800042275, 37.897725999680254], [-122.30926099980601, 37.89772800010629], [-122.30924999993536, 37.89772900031925], [-122.30907800040623, 37.89774800011021], [-122.30885900012312, 37.89777299975315], [-122.30877899975717, 37.89778299974971], [-122.30683800004131, 37.89800100032936], [-122.30675199982757, 37.898011000294936], [-122.30603799997515, 37.89809200017868], [-122.30540699996337, 37.89816300002977], [-122.30469899995873, 37.89824200004311], [-122.30336800033821, 37.89838999990275], [-122.30321099997938, 37.8984069998245], [-122.30245000027128, 37.89849099988039], [-122.30217999993452, 37.898524999673256], [-122.30157900005997, 37.8982290001993], [-122.30143699976979, 37.89816000011729], [-122.3010019995766, 37.89794799985111], [-122.30049000028885, 37.89799000015295], [-122.30016999972338, 37.897940999798486], [-122.2996480003899, 37.898098000009], [-122.29891299972273, 37.89824000033993], [-122.29884499995067, 37.89832399987758], [-122.29881200033873, 37.89834499992422], [-122.2986990003608, 37.89841799993853], [-122.29798899980801, 37.898562000055456], [-122.29784400004304, 37.89859400012192], [-122.29742499974338, 37.89886899965462], [-122.29736899966689, 37.89886599977092], [-122.29718399971898, 37.8988559999215], [-122.29676399959442, 37.89883200013562], [-122.29654100001164, 37.89892500005991], [-122.2964049995692, 37.89892500005991], [-122.29633799962207, 37.89892500005991], [-122.2962070001008, 37.89892500005991], [-122.2959800003201, 37.89892500005991], [-122.29587400001488, 37.89891100013979], [-122.29517600005596, 37.89881800019781], [-122.29488399997791, 37.89877900025576], [-122.29455400026502, 37.89873500000554], [-122.29447999974686, 37.89872500013831], [-122.29390800018466, 37.89836799966468], [-122.29367499965782, 37.89846500027843], [-122.29345000042525, 37.8985599996521], [-122.29342000028802, 37.89854500016956], [-122.29333099970124, 37.8985000002858], [-122.29329100041659, 37.89841799993853], [-122.292827999736, 37.89836700016922], [-122.29270999973522, 37.89834700033342], [-122.29265500038196, 37.89833799990936], [-122.29252599961221, 37.898315999655686], [-122.29234599968714, 37.89828599987923], [-122.29197900016436, 37.8982250000833], [-122.2919110003923, 37.89820200029821], [-122.29181500013281, 37.89817000006128], [-122.29164400042859, 37.89811300029151], [-122.29160500007052, 37.898099999716045], [-122.29146799980319, 37.898054000060554], [-122.29076300017158, 37.89775599968496], [-122.29073300003435, 37.89774699989751], [-122.29060199961478, 37.89769299973181], [-122.29010500039564, 37.89759600022727], [-122.2898839995644, 37.897553000194094], [-122.28956800009522, 37.89749000006713], [-122.28922699961335, 37.897518999952226], [-122.2890190000992, 37.897539000013005], [-122.28843699959292, 37.8975969997332], [-122.28816899980431, 37.897835000135196], [-122.28810000020734, 37.89789699975614], [-122.28763499987694, 37.89830999984314], [-122.28751400040143, 37.89841300033797], [-122.28715100017827, 37.89836799966468], [-122.28701999975871, 37.89835199993847], [-122.28697000042831, 37.89837700008508], [-122.28674799977216, 37.898486000284834], [-122.28669300041886, 37.89851300008175], [-122.28636600018073, 37.898676999764376], [-122.28589500000253, 37.898800999662164], [-122.28584999979668, 37.898814000113816], [-122.28415799960284, 37.8992999998658], [-122.283795000278, 37.899658999736694], [-122.28364299994205, 37.89999799988706], [-122.2831190000604, 37.90011499983997], [-122.28284200005096, 37.90017600019604], [-122.28257199971422, 37.90022599995052], [-122.28224500037439, 37.900295999691465], [-122.28201299967247, 37.90034799971925], [-122.28144399958501, 37.900475000164285], [-122.28076300024283, 37.9006250001341], [-122.28074499980117, 37.9006250001341], [-122.28057499992187, 37.90065999982317], [-122.28020699967581, 37.90074500031515], [-122.28002199972791, 37.90077800031293], [-122.27961800039517, 37.9007629998647], [-122.27877899997095, 37.90073899999175], [-122.27765400021478, 37.90147199984549], [-122.27728199977079, 37.90172100009672], [-122.27754700008465, 37.90224499989173], [-122.27777999971316, 37.902701000275485], [-122.27779200030703, 37.90275500031102], [-122.27779499978178, 37.902776999946575], [-122.27780700037565, 37.90283099992639], [-122.27781499987324, 37.9028739997113], [-122.27787000012484, 37.90314999969412], [-122.27574199991291, 37.90365199987033], [-122.2748110003255, 37.903872000336804], [-122.27446300017095, 37.904213999884874], [-122.27376799968677, 37.904902000345274], [-122.2735950003327, 37.90507199993776], [-122.27248200027212, 37.905369000351364], [-122.27214699963804, 37.90553300035006], [-122.27165100024379, 37.90566799977651], [-122.27136800038659, 37.90574500003144], [-122.27107999960818, 37.90582399970302], [-122.27154099974064, 37.9049409998779], [-122.27147899981637, 37.90491800006514], [-122.27034900003731, 37.904390999797826], [-122.27023699988433, 37.90436299990802], [-122.27015400004363, 37.90439599970107], [-122.27008500044668, 37.90440999999541], [-122.27001099992852, 37.90442499970029], [-122.26993399993562, 37.904430999723154], [-122.26986000031577, 37.90442800006622], [-122.26981799958463, 37.90441999979902], [-122.2696169997432, 37.90435800000249], [-122.26958400013125, 37.9043480001905], [-122.26952800005475, 37.90432699973026], [-122.26946899960522, 37.90430200018716], [-122.26944600003898, 37.90429600015377], [-122.26940500003109, 37.90428000029863], [-122.26938099974166, 37.90427099989128], [-122.26928399965728, 37.90422599996453], [-122.26923199977875, 37.904196999886835], [-122.26919400014391, 37.904182000135485], [-122.26916200035686, 37.90417600009231], [-122.26912100034897, 37.90416600025559], [-122.26905699987655, 37.90415599970866], [-122.26901400021885, 37.90414699999497], [-122.26883799959343, 37.90411099971158], [-122.26857800020076, 37.9040470001093], [-122.2684330004358, 37.904013000032144], [-122.26832399975756, 37.9039829997426], [-122.26828100009985, 37.90397899993934], [-122.26821699962741, 37.903975000135844], [-122.26817200031991, 37.903972999879606], [-122.2680860001062, 37.903984999998514], [-122.26797899997605, 37.90403999992794], [-122.2678059997237, 37.9041449997434], [-122.2676430004154, 37.90424600032917], [-122.26746099994217, 37.90435900012541], [-122.26739999984282, 37.9043849997717], [-122.26734899978919, 37.904407999750994], [-122.26724400020721, 37.90444799966714], [-122.26721599971981, 37.904449999910454], [-122.26715100032078, 37.90445700005282], [-122.26710100009207, 37.90446199995158], [-122.26707599997772, 37.904465000315945], [-122.26695399977898, 37.904463000073086], [-122.26690500027351, 37.904459999708585], [-122.26680900001402, 37.90445900029591], [-122.26664900018046, 37.90444899978878], [-122.26638800006455, 37.90443400008879], [-122.26590099999282, 37.904385999894195], [-122.26588299955117, 37.904382000112825], [-122.26563200037931, 37.904333999884315], [-122.26553799976966, 37.90431599979057], [-122.26549900030993, 37.90430300031079], [-122.26536600024055, 37.904261000067486], [-122.26522099957728, 37.90420099967826], [-122.26512199984306, 37.90414699999497], [-122.2650950000789, 37.90413299965059], [-122.26501100041328, 37.90406900006745], [-122.26497200005524, 37.904009999649354], [-122.26494299974294, 37.90397400000771], [-122.26487800034391, 37.903915000222256], [-122.26483399996299, 37.90388300034285], [-122.26479700015307, 37.90386199974995], [-122.26470000006869, 37.90381000007857], [-122.26463700031947, 37.903791999856644], [-122.2644919996562, 37.90376399973893], [-122.26444099960258, 37.90376399973893], [-122.26428900016495, 37.903753999846224], [-122.26414000020202, 37.90377499976112], [-122.26407900010264, 37.903779000284295], [-122.2640270002241, 37.90377499976112], [-122.26394600003326, 37.903734000056645], [-122.26392900031485, 37.90371900021091], [-122.26388099973592, 37.90367500007877], [-122.26372099990238, 37.90350199969072], [-122.26310199958615, 37.902759000180815], [-122.26308599969265, 37.90274000026574], [-122.26274099991114, 37.90232499992716], [-122.26270800029917, 37.90226600023728], [-122.26253699969664, 37.90194499987042], [-122.26247200029763, 37.90184099990837], [-122.26242299989383, 37.90177000006117], [-122.26239199993168, 37.90172299970532], [-122.26236699981733, 37.901695999668284], [-122.262273000106, 37.90163700018298], [-122.26211499992226, 37.90156799975179], [-122.26197699982998, 37.901531000171914], [-122.2619199999286, 37.901522000137206], [-122.2618210001944, 37.901517000038645], [-122.26153099976614, 37.90148300021028], [-122.26142000033639, 37.901460000025594], [-122.26138600000118, 37.90145099998221], [-122.26131400003118, 37.90140999969181], [-122.26128999974175, 37.90139200030049], [-122.26125799995467, 37.901345999867104], [-122.26124299988606, 37.901288000265815], [-122.26124799990896, 37.901130000313564], [-122.26123899968809, 37.901025999908654], [-122.26123000036559, 37.9009390001113], [-122.2611399999539, 37.900070000207236], [-122.26111700038769, 37.89998000015042], [-122.26109599957297, 37.89994399995512], [-122.26105899976305, 37.899885999957824], [-122.26102799980092, 37.899844000029034], [-122.26095199963291, 37.89977200019658], [-122.2608370000052, 37.89968500033461], [-122.26080799969287, 37.8996720000368], [-122.26077599990582, 37.89965800025877], [-122.2607030001109, 37.89963900025197], [-122.2606250002931, 37.89964799980814], [-122.26055300032307, 37.89967499988765], [-122.26053300023159, 37.89968299996177], [-122.26025700004708, 37.89981700001152], [-122.26012900000056, 37.89986100032377], [-122.26010499971109, 37.89986999985273], [-122.26004299978682, 37.89988800032514], [-122.25997900021271, 37.899895000192586], [-122.2599280001591, 37.89989999969249], [-122.25987899975529, 37.89989999969249], [-122.25982199985388, 37.89989999969249], [-122.25977599982315, 37.89989100016714], [-122.25968499958653, 37.89987600024698], [-122.2594729998744, 37.89977100001138], [-122.2593570004218, 37.89968500033461], [-122.25925600013944, 37.89958900009871], [-122.25910899982635, 37.89944899991422], [-122.25905199992496, 37.89939500028834], [-122.25899599984845, 37.899336999858406], [-122.25876099967181, 37.899090999922336], [-122.2586889997018, 37.899031999766464], [-122.25865100006695, 37.89901200011136], [-122.25854499976174, 37.89898099971372], [-122.25849799990607, 37.89898099971372], [-122.25841900026336, 37.89898099971372], [-122.25835999981383, 37.89898899986333], [-122.25821300039902, 37.8990289998894], [-122.25815099957644, 37.899056000196], [-122.25801800040539, 37.89914000022012], [-122.2579580001309, 37.89918899977638], [-122.25755499972477, 37.89952100006259], [-122.25738900004345, 37.899658999736694], [-122.2571689999354, 37.89982399988572], [-122.25711299985892, 37.89985600011236], [-122.25705199975955, 37.89986400016686], [-122.25700499990388, 37.89986400016686], [-122.25697800013968, 37.89985899995571], [-122.25692899973588, 37.89984100018507], [-122.25690600016966, 37.89982299970122], [-122.256823000329, 37.89973000020274], [-122.25668699988657, 37.89957800015969], [-122.25664199968072, 37.899515000348266], [-122.25660800024383, 37.89944499986452], [-122.2563529999757, 37.89890999994289], [-122.25633200005932, 37.89886599977092], [-122.25626900031013, 37.89873699969527], [-122.25624900021865, 37.89869499981963], [-122.25621900008142, 37.89863300016199], [-122.25618499974622, 37.89858800033203], [-122.25613600024074, 37.898538000173666], [-122.25608099998914, 37.89846100017525], [-122.25606300044579, 37.89842099984044], [-122.25605900024782, 37.8983990003205], [-122.25604800037719, 37.89833500000407], [-122.25605400022498, 37.89827199983756], [-122.25606799957035, 37.898236000224536], [-122.25621599970836, 37.89802899980424], [-122.25628299965553, 37.89792200005729], [-122.256310000318, 37.897840999986464], [-122.25632500038662, 37.897751000039484], [-122.25630600012005, 37.89740999973821], [-122.25628699985347, 37.89705599993279], [-122.25630500029516, 37.89679500033155], [-122.25625099986847, 37.89659599981281], [-122.25622199955615, 37.89648399966899], [-122.25615100030934, 37.89635700013517], [-122.25611799979906, 37.89628899994862], [-122.25607699979119, 37.89623899964633], [-122.25601499986689, 37.896148999867194], [-122.25593600022418, 37.89603099975376], [-122.25589500021631, 37.89599499975365], [-122.25577100036774, 37.89592699994158], [-122.25570100004755, 37.89590400014728], [-122.25551399955148, 37.896024999754964], [-122.25515600024951, 37.896257999821906], [-122.25502499982996, 37.89633200001136], [-122.25498100034731, 37.89634099997182], [-122.25493299976844, 37.89634500019021], [-122.25485599977554, 37.89633499999829], [-122.25465699958393, 37.89627100001382], [-122.25456000039784, 37.89623399989775], [-122.254479000207, 37.89621599994951], [-122.25437899974959, 37.89620599974006], [-122.25418200010607, 37.89619600023815], [-122.25401399987659, 37.89621299995773], [-122.25392299964001, 37.8962260001576], [-122.25384200034745, 37.89622999967334], [-122.25377100020233, 37.89622000017469], [-122.25370199970705, 37.89619300024556], [-122.25362999973703, 37.89613800012292], [-122.2534940001929, 37.8959889997519], [-122.25312199974891, 37.895606000282925], [-122.25301499961881, 37.8954950002939], [-122.25296299974025, 37.89543600009106], [-122.25288400009754, 37.895358999683175], [-122.25276000024897, 37.89519100012477], [-122.25268499990591, 37.89501500031117], [-122.25267900005812, 37.8949869996898], [-122.25265399994376, 37.89484299966789], [-122.25265399994376, 37.894800000153154], [-122.25265399994376, 37.89464499979807], [-122.25266800018747, 37.8945690002365], [-122.25269699960147, 37.894514999866054], [-122.25274699983018, 37.89445600029557], [-122.25279299986094, 37.894415999911054], [-122.25282200017327, 37.89437999982997], [-122.25296100009044, 37.89425900035392], [-122.25303899990823, 37.894174000169485], [-122.25308199956595, 37.894115999878906], [-122.25308900013694, 37.894098000121666], [-122.25310099983253, 37.89406699978111], [-122.25310400020558, 37.894007999851574], [-122.2530790000912, 37.89393100007668], [-122.25304700030418, 37.8938629997758], [-122.25300100027341, 37.89381400021853], [-122.25294000017404, 37.8937639996529], [-122.25290300036411, 37.89374700007666], [-122.25286700037911, 37.89373200032221], [-122.25277699996742, 37.89370599974814], [-122.25265999979155, 37.893682999968874], [-122.25256299970717, 37.89367100029688], [-122.25247300019382, 37.89364100004508], [-122.25241499956915, 37.89360700012301], [-122.2523319997285, 37.89356599971652], [-122.25220100020725, 37.89349799978742], [-122.25205899991703, 37.89348400025293], [-122.25190599975615, 37.89350299972177], [-122.25182700011341, 37.89353499986091], [-122.25174699974748, 37.89360200019573], [-122.25138400042263, 37.893835000134075], [-122.25129999985873, 37.893848000045], [-122.25126200022392, 37.893848000045], [-122.2512200003911, 37.89384699977929], [-122.25115400026888, 37.893840000045536], [-122.25105200016161, 37.893819000131415], [-122.25069300013642, 37.89360200019573], [-122.25034699963169, 37.89345200009162], [-122.25016199968375, 37.8933560002333], [-122.25010099958439, 37.89327399982682], [-122.25004899970585, 37.893147999992536], [-122.25004799988093, 37.89305999982282], [-122.25007700019327, 37.89297700022696], [-122.25003899966012, 37.892847999755396], [-122.25000699987307, 37.89281100004554], [-122.24994999997166, 37.892784000283854], [-122.24991200033685, 37.89277600016877], [-122.24985700008526, 37.89276999990466], [-122.24966600028951, 37.89282400013734], [-122.24914499988263, 37.89112799975292], [-122.24903100007981, 37.89076200007548], [-122.24979900035892, 37.89019499998102], [-122.25028600043063, 37.88982800030775], [-122.24967700016018, 37.88948999972642], [-122.249538000243, 37.88930500035158], [-122.24948399981633, 37.88880900003652], [-122.24949300003718, 37.888251000030614], [-122.2494529998542, 37.88818199981236], [-122.24940799964835, 37.88778999984184], [-122.24935999996778, 37.8876510002536], [-122.24933700040157, 37.887515999683146], [-122.24932599963259, 37.88743500021464], [-122.2493409997012, 37.887363999942], [-122.24934900009714, 37.88726999994508], [-122.24927600030219, 37.887018999719736], [-122.24926200005848, 37.886971999870504], [-122.24915400010347, 37.88690400023171], [-122.24856099972654, 37.886459999962064], [-122.24783099998056, 37.88592999970226], [-122.24763099996402, 37.885876999750046], [-122.24691000043892, 37.8853549997613], [-122.246645000125, 37.88515099972169], [-122.24558999979071, 37.884340000140575], [-122.24461499982237, 37.88364600003137], [-122.24411400040529, 37.88325199990922], [-122.24407900024518, 37.883223999777094], [-122.24242999970903, 37.88220300014714], [-122.24197100012474, 37.881927000323714], [-122.24185499977378, 37.88196599997619], [-122.24145899993867, 37.88215699977575], [-122.24027300008312, 37.882731999871794], [-122.24026100038756, 37.88273899995259], [-122.24013699964068, 37.88279900011131], [-122.2398789998978, 37.88292499993103], [-122.2397850001865, 37.88295599999993], [-122.2395059996289, 37.8830479997159], [-122.2394129997425, 37.88308000014508], [-122.23935300036634, 37.88309999987447], [-122.23904200002174, 37.88320299967107], [-122.23867899979855, 37.883325000000966], [-122.23857000001863, 37.883296000196566], [-122.23791600044063, 37.88312399982617], [-122.2375969997001, 37.883039999960985], [-122.23754300017173, 37.883025999855946], [-122.23603799957564, 37.882622999743454], [-122.23597300017664, 37.88260500001247], [-122.23562599984702, 37.88251100032162], [-122.23434100025726, 37.88221399984636], [-122.23253600008552, 37.88173599992771], [-122.23194299970858, 37.881621999711406], [-122.23124999977253, 37.88148799986595], [-122.23030900013936, 37.88130699985697], [-122.22884000042663, 37.881023000246806], [-122.22652100041898, 37.87993199998894], [-122.22603500017217, 37.87970299971868], [-122.22587600016351, 37.879619999955814], [-122.2258109998662, 37.87959700003061], [-122.22556599964383, 37.8794820002968], [-122.22509000034105, 37.87925800023821], [-122.22361999990508, 37.878565999983124], [-122.22240800011026, 37.876957999860124], [-122.22236799992729, 37.87690499983261], [-122.22141399987534, 37.875639999833325], [-122.22076199994717, 37.874772000349914], [-122.21980399969725, 37.873494999762066], [-122.21849499981805, 37.872733000323315], [-122.21764000039865, 37.87224999990049], [-122.21748899988758, 37.8718259998792], [-122.21654999990426, 37.86954599991057], [-122.21637199962903, 37.869075000005026], [-122.21697199967862, 37.868776000163315], [-122.21778400033868, 37.86835600032635], [-122.21885300001837, 37.867805999941986], [-122.21979100017678, 37.86733199980104], [-122.22060799996139, 37.86640099981069], [-122.2214180000733, 37.865468000229754], [-122.22114799973656, 37.865348999940004], [-122.21982600033688, 37.86477099975037], [-122.21887200028495, 37.863800999997366], [-122.21702399955718, 37.8619560002771], [-122.21526600013942, 37.860192000197706], [-122.21375600041878, 37.85867800019815], [-122.21338899999765, 37.85830900014458], [-122.21327699984465, 37.858183000066504], [-122.21292299984233, 37.8577839996986], [-122.21295899982734, 37.85774900019785], [-122.21288900040544, 37.85760699980369], [-122.21281400006238, 37.85743100024414], [-122.21237999969411, 37.85723399984785], [-122.21201200034639, 37.85701299969471], [-122.21193299980537, 37.85694600011753], [-122.21192600013265, 37.856937000307305], [-122.2119069998661, 37.856909000102604], [-122.21190199984323, 37.85690000028787], [-122.21189000014765, 37.85687999982876], [-122.21188500012478, 37.856869999951776], [-122.21186199966026, 37.856819999837356], [-122.21185400016265, 37.85680100012541], [-122.21158600037406, 37.85636000017213], [-122.21040800001612, 37.85506500029331], [-122.21080999969902, 37.854334999794155], [-122.21087499999634, 37.854226000207014], [-122.20983499973066, 37.85303999980724], [-122.20889800029546, 37.8519409998146], [-122.20781100017412, 37.85179800016325], [-122.2077600001205, 37.85179200010734], [-122.20650599959457, 37.851630999961415], [-122.20616599983595, 37.85154699965319], [-122.20605299985804, 37.85155200030757], [-122.20569100035812, 37.85152699986968], [-122.20480099988026, 37.851414999988805], [-122.2040939997005, 37.851386999814686], [-122.2031000003639, 37.85119199985234], [-122.20265699977479, 37.850479999797244], [-122.2023680000698, 37.8500190001422], [-122.20152899964557, 37.84872700004157], [-122.20121599965114, 37.84821199979614], [-122.20099700026633, 37.84787799979399], [-122.20086300037202, 37.84766200017634], [-122.20084199955731, 37.84761600022857], [-122.20076100026479, 37.847444999739466], [-122.200170000436, 37.84718300005429], [-122.19998200011501, 37.847101000026534], [-122.19975399961108, 37.84699199967548], [-122.19966699957241, 37.846974999944564], [-122.19961399986897, 37.84696500014278], [-122.19934600008037, 37.846845999772775], [-122.199100999858, 37.84668900025449], [-122.19881600035096, 37.84648800014837], [-122.19871800044166, 37.84641899982681], [-122.19863399987776, 37.846348999948646], [-122.19789699956078, 37.84573399978406], [-122.19754199973355, 37.84545800025402], [-122.19744499964918, 37.84538299980997], [-122.1969259997904, 37.84498099973347], [-122.19663100023762, 37.844759000223654], [-122.19657099996317, 37.844714000107324], [-122.19644200009174, 37.844616000121626], [-122.19510600044838, 37.84360499989863], [-122.19504600017392, 37.84299999989172], [-122.19518599991598, 37.84282600001082], [-122.19534800029771, 37.84262600026847], [-122.19538900030558, 37.84257899976438], [-122.195622999759, 37.841913000239295], [-122.19533499987891, 37.84168799992257], [-122.19526799993176, 37.841630000158446], [-122.19521400040341, 37.84159300026064], [-122.19512399999172, 37.84155300025438], [-122.19498800044758, 37.84152400032496], [-122.1947709998143, 37.84148699966455], [-122.19460000011007, 37.84146800025771], [-122.19445799981985, 37.84142699991549], [-122.19430399983405, 37.841365999848605], [-122.19419099985618, 37.841283999737385], [-122.19412399990901, 37.84119299993114], [-122.19412300008409, 37.841163999860164], [-122.19412200025917, 37.841149000039074], [-122.19412100043428, 37.84110500012084], [-122.19412100043428, 37.84109099985115], [-122.19412300008409, 37.841071000069284], [-122.19403400039563, 37.84102700010451], [-122.19401400030416, 37.84101900004359], [-122.19399800041063, 37.841012000255624], [-122.193983000342, 37.841004999757565], [-122.1939680002734, 37.84099799996822], [-122.19395300020479, 37.8409899999042], [-122.193939999786, 37.8409839996782], [-122.1939260004406, 37.84098300011343], [-122.19369799993666, 37.84082999985965], [-122.19366500032469, 37.840757999797326], [-122.1936879998909, 37.840655999825174], [-122.19358599978366, 37.8406120003222], [-122.19256700033272, 37.840367999893516], [-122.19206900039033, 37.84024900022896], [-122.1916240001514, 37.83990099984596], [-122.1911720002398, 37.8395479999001], [-122.1905670001673, 37.83909399997824], [-122.19000899995048, 37.838673999853015], [-122.18921800010513, 37.83807799982058], [-122.18907199961693, 37.83797500008396], [-122.18899200014933, 37.83796999992781], [-122.18892299965405, 37.837899999834], [-122.18876500036859, 37.8377369999359], [-122.18860100033709, 37.83775199974135], [-122.18791800044677, 37.83781499988424], [-122.18740100023784, 37.837870999887215], [-122.18733500011557, 37.837865999723974], [-122.18726800016843, 37.837852999865525], [-122.18720399969601, 37.83783800008062], [-122.18713799957376, 37.83781800012617], [-122.18706700032698, 37.83779899977423], [-122.18700399967946, 37.837776000275085], [-122.18691599981594, 37.837771999713695], [-122.18549099958578, 37.83743999989624], [-122.18526899982794, 37.837388000148486], [-122.18511599966706, 37.83735300018849], [-122.18491099962766, 37.836852000339405], [-122.18458099991476, 37.83605000003589], [-122.18455300032566, 37.83598099988108], [-122.18453700043216, 37.835942000011784], [-122.18452599966318, 37.835916000323955], [-122.18450899994474, 37.835862000233575], [-122.1843800000733, 37.835593000245574], [-122.18413200037621, 37.835047000165595], [-122.1840610002311, 37.83488900000449], [-122.18395800029893, 37.83466200024484], [-122.1838179996585, 37.83435299977464], [-122.18422600008753, 37.833717000305846], [-122.18431499977598, 37.833574999744876], [-122.18476400021285, 37.83285699969863], [-122.18501000026016, 37.832709000130784], [-122.18508499970491, 37.83261200019063], [-122.18514099978141, 37.83254199997905], [-122.18520699990366, 37.83243399978582], [-122.18525100028458, 37.83234299970398], [-122.18527600039891, 37.83229700013446], [-122.18533599977508, 37.8321899999761], [-122.18537500013316, 37.832106999912085], [-122.18540899957001, 37.83204199977971], [-122.18546800001957, 37.83194499967214], [-122.18551599970012, 37.831889000137096], [-122.18552499992096, 37.83187800002075], [-122.18554400018755, 37.831859000267364], [-122.18558400037053, 37.83181800026009], [-122.18561399960942, 37.831775999831045], [-122.18564700011969, 37.83172599972826], [-122.18573699963308, 37.831589000181275], [-122.18571700043992, 37.83138899976948], [-122.18574599985392, 37.831343000314696], [-122.1858429999383, 37.83119200003654], [-122.1860000002971, 37.83094900007716], [-122.18643299994216, 37.83027599974648], [-122.18668800021028, 37.82987700020168], [-122.18675400033253, 37.82939899994766], [-122.18696100002175, 37.827909999788396], [-122.18702399977097, 37.827537000032976], [-122.18654400027025, 37.826792000299356], [-122.18618299969691, 37.82615300021681], [-122.18572900013548, 37.825366000172075], [-122.18594400022063, 37.8247720000514], [-122.18611999994772, 37.824284999830816], [-122.18618900044301, 37.82409399976154], [-122.18636799964484, 37.82354699993409], [-122.18654500009517, 37.82300599986986], [-122.18663700015668, 37.82277399997309], [-122.18669499988297, 37.822602000264006], [-122.1868709996101, 37.822082000157906], [-122.18655500014091, 37.82174999998614], [-122.18626999973554, 37.82144699976768], [-122.18611599974977, 37.82128299987774], [-122.1855769997995, 37.82072599998418], [-122.18359000005287, 37.82047900025061], [-122.18182599988904, 37.81961900004981], [-122.18122400018957, 37.819341000310665], [-122.1803520001534, 37.81815199990855], [-122.17787300031219, 37.81632300029947], [-122.17697699998655, 37.81622700000963], [-122.17277499998937, 37.81582599991786], [-122.16687300030074, 37.81342400021693], [-122.16667300028419, 37.813624000348995], [-122.16181400033598, 37.81589000023609], [-122.1612100000884, 37.816170999901104], [-122.15739200023079, 37.81795199997948], [-122.1572609998112, 37.81789099966263], [-122.15702599963457, 37.81778300002501], [-122.15684200040987, 37.817680000341724], [-122.156753999648, 37.817615000274735], [-122.1566830004012, 37.81756300003795], [-122.15652299966932, 37.81741600019406], [-122.15640100036889, 37.817277999741144], [-122.15628400019304, 37.81713199992724], [-122.15605999988702, 37.81684199992659], [-122.15587499993912, 37.81667500005779], [-122.15571699975537, 37.81654600012145], [-122.15553199980747, 37.81644499992594], [-122.1553469998595, 37.816395999978056], [-122.15507599969787, 37.816345000200506], [-122.15464399987773, 37.816214999787206], [-122.15436000019561, 37.816083999952475], [-122.15405300004893, 37.815885999907366], [-122.1537829997122, 37.8157269999705], [-122.15352599979424, 37.81546100011391], [-122.15325600035582, 37.815243000130465], [-122.15304700011843, 37.81508500014373], [-122.15295000003408, 37.815034000170115], [-122.15236800042612, 37.81485500002579], [-122.14880800031133, 37.81375999995898], [-122.14799800019944, 37.812909999705695], [-122.14677600035887, 37.81162700008458], [-122.1459460001555, 37.810723000079435], [-122.14354299958396, 37.80796699985403], [-122.14069800004482, 37.80471699990106], [-122.14031700027833, 37.80470099971212], [-122.13865100002376, 37.804632000055506], [-122.13557299995784, 37.80450399971936], [-122.13525699959035, 37.804481999838906], [-122.13297699994077, 37.80432599965951], [-122.12991099957044, 37.804112999769686], [-122.12435200001347, 37.80369999976587], [-122.11809299994947, 37.803246000027045], [-122.11381200030955, 37.8027290001043], [-122.11279299996026, 37.80284400033008], [-122.10705000028032, 37.80243100032785], [-122.10654099956896, 37.802395000025776], [-122.10608700000753, 37.802363000057966], [-122.10339800010402, 37.802175000322], [-122.1015150001145, 37.80204000005029], [-122.09570299993923, 37.80159799980547], [-122.09229500016043, 37.801350999957066], [-122.08944999972302, 37.80114500002652], [-122.08231199995012, 37.80062800030295], [-122.08023899998979, 37.8004390002957], [-122.07886900001124, 37.80031400013786], [-122.07454999983818, 37.800061000249954], [-122.07418199959214, 37.800038999755834], [-122.07227299966334, 37.79992699978437], [-122.07216899990625, 37.799919999647386], [-122.07196200021703, 37.79990600008137], [-122.0705949997132, 37.799814000230405], [-122.06587499968217, 37.799500000154055], [-122.06430200021231, 37.79939599968079], [-122.06377699960746, 37.79936000002886], [-122.06220499996253, 37.7992549999383], [-122.0617730001424, 37.79922699984159], [-122.06168100008088, 37.79922000034811], [-122.06150600017871, 37.79920700007027], [-122.06151000037669, 37.79939400013436], [-122.06151899969919, 37.80008799991179], [-122.05947099985319, 37.79978699975865], [-122.05632800038828, 37.799346999775615], [-122.050107999784, 37.798435000214674], [-122.04547300014178, 37.79812599997185], [-122.0452270000945, 37.7979589996517], [-122.04327100030999, 37.79662900010936], [-122.04014800003823, 37.79450599999418], [-122.03797200014573, 37.79302700020374], [-122.03692100000939, 37.79225299991479], [-122.03607200043776, 37.791626999926464], [-122.0340210002187, 37.79019900012921], [-122.03047199997461, 37.78772700019817], [-122.02964500014426, 37.78738599982793], [-122.02197199972075, 37.78422700009587], [-122.0177720002717, 37.781227000238964], [-122.01407200041486, 37.780226999970665], [-122.01380000042829, 37.7801279998727], [-122.01050399990417, 37.77675100020339], [-122.0068450000552, 37.77302800021013], [-122.00661599972634, 37.77279499973561], [-122.00552699995518, 37.77166700001469], [-122.00502499981484, 37.77114699984273], [-122.00457499955303, 37.77065799997829], [-122.00442999978807, 37.77051099980071], [-122.00408099980862, 37.770147000267386], [-122.00237899956906, 37.76841999970245], [-122.00182700009833, 37.76785900011223], [-122.00029999976091, 37.766303000069385], [-121.99974599974205, 37.765737999838485], [-121.99920199976893, 37.76518399966414], [-121.99888600029975, 37.76486300023819], [-121.9982900004481, 37.76425499998696], [-121.99741099984091, 37.7633600003543], [-121.99792800004984, 37.7631289997707], [-121.99944299979335, 37.762183999683735], [-122.00119600008655, 37.76108999999788], [-122.003007999931, 37.75996100003722], [-122.00370800043805, 37.75952499996434], [-122.00793800002431, 37.75689099966427], [-122.01077099986786, 37.75512700002073], [-122.0108720001502, 37.75494100018472], [-122.01117599992381, 37.75438300000178], [-122.01127800003106, 37.754197999745394], [-122.01129099955155, 37.7541719996838], [-122.01137099991747, 37.75402800021525], [-122.01176699975261, 37.74748800035033], [-122.01177099995056, 37.74742800021725], [-122.00586199969094, 37.74278900023512], [-122.00107100041309, 37.739028000169206], [-121.99949800004495, 37.73843000030211], [-121.99585900028748, 37.738401999897754], [-121.9954259997441, 37.738351000275635], [-121.991920000056, 37.73604999987218], [-121.98939900038201, 37.734114999910815], [-121.98809700017551, 37.733148999908586], [-121.98487000014667, 37.73234500031384], [-121.98010400008485, 37.73110499994556], [-121.97718599985251, 37.73080600023377], [-121.97513800000654, 37.730617999675566], [-121.97193799974187, 37.730323999758035], [-121.97126300024748, 37.72955600030969], [-121.96936600001426, 37.72747600008483], [-121.96846200019101, 37.7265899997184], [-121.96245199964903, 37.720699999958114], [-121.96027099973364, 37.71873999973918], [-121.96003999975497, 37.71853099973994], [-121.95510899983674, 37.71971799965553], [-121.95460400022165, 37.719838999807685], [-121.95374999972883, 37.72004600010893], [-121.9520070003797, 37.720464000206825], [-121.95119800009269, 37.7206650001298], [-121.95035100017087, 37.720873999792964], [-121.95000499966613, 37.720962000035755], [-121.94944999982235, 37.72110500011842], [-121.94875500023649, 37.721277000185104], [-121.94820500041558, 37.721412999905475], [-121.94582299976044, 37.72198400031704], [-121.94502199986937, 37.722354000111395], [-121.94476400012648, 37.722422999828225], [-121.94418300034347, 37.722582000135915], [-121.94407500038841, 37.72261300007567], [-121.94399400019756, 37.722635999908015], [-121.94396700043337, 37.7226440000025], [-121.94393300009818, 37.72265400029705], [-121.94388899971726, 37.722666000080245], [-121.94373800010455, 37.722710000216026], [-121.94369500044684, 37.722721999990206], [-121.94341900026228, 37.72276800029058], [-121.94259200043193, 37.72290999998727], [-121.9424979998223, 37.72292600011618], [-121.94238300019458, 37.72294599991717], [-121.94231899972218, 37.72296599971277], [-121.94218900002582, 37.722997999942926], [-121.94179800021357, 37.72309600002885], [-121.94166900034216, 37.72312899994159], [-121.94157200025775, 37.7231479999493], [-121.9412850002026, 37.72320499994313], [-121.94118899994312, 37.72322499966879], [-121.94116899985163, 37.7232290000396], [-121.94095299994157, 37.72327400028835], [-121.94052199994636, 37.72339399987057], [-121.94033100015064, 37.72344400011282], [-121.94019499970818, 37.72348400014023], [-121.93955100017595, 37.723631999698476], [-121.93926900014367, 37.72370099964593], [-121.93919100032585, 37.72372999965613], [-121.93873500021625, 37.72384199995646], [-121.93706599958864, 37.724251000306324], [-121.93700299983948, 37.724246999990704], [-121.93651400011791, 37.72436900028283], [-121.93615799956744, 37.724466999975846], [-121.93375400006931, 37.72499600025606], [-121.93338499999837, 37.72507100005042], [-121.93280800041327, 37.72519699996029], [-121.9327339998951, 37.725216000148], [-121.93191299991257, 37.72543699980459], [-121.93141699962001, 37.72555599972919], [-121.93123199967208, 37.725601999690525], [-121.93055399980466, 37.72577100015293], [-121.92937200014705, 37.72607800002318], [-121.92928599993333, 37.72608400034816], [-121.9286420004011, 37.7261709996772], [-121.92697600014654, 37.72656699969286], [-121.92672599990128, 37.726626999682715], [-121.92647700037926, 37.726688000025256], [-121.9262349996316, 37.72674700022724], [-121.92582299990295, 37.72684800010259], [-121.92469700032187, 37.72711599999063], [-121.92451300019886, 37.72716000032496], [-121.92264100007995, 37.72761599992518], [-121.92236200042069, 37.72768400003632], [-121.91737399970273, 37.72889700006474], [-121.91646999987951, 37.72911400005232], [-121.91449900002641, 37.72958700017249], [-121.913568000439, 37.7298279996487], [-121.91349700029389, 37.729839999690526], [-121.91324299985067, 37.729887000191006], [-121.91268800000688, 37.73000000006289], [-121.91114700032409, 37.73031799977653], [-121.9110209999274, 37.730329999739006], [-121.9105699998407, 37.73038000027215], [-121.91045900041094, 37.730392999865266], [-121.91039400011361, 37.73040499981555], [-121.91020099976976, 37.73044599998632], [-121.91013800002057, 37.73045999991813], [-121.91008399959391, 37.730473000207695], [-121.9099210002856, 37.73051400034078], [-121.90986799968381, 37.73052800025973], [-121.90978200036841, 37.730550000127046], [-121.90967100004035, 37.73057799994869], [-121.90952499955216, 37.7306159996897], [-121.90944000006165, 37.73063899987873], [-121.90844500000182, 37.73089600002215], [-121.90724499990257, 37.73120699990138], [-121.90546200037046, 37.73166900003133], [-121.90472099985551, 37.731862999909325], [-121.90446700031063, 37.731928000102705], [-121.90395799959927, 37.73204900020137], [-121.90255300035894, 37.732384999796686], [-121.8974180002262, 37.73361200030706], [-121.89681099960556, 37.73375800032791], [-121.89544900002292, 37.734083999812306], [-121.89526700044803, 37.73412800026908], [-121.89489699965388, 37.73421599968341], [-121.89223100021492, 37.73484199982898], [-121.8882740004401, 37.73577199969457], [-121.88555700004922, 37.736507999968424], [-121.88399700009984, 37.736931999669316], [-121.88307599965985, 37.73718200030859], [-121.8811700001041, 37.7376739998741], [-121.87364700036674, 37.739498000209764], [-121.87098799970218, 37.74004200014632], [-121.87073300033238, 37.74008599990377], [-121.87071900008867, 37.74008899985396], [-121.86370000014148, 37.74179300023699], [-121.8600200003761, 37.7426880000821], [-121.85837699968776, 37.743086000210184], [-121.8556200000122, 37.743755999647114], [-121.85072699972876, 37.74494200000802], [-121.84938199986459, 37.745269000117425], [-121.84264300029989, 37.74690699997646], [-121.8419839998007, 37.7470660002766], [-121.84153199988907, 37.74717599983758], [-121.84150500012491, 37.747182999997776], [-121.83562400035268, 37.748615000085486], [-121.8356119997588, 37.74861700029538], [-121.8354569999481, 37.74865600011593], [-121.8349509996098, 37.7487800001738], [-121.83478499992844, 37.74882300031721], [-121.83419499992456, 37.74896599987102], [-121.83242400008801, 37.74939699990452], [-121.83221099965267, 37.74944899982292], [-121.83183499990905, 37.74954099986219], [-121.8279800002415, 37.75047800029451], [-121.81641699999037, 37.753292000133186], [-121.81258900008699, 37.75422499982695], [-121.81256300014769, 37.75423100000161], [-121.81180800028737, 37.754407999962574], [-121.80921800011811, 37.755017000204795], [-121.80075600039741, 37.757007000194534], [-121.79918399985416, 37.757375999704486], [-121.7958410003727, 37.75815100013925], [-121.79582399975594, 37.75816599977888], [-121.79556500018819, 37.758226999702586], [-121.79527300011014, 37.75829600007953], [-121.79357500006851, 37.75869999988359], [-121.79301000017898, 37.7588349997904], [-121.79283500027678, 37.758875999839546], [-121.79231100039516, 37.75900099977997], [-121.79222199980839, 37.75902299970785], [-121.79213700031788, 37.75904299970118], [-121.79188799989755, 37.75910400032209], [-121.78992200006732, 37.7595840002744], [-121.78327999968866, 37.7612090001397], [-121.7819950000989, 37.761524000217776], [-121.78116400007062, 37.761727000030696], [-121.78111399984189, 37.76173500016231], [-121.78072999970234, 37.761798999764046], [-121.78056400002099, 37.76182699983868], [-121.78036400000445, 37.76182699983868], [-121.76930200006872, 37.76459900021046], [-121.7611409997486, 37.76664399970497], [-121.75927600020073, 37.76711100019282], [-121.7513829996692, 37.76908899999544], [-121.75106399982697, 37.769168999700696], [-121.75068100041065, 37.76926400025909], [-121.74959900031217, 37.769535999964354], [-121.74869700013876, 37.76976199990354], [-121.74753499967434, 37.770052999948525], [-121.74134400028073, 37.77160400022543], [-121.7392799996429, 37.77212199973935], [-121.73802000016752, 37.772437999985584], [-121.7342390001198, 37.773385999721725], [-121.7329789997461, 37.77370300001212], [-121.73287199961598, 37.7737290003094], [-121.73255100012393, 37.773809999729416], [-121.73244499981871, 37.77383800022714], [-121.72815499995798, 37.77491500021527], [-121.72374500044664, 37.7760219999857], [-121.72023300001246, 37.7768720001526], [-121.7159570003954, 37.777905999710015], [-121.71546699995066, 37.77802400006675], [-121.71113799973185, 37.77907600000035], [-121.71014299967203, 37.77931599981002], [-121.70873699970846, 37.779658999865745], [-121.70536599973956, 37.78048199967697], [-121.70382099985882, 37.78085799973837], [-121.7033110002209, 37.780983000154656], [-121.70028400020858, 37.781717999803455], [-121.69928599977573, 37.78196000028312], [-121.69863800004552, 37.78211699977743], [-121.69853900031133, 37.782142000303764], [-121.69748099960395, 37.78239899979979], [-121.69732199959532, 37.782438000269586]]]}, "properties": {"GEOID": "06013", "NAME": "Contra Costa County"}}]}