{"type": "FeatureCollection", "features": [{"type": "Feature", "geometry": {"type": "MultiPolygon", "coordinates": [[[[-119.4545820003293, 34.42163300024791], [-119.4545820003293, 34.421552999648185], [-119.45455200019207, 34.42146499964107], [-119.45451299983401, 34.421414999915754], [-119.45412500039482, 34.42094299996832], [-119.45410100010537, 34.42083499973137], [-119.45414700013613, 34.42069799994369], [-119.4543150003656, 34.420435000300856], [-119.45433000043423, 34.420282999882176], [-119.45428500022835, 34.42016799973279], [-119.45410199993026, 34.41995099968377], [-119.453751000301, 34.41960000016766], [-119.4536669997371, 34.41946299983853], [-119.4536740003081, 34.419325000361866], [-119.45376600036961, 34.41918800032316], [-119.45432299986322, 34.41883699982734], [-119.45447500019918, 34.41863500030336], [-119.45446000013055, 34.41849700020128], [-119.45442199959741, 34.41833399982491], [-119.45427699983246, 34.4181660000001], [-119.45373500040748, 34.41774199985895], [-119.45355999960697, 34.41760099997009], [-119.45320099958178, 34.417322000025464], [-119.45282700038628, 34.417006000185836], [-119.45234699998724, 34.41665500016486], [-119.45189599990053, 34.416341999868365], [-119.45176700002912, 34.416182000325016], [-119.45174399956457, 34.41604100002908], [-119.45165999989898, 34.415666999716514], [-119.45154600009616, 34.4154610003637], [-119.45142399989744, 34.41537700020135], [-119.45110300040538, 34.41532399992312], [-119.45078299983992, 34.41528599974498], [-119.45062999967904, 34.415182999662704], [-119.45053099994485, 34.414984000094286], [-119.45039299985257, 34.41467100021339], [-119.45030199961599, 34.41434699997882], [-119.45028599972248, 34.414098999975906], [-119.4502029998818, 34.413474000304525], [-119.4501259998889, 34.413340000262586], [-119.45007300018544, 34.41316099996013], [-119.44992000002456, 34.41297699983365], [-119.44975199979508, 34.4127939997857], [-119.44965300006089, 34.412631000150945], [-119.4495850002888, 34.41243999989287], [-119.44955400032667, 34.41237500004701], [-119.44946300009009, 34.412180000206355], [-119.44936299963265, 34.41197399967568], [-119.44923399976122, 34.41187900020972], [-119.44881399963664, 34.41175300009636], [-119.44846300000738, 34.4114899997422], [-119.44827999970926, 34.41130700014626], [-119.44816599990646, 34.41123000006704], [-119.4481199998757, 34.41120400035148], [-119.44792200040729, 34.411067000348794], [-119.44782199994987, 34.41102100012987], [-119.44772300021567, 34.41098300021991], [-119.44762399958316, 34.41091400018328], [-119.44745600025199, 34.410779999745515], [-119.44734199955083, 34.41065899977964], [-119.44727999962656, 34.41059000021689], [-119.44711300012031, 34.41030799980102], [-119.44695199956351, 34.410016999715495], [-119.44682299969207, 34.40977300006813], [-119.4466400002923, 34.40951400002513], [-119.44648700013143, 34.409406999633084], [-119.44614399999973, 34.4092699996516], [-119.4457540000124, 34.40913199965985], [-119.44568600024034, 34.40910200014711], [-119.44553300007945, 34.40901800026833], [-119.4454109998807, 34.40888099964982], [-119.4453730002459, 34.408663000166705], [-119.44529700007791, 34.408334999710775], [-119.44529700007791, 34.408133000019305], [-119.4453959998121, 34.40787400008651], [-119.44541199970563, 34.40783600022922], [-119.44542199975137, 34.40781400014791], [-119.44558699960783, 34.407435000331944], [-119.44559400017883, 34.407221999830256], [-119.44554099957706, 34.40700799971612], [-119.44543400034526, 34.406775000365066], [-119.44536499984997, 34.40658800008249], [-119.44548000037601, 34.40634000004984], [-119.44567000034681, 34.406038999790624], [-119.44580000004316, 34.40560800014886], [-119.44587700003603, 34.40533000005147], [-119.44586100014253, 34.40515399989618], [-119.44578499997455, 34.40480299979481], [-119.44573800011887, 34.40460200030899], [-119.44573200027108, 34.404577999696535], [-119.44571100035468, 34.40450299977632], [-119.4456400002096, 34.40425699992196], [-119.44576200040831, 34.40414699993988], [-119.4458310000053, 34.40411999965936], [-119.44599099983886, 34.404066999659904], [-119.44624299973395, 34.404031999837635], [-119.44642600003205, 34.40405500001894], [-119.44654099965979, 34.404054000172344], [-119.44656499994922, 34.404054000172344], [-119.44659400026153, 34.404054000172344], [-119.4466550003609, 34.40404800035115], [-119.44672300013296, 34.404031999837635], [-119.4468300002631, 34.40395999971252], [-119.44691399992868, 34.40381900030705], [-119.44699000009665, 34.403612999939085], [-119.44695199956351, 34.40328100027178], [-119.44687600029384, 34.40295699964781], [-119.44678500005723, 34.402461000297414], [-119.44682699989002, 34.402200999983364], [-119.44693999986792, 34.401951999674914], [-119.44699000009665, 34.40189700003975], [-119.44711999979302, 34.401797000138714], [-119.44727999962656, 34.401732000175976], [-119.44737199968806, 34.401709000097306], [-119.44762399958316, 34.40172799993715], [-119.44783000034579, 34.40176299998206], [-119.44850099964222, 34.4019499999314], [-119.44867700026761, 34.40192699991264], [-119.4488370001012, 34.401880999856054], [-119.44898900043715, 34.40179000028195], [-119.44908099960034, 34.40171699983533], [-119.4492949998606, 34.40139299982578], [-119.44953099986216, 34.40092700032997], [-119.44968599967284, 34.40060200033834], [-119.44974500012239, 34.40047700017651], [-119.4499359999181, 34.400233000129056], [-119.45022499962312, 34.400019999821886], [-119.45060399973977, 34.39978999997405], [-119.45073599998426, 34.39970999997547], [-119.4509500002445, 34.39951899986417], [-119.45106499987223, 34.399328999961256], [-119.45116399960645, 34.39902799968056], [-119.45128599980517, 34.398795000342666], [-119.45127099973656, 34.39872300015834], [-119.45133199983593, 34.3982870003133], [-119.45136500034623, 34.39814700016001], [-119.45137799986668, 34.39809200024753], [-119.45138700008752, 34.39805099989839], [-119.45139600030836, 34.39801200010808], [-119.45141999969947, 34.39791000017149], [-119.45142300007252, 34.397899000308996], [-119.45142600044557, 34.39788699978347], [-119.45142899992028, 34.3978730001565], [-119.45146599973023, 34.3977159998909], [-119.45152199980673, 34.397474999722064], [-119.45174399956457, 34.39709000018999], [-119.45180499966393, 34.396989999732995], [-119.45197200006854, 34.39691000002258], [-119.45225900012369, 34.39682699969549], [-119.45232400042103, 34.39680800022529], [-119.45239499966783, 34.396780999800306], [-119.45241899995727, 34.396771999656735], [-119.45242999982793, 34.39676799992205], [-119.45247400020885, 34.39675200024013], [-119.45250000014812, 34.39674200015941], [-119.45252899956212, 34.39673100014338], [-119.45258600036183, 34.39670399969358], [-119.45260200025537, 34.39669600021745], [-119.45264599973798, 34.39667500010666], [-119.4528800000897, 34.396563999856994], [-119.45307099988543, 34.39649100003997], [-119.45342999991064, 34.39629600023669], [-119.45350600007862, 34.396109000253325], [-119.45354700008649, 34.39607000029926], [-119.45355600030733, 34.39605600036833], [-119.45369699987431, 34.39593000014336], [-119.45393299987589, 34.39574300008345], [-119.45399399997522, 34.39568999996668], [-119.45410100010537, 34.39556799972417], [-119.45452100022993, 34.395453999640644], [-119.45474999966046, 34.39535799999601], [-119.45489500032375, 34.39531299998572], [-119.45530700005239, 34.395174999951514], [-119.4555969995823, 34.39505700025748], [-119.45604699984409, 34.39475099964756], [-119.45647399964136, 34.3944230002466], [-119.45701599996467, 34.39419499977006], [-119.45803100011598, 34.393626000280264], [-119.45828999968376, 34.39348499976958], [-119.45848100037777, 34.39336699991665], [-119.45856500004335, 34.393278999905476], [-119.45871700037934, 34.39307700018693], [-119.45889999977912, 34.39277900034321], [-119.45916699974279, 34.39226500019421], [-119.45939600007168, 34.39196299971911], [-119.45972400013473, 34.39177999966443], [-119.4599609999612, 34.39168500024787], [-119.46050199956129, 34.39166500035697], [-119.46080000038542, 34.39167700029209], [-119.46110499998393, 34.391596999950906], [-119.46147200040507, 34.391382999904046], [-119.46176100011006, 34.39112400001265], [-119.46214299970148, 34.39081099981582], [-119.46238700009894, 34.3907079999925], [-119.4627229996596, 34.390596999983366], [-119.46305099972268, 34.39058599990101], [-119.4632139999293, 34.3905490003546], [-119.46327900022662, 34.390534000233295], [-119.46347000002234, 34.390489999862005], [-119.46375299987955, 34.3902119999465], [-119.46387500007827, 34.390089999873446], [-119.46402700041425, 34.38994900007785], [-119.46417999967682, 34.38974299966569], [-119.46431699994417, 34.38956700008514], [-119.46438100041657, 34.38943899968598], [-119.46447000010505, 34.389262000184196], [-119.46462999993861, 34.389147999666115], [-119.46478999977221, 34.389006999766536], [-119.4650800002004, 34.388899999836696], [-119.46527099999614, 34.38883900034893], [-119.46585099995426, 34.38868999968759], [-119.46630100021605, 34.38858700021974], [-119.46676700037138, 34.38860600007354], [-119.46708700003853, 34.3886330001705], [-119.46734599960631, 34.3886330001705], [-119.46768999956286, 34.388664999670056], [-119.46771100037758, 34.38866799976154], [-119.46774499981444, 34.38866399963957], [-119.46780300043908, 34.3886580001976], [-119.46836099975759, 34.38860199994861], [-119.46838000002417, 34.38859100034537], [-119.46841500018428, 34.3885830000939], [-119.46843199990273, 34.3885830000939], [-119.46844600014641, 34.388572999778475], [-119.46860500015507, 34.38849899963116], [-119.46872700035381, 34.388404000197596], [-119.46875999996578, 34.38830699984541], [-119.46877599985929, 34.38825899964484], [-119.46879599995079, 34.388201999834294], [-119.46880000014873, 34.38811999980456], [-119.46880400034671, 34.38803000013153], [-119.46879199975284, 34.3880019998017], [-119.46878099988218, 34.38797700032004], [-119.46877099983644, 34.3879500000115], [-119.4687480002702, 34.38788499967232], [-119.4687120002852, 34.38778199995536], [-119.46846000039011, 34.387354999870475], [-119.46829999965823, 34.38705300021439], [-119.46832300012278, 34.386843999932346], [-119.46837599982622, 34.38671799992523], [-119.46841400035939, 34.38660699981475], [-119.46856699962193, 34.38642399991243], [-119.4689030000809, 34.38618399990822], [-119.46917699971729, 34.38596299966965], [-119.46923100014398, 34.38590899996885], [-119.4693449999468, 34.38581000030326], [-119.46945200007688, 34.385622999874286], [-119.46959699984184, 34.38543599976893], [-119.46978000013996, 34.38529100000636], [-119.47019199986862, 34.38491000033312], [-119.47041299980154, 34.38474200010738], [-119.47048200029683, 34.38470400012426], [-119.47066499969664, 34.38460100020049], [-119.47090200042142, 34.3844790001052], [-119.47110800028571, 34.384401999801646], [-119.47135199978489, 34.38431899967435], [-119.47160399967996, 34.38421900026912], [-119.47212199971382, 34.3839939996881], [-119.47248099973902, 34.38383000020154], [-119.47268699960335, 34.38366200003281], [-119.47271799956549, 34.383556000035306], [-119.47271799956549, 34.38346399971891], [-119.47257299980053, 34.383124000154446], [-119.47253400034077, 34.38285699986005], [-119.47260299993778, 34.38266300027557], [-119.47264099957259, 34.382560000065055], [-119.47276299977133, 34.382350000323115], [-119.47286999990148, 34.38220200008267], [-119.47305999987225, 34.38199100007403], [-119.47323599959934, 34.38179699996585], [-119.47342700029336, 34.38143499996084], [-119.4734649999282, 34.38137400022372], [-119.47350299956305, 34.38118700026649], [-119.47351099995898, 34.381015000238435], [-119.47344200036198, 34.38083599973069], [-119.47299499957494, 34.38035500023143], [-119.47281700019799, 34.38005399992547], [-119.47280100030447, 34.3798290000147], [-119.47289300036597, 34.379653000351794], [-119.47301499966643, 34.379488999776946], [-119.47314400043615, 34.37939800032304], [-119.47330500009464, 34.37929499980344], [-119.47379299999126, 34.37911499992281], [-119.47396100022077, 34.37908100019023], [-119.47452500028535, 34.37903100034042], [-119.47470100001246, 34.37903100034042], [-119.475005999611, 34.37903900002182], [-119.47525000000847, 34.3790889998669], [-119.47537600040516, 34.37910700024867], [-119.47542599973556, 34.37911499992281], [-119.47545599987279, 34.37911899975964], [-119.4761809995959, 34.37938200028661], [-119.47650199998624, 34.37948499995784], [-119.47705099998223, 34.37970600024287], [-119.47747100010682, 34.379782999675164], [-119.47761599987177, 34.37974099985882], [-119.47770700010835, 34.37964899979912], [-119.4778069996675, 34.379488999776946], [-119.47783699980471, 34.379417000037975], [-119.47793600043721, 34.37891300013159], [-119.47800099983624, 34.378454999769076], [-119.47810700014146, 34.378285000369786], [-119.47830399978493, 34.37749399973451], [-119.47827299982279, 34.37725800000909], [-119.47826899962485, 34.377227000024035], [-119.47824100003577, 34.37700199993199], [-119.47819900020296, 34.37667200033469], [-119.47817999993639, 34.37653200035984], [-119.47802299957753, 34.37637799989479], [-119.47792399984334, 34.37628000026025], [-119.47785600007128, 34.37621400032071], [-119.47773899989541, 34.37609899965019], [-119.47750999956655, 34.37587300005161], [-119.47733499966435, 34.3757859996302], [-119.47706199985289, 34.37564999965966], [-119.47696599959343, 34.37560200035878], [-119.47655700023782, 34.37539500004647], [-119.47626099996182, 34.37524499973692], [-119.47597999975441, 34.37510400015], [-119.47623900022052, 34.374841000275694], [-119.47618899999179, 34.37470900030097], [-119.47620999990819, 34.3747040000563], [-119.47627799968025, 34.37467199966971], [-119.4763799997875, 34.37459399978834], [-119.47649699996337, 34.37446699968341], [-119.47653299994838, 34.37443099988724], [-119.4765410003443, 34.37439200021414], [-119.47653299994838, 34.37432200020399], [-119.47650100016135, 34.37424100012983], [-119.47658300017709, 34.373825000006775], [-119.47658599965183, 34.37380800018058], [-119.47661199959109, 34.373677999738376], [-119.47668000026147, 34.3733319999395], [-119.47665299959898, 34.373195000217706], [-119.4768219996534, 34.37283400032151], [-119.47721900021175, 34.37199299976253], [-119.47727899958788, 34.37186699965239], [-119.47732100031898, 34.371777999795775], [-119.47736300015178, 34.371688999844665], [-119.50095300026126, 34.326922000336836], [-119.48422399991523, 34.3067790003265], [-119.46699499997702, 34.293660000174754], [-119.44898199986615, 34.284685000305785], [-119.4286199996104, 34.27778100009829], [-119.4113899998473, 34.273637999816614], [-119.40199400016613, 34.27225800006417], [-119.39494599990661, 34.26535700007606], [-119.38633299967488, 34.25707399988215], [-119.37616399969174, 34.25000999964599], [-119.37593600008611, 34.250010999844825], [-119.3759350002612, 34.249879999684715], [-119.36412599996274, 34.24501299969374], [-119.35231300036466, 34.240715999701756], [-119.35072599975281, 34.240138999715995], [-119.34006899987303, 34.23825500012088], [-119.33592600032541, 34.23752300013926], [-119.33567600008016, 34.23734000026339], [-119.33488699988463, 34.236865000048226], [-119.33478399995246, 34.23677800030477], [-119.33467000014966, 34.23669800000032], [-119.3344619997372, 34.2365300000048], [-119.33334100017899, 34.23467299975035], [-119.33184099960577, 34.23218800008556], [-119.33097600014061, 34.23075500030656], [-119.33001000039309, 34.229154000051125], [-119.32938299968096, 34.22811399997908], [-119.32930200038842, 34.22798000000992], [-119.32924600031193, 34.22788700019979], [-119.32921600017471, 34.227837999843224], [-119.32865399975991, 34.22690599980487], [-119.31683000029118, 34.202524999715976], [-119.31522500013595, 34.198893999923435], [-119.31116000040613, 34.189694000097376], [-119.31067099978625, 34.188588000127794], [-119.31018200006474, 34.1874810003186], [-119.30387500032015, 34.17424600017935], [-119.30146000005303, 34.16891199966785], [-119.29756900040049, 34.16031600036736], [-119.28914899961428, 34.146424999955606], [-119.28574300038362, 34.140804999767674], [-119.27119800032601, 34.125003999672664], [-119.26773399957239, 34.12125199984699], [-119.26110499961253, 34.115218000061205], [-119.2551250001061, 34.10929300033553], [-119.2509420003755, 34.1062010002714], [-119.2455550003477, 34.09905400006507], [-119.2424949998251, 34.09499499974989], [-119.23350099982684, 34.083065000357834], [-119.23292400024174, 34.08229899965336], [-119.22692799994348, 34.07434399988612], [-119.21799300039478, 34.062490999808446], [-119.1589629998695, 34.04025300030603], [-119.11679700030777, 34.02982299996267], [-119.05789300017922, 34.01941100016018], [-119.05776699978253, 34.01938899969464], [-119.02740700014618, 34.01491900005774], [-119.00042099995348, 34.00746700020278], [-118.98531199983127, 34.00000799970954], [-118.98320600025896, 33.99945699974584], [-118.97997500003217, 33.99880599975276], [-118.97242499963232, 33.997744000179495], [-118.96632999959985, 33.99700900013802], [-118.96402900003388, 33.99675400023375], [-118.95824600017093, 33.99470500029343], [-118.95242599959974, 33.99295899970098], [-118.95172099996816, 33.99285799970361], [-118.9511419998349, 33.996432000224964], [-118.95056400042492, 34.00000700027241], [-118.9503739995558, 34.00154699978114], [-118.94619300037331, 34.03536800025005], [-118.94517999987181, 34.04308599969257], [-118.94508399961236, 34.04382099981957], [-118.94491700010612, 34.045102000318465], [-118.94490399968731, 34.045198000216224], [-118.94487799974806, 34.045418999870066], [-118.94464400029462, 34.04539999987868], [-118.94463199970075, 34.04550200029188], [-118.94450200000442, 34.04656299977323], [-118.94449299978358, 34.04663599977345], [-118.94439499987428, 34.0473839999682], [-118.94415999969766, 34.04925700016399], [-118.94356600039411, 34.05400000019365], [-118.94311000028453, 34.057632999999306], [-118.94308599999508, 34.05786199970955], [-118.94302300024592, 34.05830400014687], [-118.94298899991071, 34.05861299980595], [-118.94281099963548, 34.06001799978649], [-118.94274600023645, 34.06053400029794], [-118.94254700004485, 34.06213200013842], [-118.94249900036425, 34.062420999892645], [-118.9421379997909, 34.065536999869124], [-118.94202900001098, 34.06633300022987], [-118.94186900017739, 34.067692000276594], [-118.94171299964349, 34.068836000241134], [-118.94116899967037, 34.07319500031556], [-118.94107400013412, 34.07399899984942], [-118.94098000042277, 34.07474600036276], [-118.94096500035418, 34.07482999964386], [-118.9401490003945, 34.07533300023985], [-118.93987200038504, 34.07550499993135], [-118.93840299977396, 34.07640600015756], [-118.93510399977511, 34.07843300003574], [-118.93137299995612, 34.08073199993712], [-118.93132799975028, 34.08075999995995], [-118.92980499961082, 34.08169600028645], [-118.92912699974343, 34.08211200025225], [-118.92789999987997, 34.08286800018098], [-118.92646899980205, 34.0837479999979], [-118.92589200021696, 34.08410299984624], [-118.92426000029758, 34.08510599973702], [-118.92382699975423, 34.085370999685246], [-118.9226559999673, 34.086091999675375], [-118.92140700036255, 34.086860000094724], [-118.92112199995722, 34.087034999883166], [-118.9208459997727, 34.08720399992222], [-118.9207479998634, 34.08726499962898], [-118.92040100043207, 34.08747899969176], [-118.91873299962938, 34.088504000161535], [-118.91667800011068, 34.089768000088824], [-118.91639400042855, 34.089942999818014], [-118.91243099990768, 34.092378999756235], [-118.91175600041328, 34.0927929996461], [-118.90891000015095, 34.094542999955195], [-118.90840899983553, 34.09485199985206], [-118.9044839998478, 34.09726499973493], [-118.90030899961478, 34.099830999648994], [-118.89935899976079, 34.10041399998372], [-118.89626999982423, 34.102312999662956], [-118.89562399974383, 34.10270899998289], [-118.89388300004453, 34.10378000020279], [-118.89336300036082, 34.104100000248856], [-118.89290100040347, 34.104382999962276], [-118.89219500004863, 34.104816999647326], [-118.89148899969379, 34.10525100008141], [-118.88943699964986, 34.10651200008298], [-118.88911500033288, 34.106709000278634], [-118.88738799997897, 34.107770999831075], [-118.88525599956907, 34.10908000002505], [-118.88311999985953, 34.110391999662305], [-118.88104699989917, 34.11166599976794], [-118.88034800011538, 34.11209499977304], [-118.87903800041126, 34.11289999989368], [-118.87730100001157, 34.11396599963312], [-118.87690600000136, 34.114209999880245], [-118.87485899998029, 34.11546699972311], [-118.87454099996297, 34.115660999716255], [-118.87393099986761, 34.116036999961715], [-118.87382799993546, 34.11610000031207], [-118.87367300012473, 34.11619499978368], [-118.87345300001671, 34.11633100020363], [-118.87069700016609, 34.11802200012016], [-118.87023500020872, 34.118306999918445], [-118.86806500016398, 34.11964000019146], [-118.86608199971703, 34.12086000029317], [-118.86406700038133, 34.12209800030981], [-118.8639469998324, 34.12217099991785], [-118.86373199974724, 34.12230300023086], [-118.8626930002048, 34.122943000269046], [-118.86189399996356, 34.12343400021221], [-118.86164200006846, 34.12359200034329], [-118.86157900031927, 34.12362700030886], [-118.86139000017339, 34.12374300019737], [-118.86102799977512, 34.12396800027739], [-118.86094699958427, 34.12400000021044], [-118.86089399988083, 34.12402599963579], [-118.86069399986431, 34.12415600036106], [-118.86061600004649, 34.124218999868425], [-118.86031599957252, 34.124404000275035], [-118.85916599970199, 34.12511099964709], [-118.85775399989065, 34.125978000304464], [-118.85735800005551, 34.12623100023822], [-118.85723599985677, 34.12630399999605], [-118.8571379999475, 34.12636300016177], [-118.85647299960053, 34.12676499974096], [-118.85640999985134, 34.12679499975499], [-118.85637700023936, 34.12681599968413], [-118.85630100007138, 34.12686399982128], [-118.85603800030569, 34.127023999833625], [-118.85563999992242, 34.12726899975364], [-118.85552799976941, 34.12733700000926], [-118.85504700044379, 34.12763199979587], [-118.85408699964574, 34.12822099984187], [-118.85277399956857, 34.12902699979056], [-118.85271900021533, 34.12906100033357], [-118.85263600037464, 34.12911100023243], [-118.85251099980287, 34.12918899971812], [-118.85235400034233, 34.12928500024474], [-118.85132499994731, 34.129916999874816], [-118.85121600016738, 34.12998400009512], [-118.85091200039375, 34.13017499984339], [-118.85070999982908, 34.13029400006788], [-118.85061299974468, 34.1303539998114], [-118.85036199967453, 34.13050799987515], [-118.85003000031182, 34.13071200009741], [-118.84970800009654, 34.130908999695315], [-118.84950200023223, 34.13103499975224], [-118.84949100036157, 34.131041999873815], [-118.8492689997054, 34.131179000330896], [-118.84904899959736, 34.13131400032527], [-118.84884600010611, 34.13143800028434], [-118.84863199984588, 34.131569000139436], [-118.84833300009512, 34.13175299996209], [-118.84809799991847, 34.13189700006107], [-118.84788399965825, 34.132029000060314], [-118.84762500009046, 34.13218699974323], [-118.84733999968512, 34.132362000223885], [-118.84727299973797, 34.13240300017786], [-118.84706299967566, 34.1325329999186], [-118.84676499974985, 34.132714999665914], [-118.84654399981692, 34.132851000283495], [-118.84630299979247, 34.13299899965714], [-118.84624699971597, 34.13303300008958], [-118.84608600005751, 34.133132000264865], [-118.84578099956067, 34.13331899994913], [-118.8450299998983, 34.13378100019451], [-118.84456700011603, 34.134064000233806], [-118.84428799955846, 34.134235000202914], [-118.84414100014368, 34.13432499969549], [-118.84380100038506, 34.13453400003933], [-118.8437000001027, 34.134594999828785], [-118.84366900014057, 34.1346149999696], [-118.84358899977461, 34.134665000300885], [-118.8432480001911, 34.134873999803936], [-118.84300200014381, 34.13502400024937], [-118.84278600023374, 34.13515699990113], [-118.84276299976919, 34.13517100020451], [-118.84271300043879, 34.135201000209506], [-118.84265900001213, 34.135234999756115], [-118.84243899990409, 34.13536899989172], [-118.84239100022353, 34.13539999989841], [-118.84213400030556, 34.135557999971574], [-118.84202999965018, 34.13562199997363], [-118.84170300031035, 34.135823000292326], [-118.84141799990499, 34.13599699987143], [-118.84115000011639, 34.13616200001311], [-118.84093199965818, 34.136296000166], [-118.84066800006757, 34.13645700022962], [-118.84043200006599, 34.13660199980734], [-118.84018099999584, 34.136755999640236], [-118.84005700014725, 34.13683100008488], [-118.84000500026875, 34.13686399966459], [-118.83980100005421, 34.13698999976647], [-118.8395879996189, 34.1371199998871], [-118.83937199970883, 34.13725299995795], [-118.83933800027197, 34.13727400026308], [-118.83892599964501, 34.13752599979986], [-118.83844199994633, 34.137822999802815], [-118.83838900024287, 34.13785599973869], [-118.83821199979256, 34.137963999844324], [-118.83802900039277, 34.13807700001362], [-118.83792399991246, 34.13814000029903], [-118.83786799983596, 34.13817500018944], [-118.83692899985263, 34.13875199998998], [-118.8366379995995, 34.13893000035094], [-118.83591100022656, 34.13937700003465], [-118.83589199996, 34.13938800030812], [-118.83552299988908, 34.139614999683346], [-118.83550299979758, 34.13962599992585], [-118.83502900014464, 34.13991799989062], [-118.83471299977715, 34.140111000270856], [-118.83464099980712, 34.14015600024606], [-118.83438200023936, 34.140314000349186], [-118.83435999959973, 34.14032799979827], [-118.83402200038925, 34.140535000143736], [-118.83375100022758, 34.14070200036537], [-118.83368400028044, 34.140742999990934], [-118.8335670001046, 34.14081399983938], [-118.83345599977648, 34.14088200035046], [-118.83337499958563, 34.1409319999478], [-118.83330900036174, 34.14097200019915], [-118.83326300033097, 34.14100000036386], [-118.83308599988064, 34.14110900017311], [-118.83291099997847, 34.14121799984179], [-118.83275000031999, 34.14131600009234], [-118.83261600042569, 34.141398000214615], [-118.83248300035628, 34.141480000257296], [-118.83235100011183, 34.141561000221365], [-118.83221899986731, 34.14164200010773], [-118.83212599998092, 34.14169899998125], [-118.83208400014811, 34.14172499991079], [-118.83195199990364, 34.14180599963999], [-118.83181899983425, 34.14188700003498], [-118.83168599976487, 34.1419690003466], [-118.8315540004187, 34.14204999984188], [-118.83149300031934, 34.1420880003218], [-118.83141899980117, 34.14213299998761], [-118.83128900010482, 34.14221300007778], [-118.83115600003545, 34.14229400008265], [-118.83102299996607, 34.14237599999922], [-118.83089099972156, 34.142456999847816], [-118.83073900028391, 34.14255000021153], [-118.83058100010017, 34.14264699967437], [-118.83034699974844, 34.14278899982928], [-118.82985700020198, 34.14309099982589], [-118.82959699991099, 34.14325000036767], [-118.82930200035821, 34.14343100010586], [-118.8289630004245, 34.14364000023308], [-118.82893900013502, 34.14365399987451], [-118.82891900004354, 34.14366700028294], [-118.82884600024862, 34.14370999990399], [-118.82853599972891, 34.14389799994385], [-118.82844100019267, 34.143958999665216], [-118.82834400010832, 34.144025999905686], [-118.82804600018248, 34.144206000244075], [-118.82779799958702, 34.144354999771444], [-118.82699900024411, 34.144838999776184], [-118.8263580001866, 34.145227999785504], [-118.82625899955406, 34.14529199989832], [-118.82608200000205, 34.1454079997933], [-118.82600900020712, 34.14545299992119], [-118.82574999974105, 34.14561099978394], [-118.82472999956684, 34.14624100010971], [-118.82385900025389, 34.146779000067355], [-118.82371399959061, 34.14686200002799], [-118.82341200036514, 34.147044000139864], [-118.82299300006548, 34.1473000000012], [-118.8224580003132, 34.147629999682664], [-118.82154000024624, 34.14819299996398], [-118.82107800028889, 34.14847699997746], [-118.82095100006728, 34.14855400025899], [-118.82082100037096, 34.14863300030109], [-118.82074000018011, 34.148682999771985], [-118.8188820003049, 34.14982199984936], [-118.8186730000675, 34.149949999756345], [-118.81853400015034, 34.15003600001472], [-118.81578900017038, 34.15171900020593], [-118.81560500004734, 34.15183199982041], [-118.8151229999985, 34.15211399974494], [-118.81488000032424, 34.15226599980929], [-118.81457900002538, 34.152455000006654], [-118.81446900042052, 34.1525249998072], [-118.81430399966577, 34.1526269997951], [-118.8141959997107, 34.152694999718534], [-118.81159499967079, 34.15429100030357], [-118.81151299965504, 34.154341000142054], [-118.81145599975362, 34.15437600001138], [-118.81059499958808, 34.15490400029456], [-118.80762899967515, 34.15672199966192], [-118.80747899988732, 34.15681300029446], [-118.80737299958213, 34.15687900018545], [-118.80726499962707, 34.15694400020789], [-118.80710999981638, 34.15703999968055], [-118.80694099976199, 34.15714399979149], [-118.80682000028646, 34.15721899997783], [-118.80647100030701, 34.157432000173486], [-118.8064289995759, 34.15745799972082], [-118.80640400035985, 34.1574720000456], [-118.80632099962087, 34.15752300004097], [-118.80617599985591, 34.157612000192195], [-118.80507500038918, 34.158287999991245], [-118.80261300026642, 34.15979700000887], [-118.80207299959294, 34.16012799970228], [-118.80084800027765, 34.16087900008069], [-118.7980150004341, 34.162615999636316], [-118.79519199973798, 34.16434499981265], [-118.79377200042903, 34.16521599966159], [-118.79373100042116, 34.16524100006653], [-118.79355700034387, 34.165346999917105], [-118.79350299991722, 34.16538000025008], [-118.79041399998063, 34.16727300019063], [-118.78972600006745, 34.16769500035774], [-118.78958600032536, 34.16777999995122], [-118.78948699969285, 34.16784100026252], [-118.7894339999894, 34.167874000363845], [-118.7893760002631, 34.167910999944056], [-118.78927099978281, 34.16797999988122], [-118.78888900019139, 34.16821399973292], [-118.78874899955099, 34.16821300004935], [-118.78787900006292, 34.16821000025543], [-118.78719500034771, 34.16820600003454], [-118.78589700033918, 34.16819999970283], [-118.78270499957212, 34.16818599967047], [-118.78176999978676, 34.16818099976451], [-118.78152399973946, 34.16818000008061], [-118.78068500021352, 34.16817700028552], [-118.77726800021391, 34.168161000137786], [-118.7762120000547, 34.16815699991457], [-118.77603999962727, 34.16815600023035], [-118.775576999845, 34.16815800034202], [-118.77526100037582, 34.16815299969113], [-118.7750579999862, 34.16815100032265], [-118.77492300026701, 34.16815100032265], [-118.77400400037514, 34.168145999671346], [-118.77328100030186, 34.16814299987504], [-118.7720090002326, 34.168137000282115], [-118.76750299956352, 34.168116000217], [-118.76704999982695, 34.1681129996764], [-118.76652400029549, 34.168111000306936], [-118.76603899987359, 34.168109000194136], [-118.76577299973484, 34.168107999766114], [-118.76552099983974, 34.16810599965324], [-118.7653199999983, 34.16810599965324], [-118.76510400008823, 34.16810499996846], [-118.76463200008511, 34.168102000170705], [-118.76439299971052, 34.1681009997426], [-118.76412200044719, 34.1681000000577], [-118.76375800039911, 34.1680979999447], [-118.76335499999297, 34.1680959998316], [-118.76281199984476, 34.168093000033515], [-118.76254700042921, 34.16809200034857], [-118.76195900007517, 34.16808899980708], [-118.7617630002566, 34.16808800012205], [-118.76166699999712, 34.16808800012205], [-118.76123799965171, 34.168086000008756], [-118.76102299956655, 34.16808500032368], [-118.76084600001452, 34.16808500032368], [-118.76058300024883, 34.16808300021033], [-118.76016300012424, 34.16808100009687], [-118.75972700010615, 34.16807899998342], [-118.7593429999666, 34.16807699986987], [-118.75872500037364, 34.16807400007112], [-118.75859899997693, 34.168072999642675], [-118.75846799955735, 34.168072999642675], [-118.75839399993751, 34.168072999642675], [-118.75835600030268, 34.168072999642675], [-118.75816100030902, 34.16807199995745], [-118.75789400034532, 34.16807100027226], [-118.75768400028304, 34.16806900015851], [-118.75729599994551, 34.168067000044786], [-118.7568990002855, 34.16806600035947], [-118.7567019997437, 34.16806499993094], [-118.75650599992511, 34.16806400024567], [-118.75611199973982, 34.16806200013176], [-118.75591500009631, 34.16806099970318], [-118.75570199966097, 34.16806000001787], [-118.75558100018546, 34.16805900033248], [-118.75550400019259, 34.16805900033248], [-118.75529300030539, 34.16805799990386], [-118.75509099974069, 34.168057000218504], [-118.75489200044738, 34.168055999789814], [-118.75469200043085, 34.16805500010444], [-118.75449800026209, 34.16805399967577], [-118.75410099970372, 34.1680520003049], [-118.753697000371, 34.16805000019071], [-118.75348999978344, 34.168048999761986], [-118.75310099962104, 34.168048000076524], [-118.75272400005247, 34.16804599996223], [-118.75270099958796, 34.16804599996223], [-118.75209899988852, 34.16804300016239], [-118.75147399972452, 34.168040000362424], [-118.75045100007559, 34.168034999704595], [-118.74929799983202, 34.16802900010399], [-118.7483599996736, 34.16802400018872], [-118.74798999977774, 34.16802200007387], [-118.74785199968548, 34.16802200007387], [-118.74749500020843, 34.16801999995902], [-118.7457639996565, 34.168010999813085], [-118.74493400035145, 34.16800500021078], [-118.7415030001081, 34.1679829996833], [-118.74135099977214, 34.16798100031076], [-118.74088399979192, 34.16797900019495], [-118.74030999968156, 34.16797599964943], [-118.74015700041899, 34.16797499996306], [-118.74007000038036, 34.16797499996306], [-118.73565800032088, 34.16794199990126], [-118.7353079996182, 34.167951999741156], [-118.7314920003087, 34.16791599986601], [-118.73076199966441, 34.167908999826516], [-118.73032399999651, 34.167905000334635], [-118.72942799967088, 34.1678980002943], [-118.72914099961572, 34.16789600017645], [-118.72868899970408, 34.167891999940686], [-118.72684199969954, 34.1678770001697], [-118.72638200029033, 34.16787500005137], [-118.72631699999302, 34.16787500005137], [-118.72402300009972, 34.167863999771434], [-118.72337399964627, 34.167860999965114], [-118.7224249996172, 34.16794100021448], [-118.72028399988481, 34.16805799990386], [-118.71863199987392, 34.168170000267715], [-118.7184670000175, 34.16818099976451], [-118.71711499958226, 34.168273000364934], [-118.71692399978659, 34.168285999956986], [-118.71689100017461, 34.16828800006553], [-118.71649500033948, 34.16831499966856], [-118.71576999971806, 34.16836399969686], [-118.71544800040111, 34.16838499970024], [-118.71441599963303, 34.16845499967391], [-118.71199399969323, 34.168618999915715], [-118.71091599979273, 34.168616999814965], [-118.71081200003567, 34.168616999814965], [-118.71035299955304, 34.168614999714215], [-118.71004799995451, 34.168614999714215], [-118.70975199967852, 34.168614000035404], [-118.70879799962655, 34.168611999934576], [-118.70506599998265, 34.16859700029155], [-118.70339200023047, 34.16859099998763], [-118.7033670001161, 34.16859000030853], [-118.7032540001382, 34.16859000030853], [-118.70261899992849, 34.168588000207144], [-118.69687299987547, 34.16857400023908], [-118.69531999959881, 34.16857000003545], [-118.69482099983153, 34.16856900035615], [-118.69472100027242, 34.16856900035615], [-118.69452700010365, 34.16856799993359], [-118.69383400016761, 34.16855699974391], [-118.69347199976936, 34.16855300028274], [-118.69261300015198, 34.168539999988575], [-118.69231500022613, 34.16853500010358], [-118.6917140003516, 34.16852600001257], [-118.69089099982091, 34.16851400013747], [-118.68365000011585, 34.16840400033591], [-118.68118799999309, 34.168365999803555], [-118.67894099995547, 34.16832799999738], [-118.67718699983735, 34.16830600029736], [-118.67566000039827, 34.168285999956986], [-118.67438599978088, 34.16827100025602], [-118.67424100001593, 34.1682679997209], [-118.67215299998696, 34.168241000102825], [-118.66815199983122, 34.16819499979774], [-118.66815299965614, 34.16953399978079], [-118.66815400037935, 34.17000699967949], [-118.66815400037935, 34.17030399993779], [-118.66815400037935, 34.17051099965745], [-118.66815299965614, 34.176750000206674], [-118.66815699985412, 34.18123499988558], [-118.66815400037935, 34.181253000328574], [-118.66815600002919, 34.18199999971885], [-118.66815799967901, 34.18253600021073], [-118.66816100005204, 34.18377799963955], [-118.66816199987696, 34.18414099986075], [-118.66816299970188, 34.184681000309006], [-118.66815299965614, 34.18492600021184], [-118.66815600002919, 34.1849799999097], [-118.6681640004251, 34.18514800015236], [-118.66816900044796, 34.18715499966833], [-118.66817000027288, 34.187522999722695], [-118.66817600012067, 34.189866999975415], [-118.66814599998345, 34.19107800033167], [-118.66814000013566, 34.19133099996631], [-118.66813799958753, 34.19152199993958], [-118.6681350001128, 34.19194600024828], [-118.66812900026501, 34.192631999878294], [-118.66812300041721, 34.19328399993264], [-118.66810499997555, 34.19417600006459], [-118.66810400015066, 34.19420499979475], [-118.6681019996025, 34.19427700013212], [-118.66808400005917, 34.19497200036211], [-118.66807900003629, 34.19519399986678], [-118.66807400001342, 34.19538500000705], [-118.66806899999052, 34.19557200004812], [-118.66806700034071, 34.19564199975819], [-118.66806700034071, 34.19566499986251], [-118.6680659996175, 34.19569499992453], [-118.66803399983044, 34.19694999989226], [-118.6680010002185, 34.198216999865956], [-118.66799199999765, 34.19860100026837], [-118.66798699997479, 34.19878799986402], [-118.66797899957886, 34.199100000022256], [-118.66797699992902, 34.19915899986045], [-118.66797600010413, 34.19922600013037], [-118.66796699988329, 34.199571999800774], [-118.66796500023347, 34.19962899994304], [-118.66788800024057, 34.20263999970236], [-118.66781500044564, 34.205482000142354], [-118.66780700004972, 34.20579500002475], [-118.66780600022483, 34.20663100018147], [-118.66780500039991, 34.20676999978303], [-118.66780500039991, 34.20695599986402], [-118.66780399967669, 34.207184000290084], [-118.66780299985177, 34.20769000021186], [-118.66780299985177, 34.207835999994586], [-118.66780200002685, 34.20804099983255], [-118.66780000037703, 34.20904600012275], [-118.6677989996538, 34.209328999742176], [-118.6677989996538, 34.20953500034283], [-118.6677989996538, 34.20959400030671], [-118.6677979998289, 34.21001800036823], [-118.6677979998289, 34.210098999944584], [-118.6677979998289, 34.21020699975386], [-118.66779700000399, 34.210577000087284], [-118.66779600017907, 34.21096900000544], [-118.66779399963093, 34.212227000371094], [-118.66778899960806, 34.21384500024264], [-118.66779100015619, 34.21389600033774], [-118.66778600013332, 34.21553500025613], [-118.6677839995852, 34.21641099978234], [-118.66778000028553, 34.21651699996545], [-118.66777400043777, 34.21794999983017], [-118.66777400043777, 34.218038000290285], [-118.66777400043777, 34.2182710003556], [-118.66777299971456, 34.222294000265784], [-118.66777299971456, 34.222742000226326], [-118.66777299971456, 34.22342600002013], [-118.66777400043777, 34.22535400025583], [-118.66777400043777, 34.22651399975823], [-118.66777299971456, 34.22759599977105], [-118.66777199988964, 34.22849800008434], [-118.66777199988964, 34.2288510000833], [-118.66777199988964, 34.229154000051125], [-118.66776600004182, 34.23194700030102], [-118.66776500021693, 34.2329640002526], [-118.6677629996688, 34.23322999965943], [-118.66775400034626, 34.23475800016617], [-118.66774299957731, 34.23655500006515], [-118.6677419997524, 34.236638000093464], [-118.6677419997524, 34.23669400005739], [-118.6677340002548, 34.23774900033388], [-118.66773300042989, 34.237993000132406], [-118.66772000001109, 34.24002600030332], [-118.66771400016331, 34.240344999983385], [-118.66487700012182, 34.2403539998358], [-118.66446299984503, 34.24035300026483], [-118.66309799988935, 34.24035500014939], [-118.65842800008701, 34.24036200011633], [-118.65747800023301, 34.240364000000675], [-118.65406899973098, 34.24037600004849], [-118.65070100013516, 34.24038699978139], [-118.65037300007211, 34.240388000094605], [-118.65014499956814, 34.24038899966515], [-118.64841800011254, 34.24038699978139], [-118.64831500018038, 34.24038699978139], [-118.64728099976246, 34.24038600021076], [-118.64638399961191, 34.24038600021076], [-118.64587200032418, 34.24038499989753], [-118.64505299999144, 34.24038499989753], [-118.64399500018237, 34.24038400032693], [-118.6425459996628, 34.24038499989753], [-118.64207600020784, 34.24038600021076], [-118.6419540000091, 34.24038600021076], [-118.64190600032852, 34.24038499989753], [-118.64187299981825, 34.24038499989753], [-118.64142599992951, 34.24038600021076], [-118.64093700020797, 34.24038600021076], [-118.6406030002971, 34.24038600021076], [-118.6398419996907, 34.24038699978139], [-118.639510000328, 34.24038699978139], [-118.63837999965062, 34.240388000094605], [-118.63836100028239, 34.240388000094605], [-118.63824900012938, 34.240388000094605], [-118.63819499970272, 34.240388000094605], [-118.63814799984704, 34.240388000094605], [-118.6374470004134, 34.24040799967251], [-118.63690599991499, 34.24040000013894], [-118.63639700010198, 34.24039599962926], [-118.6363490004214, 34.24039599962926], [-118.63587800024321, 34.24038899966515], [-118.63579799987725, 34.24038999997834], [-118.63559399966276, 34.24038999997834], [-118.6351819999341, 34.24038999997834], [-118.63492599984109, 34.24038999997834], [-118.6346039996258, 34.24038999997834], [-118.63398799968265, 34.24038999997834], [-118.63382600019924, 34.2403910002915], [-118.63340100005182, 34.2403910002915], [-118.63327899985308, 34.24039199986203], [-118.63310999979869, 34.2403910002915], [-118.63285799990359, 34.2403910002915], [-118.63249399985554, 34.2403910002915], [-118.63249499968046, 34.24042600010549], [-118.63252200034293, 34.241404000268396], [-118.63253099966546, 34.24172799992606], [-118.6325330002136, 34.241796000062635], [-118.63253499986341, 34.24186400014422], [-118.63253700041155, 34.241947999688705], [-118.63256099980268, 34.242796000226], [-118.63260900038158, 34.245619000287235], [-118.63264000034371, 34.24742700032499], [-118.63264899966623, 34.248386999869055], [-118.63264899966623, 34.24948099972043], [-118.63260400035868, 34.25471599963671], [-118.63260199981055, 34.25493000024644], [-118.63260000016075, 34.255193000368195], [-118.63257300039655, 34.258251999992936], [-118.63256400017573, 34.25934000024332], [-118.63255400012999, 34.2604910000326], [-118.63254499990914, 34.2614820002151], [-118.63254400008425, 34.26158900014927], [-118.63253999988628, 34.262098000060774], [-118.63253499986341, 34.26224299976505], [-118.6325330002136, 34.26290599990312], [-118.63254599973406, 34.26335099968728], [-118.6325480002822, 34.263428999820704], [-118.63255599977981, 34.26348299969933], [-118.63270499974271, 34.264477000346986], [-118.63326700015752, 34.26822900034942], [-118.63328100040123, 34.26832200013145], [-118.63328300005104, 34.26833499988521], [-118.63342600016618, 34.26928900008818], [-118.63343700003682, 34.26936499997349], [-118.63344700008258, 34.26943400001503], [-118.63346100032626, 34.269522000114904], [-118.63347300002182, 34.26962600031673], [-118.63347800004472, 34.269670000277735], [-118.63349399993824, 34.269811999657385], [-118.63349800013619, 34.26984399996548], [-118.63354400016696, 34.27024199990269], [-118.63357599995399, 34.27052199963996], [-118.63358599999975, 34.270604000362205], [-118.63359900041854, 34.27071900019018], [-118.63376400027498, 34.27156299977591], [-118.63386499965901, 34.2722340001521], [-118.63390099964401, 34.2724809999711], [-118.6339070003901, 34.2725159997996], [-118.63407499972129, 34.273627999894465], [-118.6341040000336, 34.27382900025337], [-118.63471300030407, 34.27789400002487], [-118.63478100007613, 34.278353000214594], [-118.634786000099, 34.27838500024107], [-118.6356249996249, 34.284003999677594], [-118.63566700035601, 34.28429999996925], [-118.6366249997076, 34.29070000024057], [-118.63670900027151, 34.29126799969425], [-118.63678899973914, 34.29180399966083], [-118.63707099977142, 34.292376000079415], [-118.6371519999623, 34.292540000368575], [-118.63735700000171, 34.29295800016468], [-118.6376099997217, 34.29347400016603], [-118.63813699997637, 34.294547000113994], [-118.63822200036519, 34.2947210002584], [-118.63852100011593, 34.295330999811895], [-118.63912899966316, 34.29656900002445], [-118.64027400040916, 34.29890500014886], [-118.64151700016609, 34.30143899999093], [-118.64163099996891, 34.30167100036288], [-118.64240000007293, 34.30323899971266], [-118.64266299983868, 34.303776000032734], [-118.64320299961385, 34.304874999809556], [-118.64417799958218, 34.30686399985973], [-118.64435199965946, 34.30720599987932], [-118.64505100034158, 34.30864400012921], [-118.64530599971143, 34.309163999697645], [-118.64635799967266, 34.311309000326695], [-118.6477200001536, 34.314085999819675], [-118.64848400023476, 34.31564199988523], [-118.65058599960909, 34.319926999828944], [-118.6508590003189, 34.320484000078594], [-118.651183000184, 34.32114399975036], [-118.65228500037395, 34.323392000292365], [-118.65279300036207, 34.32442700017993], [-118.65467999965124, 34.32827400036185], [-118.6569069995974, 34.332816000034164], [-118.65869500005068, 34.33646000012976], [-118.66250200003768, 34.34421400034922], [-118.66697299964837, 34.35332100025817], [-118.66884499976727, 34.357134000019066], [-118.67020200022534, 34.35989599966723], [-118.67059300003758, 34.36069199996709], [-118.67092699994845, 34.36137100002696], [-118.6733179999261, 34.36623999972313], [-118.67362599989767, 34.366868000072905], [-118.6757809998738, 34.37125499981109], [-118.67761600018275, 34.37499300021354], [-118.67817799969924, 34.376135999651055], [-118.67834299955567, 34.37647100001691], [-118.68066699958615, 34.38120099971876], [-118.68124700044262, 34.38238099989453], [-118.68294799995898, 34.38584200014057], [-118.68313600027997, 34.386224000080254], [-118.68496800021589, 34.389953000138405], [-118.6853010003018, 34.39063000022184], [-118.68577999997761, 34.39160499991433], [-118.68786600035673, 34.395851000105615], [-118.68800100007596, 34.3961269999409], [-118.68862700006484, 34.39740000010617], [-118.68902999957267, 34.39822099993137], [-118.69041299997002, 34.40103299982617], [-118.69139700015917, 34.40303300007152], [-118.69230299963225, 34.40487499993565], [-118.69265699963458, 34.40559299976198], [-118.69279399990194, 34.40587200029266], [-118.69290000020716, 34.4060879999928], [-118.69333600022524, 34.406974000194815], [-118.69339200030174, 34.40708800014843], [-118.69351000030251, 34.40732900005263], [-118.69354999958718, 34.40740999998452], [-118.69357800007457, 34.4074660002484], [-118.69364099982376, 34.40759399975786], [-118.69373100023545, 34.40777700006553], [-118.69376999969519, 34.40785900010589], [-118.6942340002007, 34.408798999870065], [-118.6948619998394, 34.41007700029732], [-118.69520499997108, 34.410773999665615], [-118.69542099988112, 34.41121199992279], [-118.69765899969795, 34.41576100036061], [-118.697986999761, 34.41642799994109], [-118.69894199963785, 34.418369000332596], [-118.69897099995018, 34.4184279996943], [-118.69923000041625, 34.418955999740426], [-118.6996129998326, 34.41973300015349], [-118.69990599973556, 34.42032999984611], [-118.70321300013033, 34.427052000115104], [-118.70493299991327, 34.430549000113906], [-118.70507199983041, 34.43083199996526], [-118.70630999956452, 34.43334699978302], [-118.7067439999328, 34.434230000208004], [-118.70677700044305, 34.434296999816674], [-118.70687700000218, 34.43450199995542], [-118.70711999967642, 34.43499499978805], [-118.7073309995636, 34.43542000006866], [-118.70771800007624, 34.43621099996644], [-118.70777199960457, 34.43633600006694], [-118.70814800024652, 34.43708400006272], [-118.70920699988048, 34.43923700030673], [-118.71183300003477, 34.44457599969229], [-118.71183899988256, 34.444589000288715], [-118.71240899979495, 34.44574700016657], [-118.71260799998656, 34.4461519996398], [-118.71319899981538, 34.447353000119406], [-118.71441700035628, 34.44982899968097], [-118.71505000001787, 34.451113999777334], [-118.71534600029386, 34.45171699988023], [-118.71623099985054, 34.45351600003385], [-118.71681599983152, 34.45470500003095], [-118.71734200026131, 34.45577300028559], [-118.71814700035036, 34.45740900000403], [-118.718663999661, 34.45846000008379], [-118.71896599978477, 34.45907299976717], [-118.71921000018226, 34.459569000288944], [-118.71936099979497, 34.459872000236054], [-118.71939599995511, 34.45994099985758], [-118.71969100040619, 34.460543000008535], [-118.71982600012538, 34.46081699982092], [-118.71987399980597, 34.460912999866906], [-118.7201919998233, 34.46156200015179], [-118.72026799999128, 34.46171799988929], [-118.72043299984772, 34.46205099996321], [-118.72066999967419, 34.46253200002938], [-118.72075300041318, 34.4627020000613], [-118.72115500009609, 34.4635170001115], [-118.72165499968828, 34.464532000049545], [-118.72186700029869, 34.464961999702], [-118.72206700031523, 34.46536700005321], [-118.72225200026317, 34.46574299984746], [-118.72244800008176, 34.466142000304025], [-118.72248999991454, 34.46622699964997], [-118.72261600031125, 34.46648299997156], [-118.72266800018977, 34.46658700036398], [-118.72271599987036, 34.466685999954855], [-118.72294799967392, 34.46715600033807], [-118.72317399962975, 34.46761499997809], [-118.72323999975197, 34.46774899965351], [-118.72331099989711, 34.46789400013775], [-118.72343599957057, 34.46814700032833], [-118.72417200006262, 34.46964099973158], [-118.72514899968083, 34.47162399980966], [-118.72575899977618, 34.47286299971801], [-118.72609000021228, 34.47353599973833], [-118.7263379999094, 34.47403800021149], [-118.72656800006317, 34.47450700017899], [-118.72660499987309, 34.4745809997515], [-118.72684699972243, 34.47507100004848], [-118.72703000002053, 34.47544300014493], [-118.7272319996869, 34.475853999846024], [-118.72746299966558, 34.476322999974165], [-118.72759999993292, 34.47659999972422], [-118.72768799979649, 34.4767789996617], [-118.728336000425, 34.478095000051056], [-118.72994400005491, 34.48135900007839], [-118.7303519995856, 34.48218700002833], [-118.73086700014474, 34.48323199980339], [-118.73185399980865, 34.48523599982014], [-118.73387200041572, 34.48933299979378], [-118.7345610001538, 34.49073299984017], [-118.73510599995184, 34.49183899980748], [-118.7363150002719, 34.49429200024624], [-118.73679899997059, 34.495275000335326], [-118.73726599995081, 34.49622300023171], [-118.73780599972598, 34.497319000044676], [-118.73844500013367, 34.49861700008963], [-118.73861800038604, 34.49896900018232], [-118.73887299975584, 34.49948400030688], [-118.73933999973606, 34.50043299990026], [-118.7395940001793, 34.500946999696886], [-118.73986000031807, 34.50148699978537], [-118.74014300017528, 34.50206100015697], [-118.74017400013742, 34.50212400024599], [-118.74035200041264, 34.50248600035149], [-118.74078900025567, 34.50337199998554], [-118.74115800032662, 34.50411999978819], [-118.74155800035967, 34.504932999969526], [-118.74189100044562, 34.505607999828726], [-118.74197099991324, 34.505772000267584], [-118.74382799996353, 34.5095370000478], [-118.74524099959979, 34.51240299966667], [-118.74540700017945, 34.51274000036477], [-118.74552400035533, 34.51297700036446], [-118.75398199987805, 34.53012899994401], [-118.75443700016272, 34.531050000097736], [-118.75666900013172, 34.53557699988693], [-118.75778499966707, 34.53783900002002], [-118.75846500008262, 34.53921600005332], [-118.76042199969203, 34.54318099984967], [-118.76449800019083, 34.55143899997484], [-118.77029799977223, 34.563189999633316], [-118.7719299996916, 34.56649600009193], [-118.77337199964015, 34.56941499969183], [-118.77403100013933, 34.57075499983757], [-118.77471200037981, 34.57212700005607], [-118.77583600031107, 34.57440799976838], [-118.7758880001896, 34.57451300014928], [-118.77747499990313, 34.57772500006688], [-118.77972500031383, 34.58227999999115], [-118.7843990003141, 34.5917459999317], [-118.78550200032896, 34.59397800028709], [-118.78855199990747, 34.60015400032064], [-118.79390799997316, 34.61098399986873], [-118.79652900010458, 34.61628799998463], [-118.7966639998238, 34.616566000266], [-118.79953199982745, 34.622364999645484], [-118.80021899991571, 34.62375200033817], [-118.80025800027377, 34.623834999679104], [-118.80054299978079, 34.62440899973356], [-118.80180900000231, 34.626967999793145], [-118.80279099964332, 34.628955000108306], [-118.80405699986481, 34.631513000323565], [-118.8053020001699, 34.634031000368864], [-118.80619900032045, 34.63584500034425], [-118.80632700036698, 34.636101999695235], [-118.80749700032898, 34.638467999808995], [-118.80844399980992, 34.640382000340246], [-118.81026800024824, 34.644069999860434], [-118.81057200002186, 34.64468499994224], [-118.8118139999539, 34.6471950000635], [-118.81236100030007, 34.64830099966972], [-118.81287099993801, 34.64933100019575], [-118.81300400000738, 34.64959899980444], [-118.81439999992524, 34.65242200019183], [-118.8158679998131, 34.65541399973356], [-118.81744299983104, 34.658670999728905], [-118.81869300015902, 34.66125800029089], [-118.8202890000934, 34.66455700021055], [-118.82091500008228, 34.66585099981276], [-118.82143300011613, 34.666921000258675], [-118.82161399986609, 34.667293999676474], [-118.82208000002142, 34.668259000039974], [-118.82225800029664, 34.66862699971922], [-118.82362099970419, 34.67144400011401], [-118.82547000025687, 34.67526600019695], [-118.8267389999531, 34.6778900003501], [-118.82721000013129, 34.67886299964456], [-118.82894499998284, 34.682448000002005], [-118.83072800041326, 34.68613399992144], [-118.83240299999032, 34.689594999982425], [-118.83409099998622, 34.693081999793705], [-118.8357930002258, 34.69659899985902], [-118.83699900017282, 34.699089999764894], [-118.8373630002209, 34.69984200028769], [-118.8381230001041, 34.701412999677906], [-118.83833599964113, 34.70185200036524], [-118.83898699974436, 34.70319599967997], [-118.84072099977098, 34.7067780003509], [-118.8407860000683, 34.70691099974547], [-118.84244200027713, 34.71032999990396], [-118.84416100023516, 34.71387900031749], [-118.84524900018143, 34.71612500030862], [-118.84608400040767, 34.7178539996766], [-118.84697499981212, 34.719688000350395], [-118.84727299973797, 34.720309000135174], [-118.84768199999189, 34.72115499985959], [-118.84778599974895, 34.721367999695964], [-118.84796400002418, 34.72172999973639], [-118.84961799968487, 34.72514999977496], [-118.85141799983371, 34.72886700011353], [-118.85166999972881, 34.72938600008558], [-118.85223200014362, 34.73054099978141], [-118.85276600007097, 34.73164699966919], [-118.85422399991307, 34.73465699989036], [-118.85524800028523, 34.73677099983962], [-118.85687299963361, 34.740122000135045], [-118.85732399972031, 34.74105500030283], [-118.85906500031795, 34.744645999929375], [-118.86136400023412, 34.74939100026207], [-118.86166100033502, 34.75000300015654], [-118.86398399964231, 34.754795999943425], [-118.86479100027948, 34.75645900003585], [-118.86612000025018, 34.759200999970005], [-118.86830799983824, 34.76365699972198], [-118.86860900013713, 34.76433299988178], [-118.86956900003685, 34.76631300026754], [-118.87020500007151, 34.76762999974683], [-118.87057099976937, 34.76837600026346], [-118.87180400037892, 34.770917999702505], [-118.87282200000496, 34.77301699999952], [-118.87402399975402, 34.77549799993861], [-118.87504899995109, 34.77761100030761], [-118.87562800008429, 34.77880400035735], [-118.87666300032711, 34.78093800004762], [-118.87726400020165, 34.78217700021921], [-118.87830699994207, 34.7843279999017], [-118.8795749998134, 34.78694299994446], [-118.88031200013035, 34.78846299987608], [-118.88040500001678, 34.7886550001579], [-118.88095400001276, 34.78865700020459], [-118.88995499968371, 34.7886649996531], [-118.89076899999358, 34.78866600004521], [-118.89472199957042, 34.788670000138005], [-118.9076720004169, 34.788681999677515], [-118.92249600013373, 34.78899599967168], [-118.92548200013815, 34.789058999752115], [-118.93012199980325, 34.78924200034503], [-118.93825899983392, 34.78956300013817], [-118.93897699988433, 34.78959099974142], [-118.94042300003086, 34.78964800003736], [-118.94277800002351, 34.78974099993083], [-118.94669700016348, 34.78975700009234], [-118.94782299974456, 34.78976100013223], [-118.9604250004365, 34.78980699983924], [-118.96380899992586, 34.78980800021745], [-118.97135199975467, 34.789808999857996], [-118.976718999691, 34.789808999857996], [-118.97802199972242, 34.789808999857996], [-118.9780059998289, 34.79233099966762], [-118.97790000042201, 34.80431599964496], [-118.97792499963805, 34.81155400003441], [-118.97792600036128, 34.81171399974278], [-118.98426999991577, 34.81183199965138], [-118.98759099965594, 34.81189800031406], [-118.99602499978755, 34.81205800009205], [-119.00039800038726, 34.812151999890524], [-119.00755700007655, 34.812294000230104], [-119.00764300029026, 34.81229699980868], [-119.00780399994875, 34.812303999808464], [-119.00929899960077, 34.812337000326174], [-119.01055200030177, 34.812366999779634], [-119.01080500002178, 34.81237299966901], [-119.01303600016587, 34.81242200034723], [-119.01390800020206, 34.81244200020929], [-119.02375499996991, 34.81242299971354], [-119.03108799973647, 34.812413000149554], [-119.03129600014894, 34.81241099994165], [-119.0315470002191, 34.81240899973364], [-119.03893699988704, 34.812401999742775], [-119.04517500003469, 34.81244200020929], [-119.04564000036508, 34.812444999782535], [-119.04616400024673, 34.81244800009321], [-119.05217200024056, 34.81248699969678], [-119.06633700035657, 34.81257800017508], [-119.08185400000946, 34.812628000095195], [-119.08512500041923, 34.81263899973432], [-119.0861380000224, 34.81264200003794], [-119.08638200041987, 34.812646999806134], [-119.09468500013193, 34.81282499991309], [-119.09683300043532, 34.81286199987876], [-119.09765000021993, 34.81287599978168], [-119.09823600002585, 34.81288700012525], [-119.09929300000996, 34.81290599977646], [-119.10024700006191, 34.8129229999653], [-119.10089399996723, 34.81291299972451], [-119.10102200001373, 34.81291499992023], [-119.10206999977702, 34.812931000009534], [-119.10320700012704, 34.8129410002482], [-119.10461800011349, 34.81295500013771], [-119.10584699962673, 34.8129449999008], [-119.10674399977728, 34.812937999955466], [-119.10917800031098, 34.81288999968229], [-119.11045100020516, 34.81290499967846], [-119.11215900029252, 34.812934999662616], [-119.11481399986081, 34.812981999812585], [-119.12594000026897, 34.813178000164484], [-119.12639200018057, 34.813235999735205], [-119.127070000048, 34.81326199996189], [-119.12973899986001, 34.81336600004893], [-119.13247299996934, 34.81334899995149], [-119.13612599997053, 34.813327000123856], [-119.13886599992765, 34.81331100011143], [-119.13954899981793, 34.81331100011143], [-119.14463100024726, 34.81336700014132], [-119.14477099998933, 34.813369000326084], [-119.14648800029752, 34.81338699977402], [-119.14826699963167, 34.81340700013938], [-119.14948299962445, 34.81341999985798], [-119.15152700017079, 34.81344199966077], [-119.15248000039783, 34.81345299992871], [-119.15508499973744, 34.813470000004706], [-119.15571300027446, 34.81347399963161], [-119.15800299996978, 34.813489000259025], [-119.1586390000044, 34.81349299988502], [-119.17084499996288, 34.81357299973938], [-119.1719300004344, 34.813588000348766], [-119.17967199955658, 34.81367999969971], [-119.17977100018908, 34.813681999876856], [-119.18869800024018, 34.813789999782905], [-119.2002539999203, 34.81389899963327], [-119.20158799991385, 34.81391200001182], [-119.20751800008989, 34.81396799963325], [-119.21327300036373, 34.81401800018497], [-119.22202499961435, 34.81409199976576], [-119.22460100043824, 34.814115000209995], [-119.22529400037429, 34.81412300013849], [-119.22584300037028, 34.81412899990002], [-119.23181299983098, 34.81419700036257], [-119.24253400018316, 34.81432300031211], [-119.24252499996231, 34.818904999656915], [-119.24252499996231, 34.8192729999826], [-119.2425209997644, 34.82093199991195], [-119.24249599965002, 34.827841000115264], [-119.24250599969575, 34.82890999996462], [-119.24254199968075, 34.832277999761814], [-119.24254400022889, 34.832668999752364], [-119.242571999818, 34.83531700010678], [-119.24261399965079, 34.8393120002517], [-119.24265100035903, 34.84285400035707], [-119.2426560003819, 34.843401999674875], [-119.24264399978803, 34.845776999918954], [-119.24264100031327, 34.846328000230876], [-119.24263700011532, 34.8470499996567], [-119.24261799984873, 34.8504970001731], [-119.24260899962789, 34.85231699991666], [-119.24258600006168, 34.85661900016166], [-119.24258199986373, 34.85744200025494], [-119.24258100003884, 34.85759800030991], [-119.2427269996287, 34.8575950001699], [-119.24364499969563, 34.85757599977195], [-119.25018800034007, 34.8574859999224], [-119.25016200040082, 34.85747200023181], [-119.25037599976275, 34.85746900008716], [-119.25100699977449, 34.85745799980169], [-119.25122299968457, 34.85745499965657], [-119.25143299974683, 34.85745099995428], [-119.2558079999964, 34.85737799982549], [-119.2561450002803, 34.857372000266466], [-119.25653000024475, 34.85736599996981], [-119.25702300016427, 34.85735799981933], [-119.26016999982716, 34.85730499963193], [-119.26057099968516, 34.8573070002238], [-119.26245100019997, 34.857315999937896], [-119.26450300024392, 34.857325999946724], [-119.2686290000731, 34.85734700025611], [-119.27512800033664, 34.85729900006758], [-119.27724499977958, 34.85728400004896], [-119.27724099958164, 34.857387999826784], [-119.27720600031984, 34.85796699974438], [-119.27669499995868, 34.867817999673754], [-119.27644999973629, 34.872319999989045], [-119.27643499966769, 34.8724809996502], [-119.27748599980401, 34.87248500009555], [-119.27792400037026, 34.87248600020688], [-119.27898700020215, 34.87249100002622], [-119.28349499962275, 34.87250799970445], [-119.28369499963931, 34.872508999815494], [-119.28488800006585, 34.87251399963339], [-119.28843300011202, 34.87252700033784], [-119.29006599985631, 34.872533000265385], [-119.29070299971585, 34.87253599986049], [-119.29201800034113, 34.87254600022976], [-119.29460099993942, 34.87254999993493], [-119.29627899988955, 34.872544000008624], [-119.29649599962451, 34.87254299989801], [-119.29743799998091, 34.872539000192496], [-119.2999700004239, 34.87252999993316], [-119.30148799964213, 34.87252500011618], [-119.31098399978072, 34.87248799969246], [-119.3121500004431, 34.872483999984276], [-119.32066499986722, 34.872522999894535], [-119.32654700036268, 34.87254999993493], [-119.32654700036268, 34.872533999639096], [-119.32822000028996, 34.872533999639096], [-119.33405099983347, 34.87253599986049], [-119.3353480000171, 34.87253699997118], [-119.33847299993867, 34.87253699997118], [-119.33876699966655, 34.87253800008187], [-119.33934599979976, 34.87253800008187], [-119.34046800008122, 34.87253800008187], [-119.34331699981828, 34.87253800008187], [-119.34398499963997, 34.872539000192496], [-119.34425300032686, 34.872539000192496], [-119.34440700031266, 34.872539000192496], [-119.34451500026769, 34.872539000192496], [-119.34733499969245, 34.872539000192496], [-119.34807299983434, 34.872539000192496], [-119.34833499977516, 34.872539000192496], [-119.34855099968523, 34.872539000192496], [-119.35165800006345, 34.87253800008187], [-119.35553199999758, 34.87253599986049], [-119.3555279997996, 34.873679999871875], [-119.36044500037247, 34.873677000318466], [-119.36509900028128, 34.87367500012484], [-119.37088499961897, 34.873784000289504], [-119.3735149999712, 34.87383299979585], [-119.37427200037966, 34.873847999744186], [-119.38185399966827, 34.8739899998072], [-119.38198599991274, 34.87911599980559], [-119.38199599995848, 34.879491000122876], [-119.38200099998134, 34.879684999794314], [-119.38206200008072, 34.879683999770634], [-119.38297599994968, 34.879651999741974], [-119.38300000023916, 34.88660999976757], [-119.38300100006406, 34.886965000350536], [-119.38301399958453, 34.88722100029453], [-119.38305399976751, 34.88802599984026], [-119.38307100038425, 34.888349999792226], [-119.38323700006562, 34.891613999816116], [-119.38339600007427, 34.89473700034699], [-119.38370499987076, 34.90081700022271], [-119.38393699967433, 34.90081799998921], [-119.38573199980036, 34.900831999666444], [-119.38704200040274, 34.900843000042684], [-119.38801200034824, 34.90084999987944], [-119.38922499996795, 34.900859999750466], [-119.39060900019021, 34.900846000078], [-119.39456299959198, 34.90089399989232], [-119.39586499979846, 34.90099399996788], [-119.39645900000032, 34.901040000168024], [-119.39677000034493, 34.90104099993187], [-119.39782899997887, 34.90093400008451], [-119.39989299971839, 34.90095900010262], [-119.40054100034689, 34.900966999694226], [-119.40205799974024, 34.90098599964214], [-119.40672599989276, 34.90099199970235], [-119.41970900035118, 34.901009000116055], [-119.4230979998634, 34.90103000031891], [-119.42870300034942, 34.90106800018113], [-119.43112699993904, 34.9010840000791], [-119.43345900036547, 34.90109900021089], [-119.43726800000225, 34.90112499994159], [-119.44235100025647, 34.90115699971214], [-119.4436910000978, 34.90117100006836], [-119.4436910000978, 34.89934899975561], [-119.44369500029578, 34.89592099975121], [-119.44369699994559, 34.894717999690336], [-119.44370000031864, 34.892069000036415], [-119.44370199996843, 34.88961600005941], [-119.44370399961826, 34.88722799981832], [-119.44370500034151, 34.88647199990126], [-119.44370500034151, 34.88626799986655], [-119.44370600016643, 34.885789999636586], [-119.44370600016643, 34.8856859996715], [-119.44370699999132, 34.88459899964862], [-119.44370799981621, 34.884262000061106], [-119.44370799981621, 34.88410699971245], [-119.44370899964115, 34.883351999800816], [-119.44371000036438, 34.88225799990931], [-119.44371200001419, 34.878196000367765], [-119.44372000041011, 34.87288500016302], [-119.44373200010567, 34.86234500028564], [-119.4437349995804, 34.859148000281664], [-119.44373600030364, 34.8582360000828], [-119.44373799995346, 34.85612000014219], [-119.44374100032651, 34.8531590002388], [-119.44374499962615, 34.849865000203614], [-119.4437470001743, 34.84790500023273], [-119.44374999964901, 34.845119000077375], [-119.44375100037225, 34.84375700029779], [-119.44375700022003, 34.83890100003681], [-119.44375800004495, 34.83750599984367], [-119.4437630000678, 34.833079000258145], [-119.44376700026578, 34.83008400020368], [-119.44376899991559, 34.82751400016686], [-119.44377099956543, 34.82613200016459], [-119.44377499976338, 34.822525000143614], [-119.44377800013643, 34.81954299996569], [-119.44377899996135, 34.81723399966108], [-119.44378099961116, 34.81649300026471], [-119.44378599963404, 34.81197399980485], [-119.44378700035725, 34.81077000029154], [-119.44378599963404, 34.80990399980987], [-119.44379099965691, 34.8072380003066], [-119.44379499985489, 34.80370099984887], [-119.44379700040301, 34.8018419999213], [-119.44379900005283, 34.80002799976654], [-119.44380300025081, 34.796399999949266], [-119.44380599972551, 34.792788000139666], [-119.44380700044876, 34.79150899973223], [-119.44380800027368, 34.79102599969355], [-119.44380900009857, 34.78980200016098], [-119.44380999992349, 34.78933000025175], [-119.4438119995733, 34.78769999998723], [-119.4438119995733, 34.78746200018171], [-119.4438119995733, 34.78731000019456], [-119.44381300029652, 34.786533999699714], [-119.44381400012144, 34.78589799997286], [-119.44381800031941, 34.78211799971949], [-119.44381900014433, 34.78116500008391], [-119.44382099979414, 34.77913299982702], [-119.44382199961905, 34.77850299999159], [-119.44382199961905, 34.77839799967426], [-119.44383099983989, 34.77045200020188], [-119.44383300038801, 34.768589000136], [-119.44383300038801, 34.76784599978868], [-119.44383300038801, 34.76440299998595], [-119.44383900023581, 34.762736999850915], [-119.44364699971688, 34.755247999910885], [-119.44358999981544, 34.752944000294534], [-119.44345199972318, 34.74761100033827], [-119.4433959996467, 34.74538900017232], [-119.443212000422, 34.73819999984052], [-119.44308500020038, 34.733263999804464], [-119.44303699962148, 34.7260250003385], [-119.44301400005527, 34.72223199980062], [-119.44294600028321, 34.711322999673754], [-119.44293799988729, 34.70990700002667], [-119.4428679995671, 34.69862899980642], [-119.44286500009237, 34.698125999741485], [-119.44284599982579, 34.695053999723264], [-119.44282400008447, 34.69148099976135], [-119.44277200020593, 34.68312899991273], [-119.44272899964993, 34.676019000248395], [-119.44266900027377, 34.666326000183474], [-119.44264800035738, 34.66291399993162], [-119.44260300015156, 34.65557900020914], [-119.44259300010579, 34.654163000166996], [-119.4425920002809, 34.65387999972958], [-119.44259099955767, 34.653719000282], [-119.44259099955767, 34.65368299974774], [-119.44257800003719, 34.65168799976559], [-119.4425579999457, 34.64845799980306], [-119.442551000273, 34.64727699971079], [-119.44253700002932, 34.64491799979715], [-119.44253399965626, 34.64450499966941], [-119.44246199968623, 34.63280499974234], [-119.44245599983847, 34.63182999977719], [-119.44245099981558, 34.63103499977336], [-119.44244800034083, 34.63062400016455], [-119.44244400014288, 34.629982999769666], [-119.44243699957188, 34.62876799966491], [-119.44243400009715, 34.62831500023906], [-119.44242400005139, 34.62673900031316], [-119.44238600041658, 34.62055900007389], [-119.44238300004355, 34.61995699986116], [-119.44237700019572, 34.61898400017893], [-119.4423539997312, 34.615356000236794], [-119.44235200008139, 34.61501999988091], [-119.44234899970833, 34.614547000357796], [-119.44234200003565, 34.612759999817754], [-119.44232600014209, 34.610849000304576], [-119.44231600009635, 34.609080000353465], [-119.44231400044654, 34.60887000031026], [-119.44230900042366, 34.608074999929734], [-119.44230000020285, 34.606599999847035], [-119.44229400035506, 34.60564600034406], [-119.44229299963183, 34.605481000343666], [-119.44228599995914, 34.60433000017355], [-119.44242200040158, 34.58957000035212], [-119.4424170003787, 34.58750400031424], [-119.44240499978483, 34.58246999991782], [-119.44240499978483, 34.58234499989817], [-119.44240499978483, 34.58220000032021], [-119.44240399995991, 34.5818690000961], [-119.4424020003101, 34.58123100025283], [-119.44238600041658, 34.57491800005925], [-119.4423749996476, 34.57053800004292], [-119.44236700014999, 34.5672220001172], [-119.4423539997312, 34.56168899993496], [-119.4423529999063, 34.56110100024553], [-119.44235100025647, 34.56041899970446], [-119.44233299981481, 34.553102999855795], [-119.44232600014209, 34.55004699983771], [-119.44231899957109, 34.54725799971516], [-119.44230699987554, 34.542459000303786], [-119.44227500008849, 34.52954599985378], [-119.44227000006562, 34.52771899967629], [-119.44225699964683, 34.522180999730395], [-119.4422559998219, 34.52194900032738], [-119.4422559998219, 34.52166500005101], [-119.44225400017208, 34.521227000207496], [-119.44225400017208, 34.52119499965549], [-119.44225400017208, 34.5211519999121], [-119.44225400017208, 34.52109099999705], [-119.44228500013422, 34.51460099985747], [-119.44230500022572, 34.51039400013737], [-119.44231199989841, 34.50895500024834], [-119.44232699996701, 34.50575800020661], [-119.44233199998988, 34.50475300036704], [-119.44233500036293, 34.504072000204324], [-119.44233799983768, 34.50398200026225], [-119.44233799983768, 34.50344999967272], [-119.4423400003858, 34.502889999786795], [-119.4423539997312, 34.49999199969633], [-119.4423539997312, 34.49995400027466], [-119.4423539997312, 34.49643200026679], [-119.4423539997312, 34.491117000166945], [-119.4423539997312, 34.49099199988258], [-119.4423539997312, 34.49094999965019], [-119.4423539997312, 34.489190000161145], [-119.4423539997312, 34.478292000253816], [-119.44227799956322, 34.465508999934244], [-119.44227400026358, 34.46493599966537], [-119.44226900024071, 34.46394900029039], [-119.44222900005772, 34.45707899979279], [-119.44222200038503, 34.45591000035346], [-119.44222999988264, 34.45579900021303], [-119.4422680004158, 34.45523099984097], [-119.4421910004229, 34.45467399985284], [-119.44213000032353, 34.45443800005526], [-119.44199300005617, 34.45424699976523], [-119.44195600024625, 34.453892999860415], [-119.44202400001834, 34.453701999805354], [-119.44207000004907, 34.453454000264884], [-119.44209299961528, 34.45314199998808], [-119.44204699958455, 34.45279399987111], [-119.4418950001469, 34.45254299983382], [-119.44174199998602, 34.452318000053424], [-119.44158200015244, 34.45186700013985], [-119.44161200028967, 34.45173000010596], [-119.44160499971866, 34.451612000204854], [-119.44168099988664, 34.45142100011823], [-119.44177999962083, 34.451309999937], [-119.44199399988109, 34.451223000172334], [-119.44233700001276, 34.45113899964944], [-119.44241300018075, 34.451078000363154], [-119.44245099981558, 34.45100499998086], [-119.44247400028013, 34.450916999871424], [-119.44249699984634, 34.45078399987527], [-119.44241300018075, 34.45037899989693], [-119.4424669997091, 34.45019600023921], [-119.44268000014443, 34.450024999893145], [-119.44290199990229, 34.44992199965001], [-119.44326000010258, 34.44973899973177], [-119.44329100006472, 34.44962400010827], [-119.44329100006472, 34.449525000286265], [-119.44322199956945, 34.449338000055356], [-119.44321400007182, 34.449311000292454], [-119.44303099977373, 34.44889199986267], [-119.44282499990939, 34.448639999896685], [-119.44275700013733, 34.44857500004671], [-119.44258100041024, 34.448490999823726], [-119.44230699987554, 34.448369000301895], [-119.44211600007984, 34.448301000065975], [-119.4418330002226, 34.44822399998265], [-119.44168099988664, 34.44813699996661], [-119.44159700022107, 34.44801800011293], [-119.44149000009092, 34.44791500035795], [-119.44147500002232, 34.447788999737014], [-119.44147500002232, 34.44730100018307], [-119.4414669996264, 34.44715199994392], [-119.44143700038748, 34.44692400023181], [-119.44133000025737, 34.44652299963449], [-119.44125400008939, 34.446366999659794], [-119.44122300012725, 34.446102999950625], [-119.4411999996627, 34.44569100035373], [-119.44123099962485, 34.44538300034192], [-119.44122300012725, 34.44528000030103], [-119.4411999996627, 34.445141999737906], [-119.44121499973133, 34.44506599980288], [-119.44124599969346, 34.44490599967458], [-119.4412769996556, 34.44478699966288], [-119.44131500018875, 34.44444799975243], [-119.44132199986144, 34.4443369999351], [-119.44129199972423, 34.44423400008618], [-119.4411999996627, 34.44414999994272], [-119.44103999982913, 34.44402900011679], [-119.44078000043645, 34.44387600026357], [-119.44044499980238, 34.44360500002952], [-119.44040700016755, 34.44352499971583], [-119.44038399970303, 34.44347499985127], [-119.44044499980238, 34.443203999798094], [-119.44052099997037, 34.44297599968199], [-119.44057399967383, 34.442723999648585], [-119.44057399967383, 34.44247600010832], [-119.44044499980238, 34.44209399994375], [-119.44041399984025, 34.4418420002133], [-119.44047499993961, 34.44172499981546], [-119.44056700000112, 34.44159499967517], [-119.44076500036785, 34.44135799982213], [-119.44112400039306, 34.44096199990849], [-119.44133000025737, 34.44059500026785], [-119.44135299982358, 34.44041199991937], [-119.44133000025737, 34.44012600018331], [-119.44138299996081, 34.439928000134564], [-119.44140600042535, 34.43979800016165], [-119.44152100005306, 34.43955000008546], [-119.44158200015244, 34.43923700030673], [-119.44174199998602, 34.438752999642475], [-119.44185599978881, 34.43862700001989], [-119.44216100028567, 34.43847399990522], [-119.44222300020992, 34.4384439998063], [-119.44238300004355, 34.438389999897474], [-119.44259599958053, 34.43834100010088], [-119.4427410002438, 34.438303000012105], [-119.44284099980291, 34.43823800026854], [-119.44289400040468, 34.43816899975596], [-119.44292399964361, 34.43805099996063], [-119.44308400037549, 34.43766999975391], [-119.44326000010258, 34.43727999980239], [-119.44332100020193, 34.437170000284794], [-119.44357300009702, 34.43685299969999], [-119.44367199983121, 34.43667000004653], [-119.44369500029578, 34.43642599963828], [-119.4436340001964, 34.43625099993002], [-119.4435499996325, 34.4360289998532], [-119.44361099973185, 34.435635999762894], [-119.44353499956387, 34.43532000024066], [-119.44341200043854, 34.434977000314184], [-119.44330600013332, 34.434784999758065], [-119.44326000010258, 34.43473600007029], [-119.44313000040623, 34.43447700029074], [-119.44313000040623, 34.4342590001116], [-119.44324500003395, 34.43414500015173], [-119.4435499996325, 34.43405299988876], [-119.44393100029731, 34.43399600015817], [-119.44426699985797, 34.43389000020495], [-119.44438200038402, 34.4337859998406], [-119.44448100011822, 34.433588000327966], [-119.4445570002862, 34.433302000203774], [-119.44459499992105, 34.43311499996386], [-119.4445420002176, 34.43296600035678], [-119.44443500008748, 34.432641999886485], [-119.44438200038402, 34.43256200018985], [-119.44407600006227, 34.43224099964611], [-119.44398499982569, 34.43190199995617], [-119.44407600006227, 34.43169599985102], [-119.44423699972073, 34.43154699993689], [-119.44460300031695, 34.43123800012868], [-119.44467199991395, 34.43110499992188], [-119.44473200018837, 34.43093300024314], [-119.44475499975458, 34.429926000216824], [-119.44471700011977, 34.42950999973968], [-119.4451830002751, 34.42928899982498], [-119.44530499957551, 34.42925100006577], [-119.44550299994222, 34.42925100006577], [-119.4456400002096, 34.42933900002781], [-119.44587700003603, 34.42952200017428], [-119.44614399999973, 34.42981099999454], [-119.44634200036646, 34.42993400021996], [-119.44654099965979, 34.42997499976091], [-119.44671599956196, 34.429960000039586], [-119.44690700025598, 34.42986899989445], [-119.44716599982374, 34.429701000278186], [-119.44745600025199, 34.429612999956234], [-119.44819600004368, 34.42952500028266], [-119.44831099967142, 34.42950600008837], [-119.44869999983385, 34.42946400003358], [-119.44925700022576, 34.429436999775476], [-119.4495619998243, 34.429472000080935], [-119.44997399955294, 34.429502999979306], [-119.45066099964117, 34.42970900030286], [-119.45070599984705, 34.42971199966356], [-119.45116399960645, 34.42979600024378], [-119.45153100002756, 34.42983000011949], [-119.45182099955747, 34.42978399984853], [-119.45211000016077, 34.42966999971222], [-119.45223999985713, 34.42952500028266], [-119.45242300015522, 34.4293619999184], [-119.4525610002475, 34.429277000097855], [-119.45285099977741, 34.429125000194524], [-119.45314100020565, 34.42894500004904], [-119.45324699961252, 34.42882699982561], [-119.45332399960542, 34.428750999869834], [-119.45342300023795, 34.42861000002234], [-119.45342999991064, 34.42847299963788], [-119.45342999991064, 34.42837299964818], [-119.4533920002758, 34.42822800019157], [-119.45333100017642, 34.42815600014825], [-119.4532240000463, 34.42809900010076], [-119.45289599998323, 34.427962000360736], [-119.45279700024903, 34.42789300025525], [-119.4526669996544, 34.42775900034937], [-119.45263700041548, 34.427622000052104], [-119.45263700041548, 34.42756799981911], [-119.4526669996544, 34.42749999969572], [-119.45282800021117, 34.42738499984058], [-119.45317100034285, 34.427233000201646], [-119.45342999991064, 34.427107000252406], [-119.45344599980416, 34.42702999990184], [-119.45342999991064, 34.42695399979415], [-119.4533849997048, 34.426828000165415], [-119.45328500014568, 34.42667199972678], [-119.45318600041149, 34.42648500021379], [-119.45317100034285, 34.426393999990424], [-119.45318600041149, 34.42627900009568], [-119.45325500000844, 34.426142000336775], [-119.45344599980416, 34.4258480002748], [-119.45355200010935, 34.425539000146145], [-119.45358999974418, 34.42531800010661], [-119.45360599963773, 34.425084999894864], [-119.45355999960697, 34.424788000283215], [-119.45346099987277, 34.424467000265], [-119.45328500014568, 34.42397500018549], [-119.45311799974108, 34.42347100035501], [-119.45300999978605, 34.42303299983443], [-119.45311699991616, 34.422815999810894], [-119.4534070003444, 34.4224909996442], [-119.45372000033886, 34.4222699996985], [-119.45378100043821, 34.42224300008084], [-119.45407099996814, 34.42211399964659], [-119.45446000013055, 34.42186199968898], [-119.45456700026067, 34.42174300020656], [-119.4545820003293, 34.42163300024791]]], [[[-119.48652100018155, 34.00000300028954], [-119.49228999980079, 33.983214999674786], [-119.48532299973212, 33.97772099985419], [-119.4726470003187, 33.97064699964954], [-119.46519099963018, 33.96742600018207], [-119.45447900039713, 33.96330799971659], [-119.44082200026925, 33.95893400028017], [-119.43296100042309, 33.955904999763646], [-119.42289100017415, 33.95411199988627], [-119.41699699998314, 33.95377099966095], [-119.41134399981654, 33.95541499992472], [-119.40292800012661, 33.95378500013631], [-119.3961760001431, 33.95386400006113], [-119.39337000006373, 33.95468600028449], [-119.38939700039539, 33.95327000034743], [-119.38466599959541, 33.953317999695535], [-119.38045600010061, 33.95361100034505], [-119.37716499959936, 33.95439099966384], [-119.37594699995678, 33.95490300021698], [-119.36975700038803, 33.956357000163386], [-119.36282899977911, 33.958761999686246], [-119.3566590003019, 33.9614899999036], [-119.35185600043017, 33.964454000250846], [-119.34154000013395, 33.96543000015182], [-119.33279399983282, 33.96772100030499], [-119.31844299994398, 33.97489900012575], [-119.31161499979248, 33.98002299974156], [-119.30408600020735, 33.986539000010104], [-119.29876799977649, 33.993447000187025], [-119.29645600033984, 33.996910999652016], [-119.29623799988167, 33.9972400000915], [-119.29647200023341, 34.000004999908626], [-119.29404699992054, 34.01108100024005], [-119.29311200013515, 34.020152000325574], [-119.29439800044813, 34.02750300002582], [-119.29764200019541, 34.036582999720885], [-119.30515300023723, 34.04744900004566], [-119.3120869997956, 34.05438800016672], [-119.32114600009118, 34.06061100027936], [-119.33092599991188, 34.065064000219806], [-119.34246200039884, 34.06896399996322], [-119.35638800014024, 34.07080799989251], [-119.36787699987322, 34.07041600029343], [-119.37594699995678, 34.0686659998927], [-119.38975399987247, 34.06603499983557], [-119.3970060003465, 34.06379200003067], [-119.40935200004705, 34.06678900010783], [-119.42372999970006, 34.067692000276594], [-119.43731800023099, 34.06771599963305], [-119.45126099969082, 34.06643500001418], [-119.46003600030427, 34.0647379997269], [-119.46784199989885, 34.06293100029412], [-119.46806399965668, 34.06313899972849], [-119.48652100018155, 34.00000300028954]]], [[[-119.63606800027443, 33.28071299979878], [-119.63630199972783, 33.27304000035189], [-119.63471900021227, 33.26544200000983], [-119.63284200007051, 33.25901899991322], [-119.63104500029466, 33.25549299999665], [-119.63153599966604, 33.25322399972363], [-119.63182400044444, 33.25002800033493], [-119.63162899955248, 33.2489069998227], [-119.63173700040582, 33.247491999875585], [-119.63128299994605, 33.244973999658185], [-119.6278280003116, 33.23694600035978], [-119.6259429997739, 33.23455199972907], [-119.62518799991358, 33.23247000000598], [-119.62355900036725, 33.23040699988807], [-119.621922000425, 33.22873700018909], [-119.62091999979417, 33.22786000023999], [-119.61991999971146, 33.2268259999176], [-119.61948899971622, 33.225011999672866], [-119.61823799956333, 33.22248200007939], [-119.61481399989104, 33.21725299992953], [-119.61147100040955, 33.21273299977686], [-119.60528199976743, 33.206919000058], [-119.60025899978768, 33.2032399999265], [-119.59395000039328, 33.198996000235375], [-119.5890870002471, 33.19673299986743], [-119.58725799978592, 33.19553099984474], [-119.58097100013283, 33.190185000024265], [-119.57831900003927, 33.188501999788066], [-119.57419200038515, 33.186483999941814], [-119.56932300039117, 33.18461500011184], [-119.56223699959853, 33.18247999996042], [-119.55494599966475, 33.18152199975307], [-119.55319300026986, 33.1812629998744], [-119.5515400004341, 33.180613000328385], [-119.55006599980015, 33.18027900026167], [-119.54676299960332, 33.17882100032811], [-119.54125599992491, 33.176470999741994], [-119.5322379996372, 33.17391600021685], [-119.52901099960836, 33.17324500028093], [-119.52670900021751, 33.172662999920234], [-119.52285799984959, 33.170884999917014], [-119.5168809998179, 33.16899799967933], [-119.51200099995324, 33.1677550000108], [-119.5102500002082, 33.167417000154025], [-119.50803099975967, 33.16738599993725], [-119.50093900001755, 33.16738800014564], [-119.49141799976462, 33.167012000024286], [-119.48944500026171, 33.16660100035275], [-119.47959000009789, 33.163914000293566], [-119.4787449998259, 33.163670000209756], [-119.47648600009272, 33.16349299965308], [-119.47525800040438, 33.163640000319006], [-119.47222800001903, 33.16440300006637], [-119.46835900010778, 33.16460600006751], [-119.44496700036503, 33.16526999981452], [-119.4337170001083, 33.16698700031706], [-119.39453599982781, 33.1808360001504], [-119.38614199987916, 33.186283000017646], [-119.38146500040415, 33.18947499963704], [-119.3789909996875, 33.190714000111946], [-119.37593699991102, 33.19218600034154], [-119.37386099957763, 33.19502599973005], [-119.37196400024267, 33.19762800001965], [-119.36845099998358, 33.20259600006969], [-119.36540100040506, 33.208512000199754], [-119.36244200016485, 33.21482099995479], [-119.36070200029043, 33.22145200026322], [-119.3601809998835, 33.228318999710496], [-119.36013300020294, 33.23487299979598], [-119.3609259996981, 33.2420600003286], [-119.36212499997242, 33.24522100002437], [-119.3647219998144, 33.25003000015811], [-119.3672269995949, 33.253400000090714], [-119.36908299982025, 33.25577800008912], [-119.37593799973591, 33.26323499993554], [-119.37593799973591, 33.26475600019446], [-119.37972999965429, 33.26763200031998], [-119.38521700013953, 33.27092400029746], [-119.39098300028404, 33.27437499970651], [-119.39990600013718, 33.28006699978614], [-119.4053919998992, 33.283512999864335], [-119.41336999992122, 33.2895090002717], [-119.42249699998885, 33.29623100023523], [-119.42593999992776, 33.29876599995785], [-119.4261769997542, 33.2989410000371], [-119.42816400039914, 33.30002900031997], [-119.42872000006786, 33.30033300010431], [-119.42999600033507, 33.30103099984785], [-119.44327299962305, 33.305741999711984], [-119.47130499992923, 33.31682799978468], [-119.49054400007859, 33.32513899978048], [-119.49512000016959, 33.32715399999252], [-119.50094099966736, 33.32910700025637], [-119.5085520001666, 33.33099699974828], [-119.51913799990125, 33.33370000034756], [-119.52531300029966, 33.33486200030754], [-119.52965300038909, 33.335216999993726], [-119.53418400027427, 33.33525900031759], [-119.53817000036139, 33.33481999979227], [-119.54354499979532, 33.33415899973786], [-119.54939600032866, 33.332790000280944], [-119.5546040002563, 33.33117800033215], [-119.5597229995972, 33.32932699968073], [-119.56493100042319, 33.32763699991114], [-119.569176999903, 33.328068999975635], [-119.5749070000625, 33.328277000327034], [-119.57833199955972, 33.32807100026288], [-119.58268400024306, 33.32779299968113], [-119.58815400011154, 33.32697099974359], [-119.59252000014025, 33.325822999737646], [-119.59922199989506, 33.32327599981157], [-119.60481899998516, 33.3204020000727], [-119.60929499961874, 33.31822900001894], [-119.61453100003381, 33.31479899990343], [-119.61846400041749, 33.31190899990444], [-119.62165299991317, 33.30925199982888], [-119.62594399959882, 33.30503599987226], [-119.62907600009142, 33.29933699990284], [-119.6338200004119, 33.28932199974604], [-119.63479500038025, 33.28595599985515], [-119.63606800027443, 33.28071299979878]]]]}, "properties": {"GEOID": "06111", "NAME": "Ventura County"}}]}