{"type": "FeatureCollection", "features": [{"type": "Feature", "geometry": {"type": "Polygon", "coordinates": [[[-122.5867879996139, 37.58998099985341], [-122.58710800017938, 37.5875489998291], [-122.58747200022744, 37.58476999979629], [-122.58817699985903, 37.5794080000458], [-122.58788200030628, 37.576423999687464], [-122.58760799977155, 37.57363600004613], [-122.5864539997031, 37.561913000140464], [-122.5837740000204, 37.55567599990691], [-122.5795629998024, 37.545874999917615], [-122.57783999964641, 37.528380000216245], [-122.57507600029818, 37.50106400030588], [-122.57496300032025, 37.499942999883736], [-122.57405500029905, 37.498508000225165], [-122.57341900026444, 37.493644000326135], [-122.57277700038202, 37.48918200034532], [-122.57095799996657, 37.48447200027662], [-122.57034600022139, 37.483349000065786], [-122.56885599969392, 37.48061200021441], [-122.56809499998579, 37.4792139997329], [-122.56387700009508, 37.47427299996986], [-122.56299300036333, 37.47337799971282], [-122.56080400005204, 37.471162000228105], [-122.55952399958687, 37.46986600003974], [-122.55296099974923, 37.46402600014313], [-122.54958700030562, 37.460537000025504], [-122.54699600031142, 37.45785700011797], [-122.53733799979112, 37.45073800034706], [-122.52759599960525, 37.44609599983463], [-122.51459200012874, 37.44251800022647], [-122.50988899981614, 37.44155399987351], [-122.50991599958033, 37.43998199983662], [-122.50997199965683, 37.436800000344405], [-122.50935099969081, 37.43140000013244], [-122.5084150000805, 37.42710200007252], [-122.50804099998669, 37.42468899969418], [-122.50773399984004, 37.422706000000154], [-122.50723400024785, 37.42118000008198], [-122.50589500023143, 37.41708999999757], [-122.5035429997135, 37.41190199974254], [-122.50308300030427, 37.411205999869196], [-122.50109200035969, 37.408192999932105], [-122.49667600010228, 37.401761000005834], [-122.48745399960006, 37.388327999996925], [-122.48410500027082, 37.382056000075124], [-122.48043100035324, 37.375173999803565], [-122.48036900042894, 37.37505799993664], [-122.48030699960636, 37.37494199989037], [-122.47436200026003, 37.36380799970741], [-122.47154899960967, 37.358537999839825], [-122.46700500020401, 37.34988899987494], [-122.46586899967888, 37.34123999969969], [-122.46887800014784, 37.32737800029777], [-122.47161200025717, 37.31478800024323], [-122.47224999994161, 37.31184799968122], [-122.47227300040616, 37.311742999882206], [-122.47231500023895, 37.311550999645874], [-122.47232299973656, 37.31151199995102], [-122.47291500028858, 37.308782000331334], [-122.47469500034597, 37.30059300023079], [-122.47528799982457, 37.29786399979988], [-122.47609399973852, 37.29415200022856], [-122.4817739996693, 37.271088000274965], [-122.4830830004468, 37.258899999889465], [-122.48404599982129, 37.24994399978459], [-122.48368199977321, 37.242081999835406], [-122.48314199999804, 37.234739999901464], [-122.48170300042251, 37.22914700012872], [-122.47907100042039, 37.22168200005889], [-122.47553800006982, 37.21610200030212], [-122.47223499987301, 37.212214000289045], [-122.47158299994484, 37.2073050003247], [-122.47051599991498, 37.20215599975016], [-122.46946099958069, 37.199439999996976], [-122.46850099968097, 37.195813000041376], [-122.46857199982608, 37.193480000171725], [-122.4680529999673, 37.187964000033865], [-122.46590999968676, 37.18185600020414], [-122.46411700010889, 37.17784800005527], [-122.4610340000201, 37.17331999966722], [-122.45864999971515, 37.16977900020579], [-122.45542600005936, 37.16660200006474], [-122.45335300009901, 37.16167799996529], [-122.45151299976717, 37.15824500017913], [-122.44563199999493, 37.15003700007646], [-122.44519799962669, 37.14966699971411], [-122.4393410001439, 37.14466400006361], [-122.42846699963081, 37.13775499993619], [-122.42134700029958, 37.13507700025485], [-122.41975700021302, 37.1318820001931], [-122.41774299980389, 37.1291560002311], [-122.4157490003846, 37.124946999798254], [-122.41336199970655, 37.12179100016369], [-122.40927799971016, 37.11774900008329], [-122.4050630001925, 37.11445500032555], [-122.40439500037081, 37.113932999998255], [-122.3969160001161, 37.10988799996002], [-122.39738599957101, 37.10703600010831], [-122.3968750001082, 37.102763999885546], [-122.39535799981653, 37.09374099992133], [-122.39312699967245, 37.087164000065016], [-122.38942099996781, 37.08097399966292], [-122.38631000028992, 37.07668099981716], [-122.38573899965431, 37.075893000164584], [-122.38170900008458, 37.07148100003991], [-122.3760860000552, 37.065647999997225], [-122.3696510002641, 37.06202000027531], [-122.36453000037507, 37.06009400003735], [-122.36000299978956, 37.05839299985099], [-122.34820799973483, 37.05567199985306], [-122.33641400040331, 37.05385799965333], [-122.32671400005023, 37.05385799965333], [-122.32354899994569, 37.05385799965333], [-122.3138989998213, 37.05476400006672], [-122.31099999985554, 37.063081999758296], [-122.30230700015616, 37.08803699976584], [-122.2994099998402, 37.09635599992462], [-122.29663399989803, 37.10113799985354], [-122.29488700035094, 37.104146000218286], [-122.29385899978084, 37.105920000273585], [-122.2938079997272, 37.10600800024149], [-122.29375800039683, 37.106094999978986], [-122.29295199958456, 37.10735200020181], [-122.29287999961453, 37.10742800004578], [-122.29280799964452, 37.10750399981348], [-122.29265700003178, 37.1076660001949], [-122.29258199968872, 37.10774700025568], [-122.29253200035832, 37.10779900003678], [-122.29234400003733, 37.108107999818095], [-122.2920870001194, 37.108529999959046], [-122.29174399998772, 37.10909300033955], [-122.28977599960933, 37.11277499983912], [-122.28938200032235, 37.1134720001216], [-122.2909480001195, 37.1158930000382], [-122.29102400028749, 37.11610600019356], [-122.2932369999899, 37.119457999838765], [-122.29325100023361, 37.11945400003193], [-122.29648999995803, 37.12438600032076], [-122.29754799976705, 37.12599599972712], [-122.29924400015884, 37.12849699974856], [-122.2995849997424, 37.12902200011852], [-122.30019700038588, 37.12996599981505], [-122.30055999971073, 37.130527000188046], [-122.3006159997872, 37.130613999685735], [-122.30067299968864, 37.13070099979957], [-122.30203400034468, 37.132800999911005], [-122.30258199961742, 37.133646000219876], [-122.30264799973969, 37.13374499973345], [-122.30326000038318, 37.13465400008489], [-122.30509899999178, 37.13738399992901], [-122.30571199956191, 37.138293999947756], [-122.30576000014078, 37.13836500029945], [-122.30582600026305, 37.13846299966681], [-122.30588200033954, 37.13854599983552], [-122.30590400008084, 37.13858000035288], [-122.30595199976143, 37.138652999832395], [-122.30662899980393, 37.139689000066966], [-122.30866199958132, 37.14279799978525], [-122.30928199972242, 37.14374600014199], [-122.30934100017197, 37.143835000168956], [-122.30949500015774, 37.14407000012294], [-122.30995999958982, 37.144776000233705], [-122.31011500029884, 37.14501199974236], [-122.31027199975938, 37.14525199982251], [-122.31074600031062, 37.14597199978981], [-122.3109050003193, 37.14621300000209], [-122.31103699966543, 37.14641399988299], [-122.3114359998736, 37.14702000009547], [-122.31156899994299, 37.14722200028066], [-122.31178200037833, 37.14754500011143], [-122.31243299958327, 37.151749000311646], [-122.31247500031438, 37.15201899974544], [-122.3127520003238, 37.15380899974401], [-122.31346600017625, 37.158418999755625], [-122.31456400016825, 37.16551300031323], [-122.31527499964764, 37.17010300030729], [-122.31528200021866, 37.17014500021874], [-122.31528899989135, 37.17017500014118], [-122.3153080001579, 37.17024899989901], [-122.3153130001808, 37.17026899982111], [-122.31534300031801, 37.17038999995272], [-122.31536099986135, 37.17046200022897], [-122.31536699970914, 37.170485000074116], [-122.31538199977776, 37.17054500035297], [-122.3155109996492, 37.17149200003084], [-122.31592499992597, 37.17451700002325], [-122.31606300001822, 37.175525999780795], [-122.31624600031634, 37.176868000034766], [-122.31679699996216, 37.180895000048174], [-122.31698100008518, 37.18223799995273], [-122.31699699997871, 37.18234600022454], [-122.31704100035964, 37.182643000354744], [-122.31706300010093, 37.18279499974552], [-122.3172220001096, 37.18386000033013], [-122.31728300020897, 37.18426599971822], [-122.31768200041715, 37.18694499976215], [-122.31404600013438, 37.1869129997908], [-122.30618199991518, 37.18684499998559], [-122.3018810001838, 37.18684499998559], [-122.29580200004484, 37.18679799973711], [-122.29501200002443, 37.18679300013536], [-122.28866799957159, 37.18674599985452], [-122.2885810004313, 37.186745000076606], [-122.28817399982718, 37.18681099970219], [-122.28669699971853, 37.18705100019663], [-122.28620499962393, 37.187131999726176], [-122.28606400005692, 37.18715500022172], [-122.28475799965247, 37.1873670003523], [-122.2842809996265, 37.18744500023706], [-122.2804159999132, 37.18804599977611], [-122.27896899994175, 37.1882719997394], [-122.2785510003653, 37.18833699970499], [-122.27751899959725, 37.18849699998733], [-122.2731719998351, 37.18917399977847], [-122.27172400003874, 37.18939999994418], [-122.26944500021408, 37.18975399964845], [-122.26888100014946, 37.189842999899305], [-122.26478100025953, 37.189842999899305], [-122.26253500004681, 37.189842999899305], [-122.26023000028289, 37.189842999899305], [-122.2579020000544, 37.189842999899305], [-122.25092099974205, 37.189842999899305], [-122.2485940002368, 37.18984400035185], [-122.24844100007591, 37.18984400035185], [-122.2479819995933, 37.18984400035185], [-122.24783000015566, 37.18984500008869], [-122.24777900010203, 37.18984500008869], [-122.24738400009181, 37.18985300013005], [-122.2460459999003, 37.189881999646545], [-122.24571199998945, 37.18988999968394], [-122.24560099966138, 37.18989499979631], [-122.24501200038073, 37.18992300027653], [-122.24409099994074, 37.189966000354794], [-122.24324800021685, 37.1900059997732], [-122.24265999986281, 37.190034999946576], [-122.24264499979421, 37.19055199966307], [-122.24259899976344, 37.192104999887434], [-122.24258500041805, 37.19262300015873], [-122.24258200004502, 37.19268899965627], [-122.24257899967196, 37.19280400004156], [-122.24257899967196, 37.19285399993664], [-122.24257899967196, 37.19288699994946], [-122.24258000039518, 37.19295400034313], [-122.24258000039518, 37.193037000086136], [-122.24258200004502, 37.19321000000727], [-122.24258299986991, 37.19328899998835], [-122.24258399969483, 37.19337299976883], [-122.24259700011362, 37.19458900033232], [-122.2426380001215, 37.198236999717075], [-122.24265300019013, 37.19945299993216], [-122.24265499983994, 37.199626000177595], [-122.24265999986281, 37.200035999788206], [-122.24265900003792, 37.20014499996611], [-122.24265900003792, 37.200318999654876], [-122.24270199969561, 37.20244199968037], [-122.24274600007654, 37.204565000094156], [-122.2427489995513, 37.204738000070904], [-122.24275100009943, 37.2048370002225], [-122.24262399987781, 37.20700399970692], [-122.24258399969483, 37.20769700012799], [-122.24267499993142, 37.21060599979793], [-122.2426790001294, 37.21074799980953], [-122.24257700002212, 37.212088999996], [-122.24257899967196, 37.21340799973766], [-122.2425739996491, 37.215048000112155], [-122.24257299982418, 37.215134000236894], [-122.24247300026506, 37.215133000119515], [-122.24045800003103, 37.215110999680725], [-122.2399769998071, 37.215116000268786], [-122.23779099986885, 37.21513900010802], [-122.23759599987518, 37.215141000342506], [-122.23599699956777, 37.215136999873444], [-122.23574200019797, 37.215129999767406], [-122.23528899956312, 37.21512000002361], [-122.235076999851, 37.215122000258646], [-122.23486500013891, 37.21512399977823], [-122.23475600035894, 37.21512399977823], [-122.23345800035041, 37.21523399974285], [-122.23213199985447, 37.215196999733635], [-122.23174000021731, 37.21518499976541], [-122.23129099978043, 37.215172999795286], [-122.23086300015825, 37.215196999733635], [-122.22613200025656, 37.21532899997346], [-122.22595499980623, 37.21533100020295], [-122.22593200024002, 37.21533100020295], [-122.22586500029288, 37.21533200031766], [-122.22584299965325, 37.21533200031766], [-122.225495000397, 37.21528899966499], [-122.22445099993338, 37.2151619999402], [-122.22410399960373, 37.21512000002361], [-122.22393600027259, 37.215141999744375], [-122.2234319995841, 37.21521099993257], [-122.22326500007782, 37.21523399974285], [-122.2231499995518, 37.21522500012897], [-122.22280599959521, 37.21519799985011], [-122.22269199979239, 37.21519000034857], [-122.22265900018043, 37.215182000130724], [-122.222530000309, 37.21517799966383], [-122.22249000012603, 37.21517500002886], [-122.22235899970647, 37.21516500029103], [-122.2214459996624, 37.21509600006077], [-122.22032199973113, 37.21506899973575], [-122.2202210003471, 37.21507599984744], [-122.21992900026905, 37.21508699971501], [-122.21955600000015, 37.215136999873444], [-122.21917900043158, 37.21518699999867], [-122.21877799967528, 37.215244000186935], [-122.21787899987493, 37.215141999744375], [-122.2173779995595, 37.21514399997883], [-122.21726299993178, 37.215154999836486], [-122.217072999961, 37.21517199967842], [-122.21682799973858, 37.21519400009942], [-122.21668399979855, 37.215207000182616], [-122.21651100044448, 37.21522299989666], [-122.21648299995712, 37.21522500012897], [-122.21640099994133, 37.21523200022619], [-122.21637400017715, 37.21523499985884], [-122.21627799991768, 37.215244000186935], [-122.2161470003964, 37.21524099983924], [-122.21546600015596, 37.215228999878015], [-122.21523900037523, 37.215226000245075], [-122.2136459999156, 37.215228999878015], [-122.20886899998314, 37.21523999972328], [-122.20808099961256, 37.21524199995514], [-122.20727700024676, 37.215244000186935], [-122.2049449998203, 37.215244000186935], [-122.19795000016255, 37.215244000186935], [-122.19561899956105, 37.215244000186935], [-122.19359800037755, 37.215244000186935], [-122.19276999982397, 37.215244000186935], [-122.19157700029572, 37.215244000186935], [-122.18647599959988, 37.215244000186935], [-122.18422400043768, 37.215244000186935], [-122.18137599962722, 37.215244000186935], [-122.18130100018247, 37.21525999989313], [-122.1810779997014, 37.215268000102704], [-122.18100400008156, 37.21527400008042], [-122.18098200034024, 37.21526400035572], [-122.18096800009656, 37.21526400035572], [-122.1809439998071, 37.215263000240114], [-122.18092799991358, 37.215261000008816], [-122.18041499990257, 37.2152810001731], [-122.17851799966935, 37.215226000245075], [-122.17609900010257, 37.215269000218235], [-122.17545399984712, 37.2152810001731], [-122.17529200036371, 37.215277999826874], [-122.17492499994262, 37.21525500003001], [-122.1747130002305, 37.21524199995514], [-122.17382399957756, 37.21518699999867], [-122.17345799987969, 37.21516500029103], [-122.17284899960923, 37.21519000034857], [-122.17275300024806, 37.21519400009942], [-122.17147500033101, 37.21524900005078], [-122.16488300018106, 37.215344999661625], [-122.16479299976938, 37.215344999661625], [-122.16049399968783, 37.2154089998113], [-122.15933399977155, 37.2154260003114], [-122.15817499968018, 37.2154440002055], [-122.15734399965189, 37.2154440002055], [-122.15687500002183, 37.2154440002055], [-122.15547099970809, 37.2154440002055], [-122.15508800029174, 37.2154440002055], [-122.15500299990295, 37.2154440002055], [-122.15497600013873, 37.2154440002055], [-122.15490499999365, 37.2154440002055], [-122.15486999983355, 37.2154440002055], [-122.15432300038569, 37.2154440002055], [-122.15277400030698, 37.2154440002055], [-122.15278500017763, 37.21553499972365], [-122.15285200012477, 37.21606800031814], [-122.15285299994969, 37.216077999936275], [-122.15285700014766, 37.21610200030212], [-122.15287399986609, 37.21624399998538], [-122.15287399986609, 37.21686500035159], [-122.15287300004118, 37.21923099986454], [-122.15287399986609, 37.22001999968169], [-122.15287399986609, 37.22004400022404], [-122.15287899988898, 37.22014999996485], [-122.15291400004907, 37.22100900011667], [-122.15297400032351, 37.22244400015841], [-122.15258900035906, 37.22392800013269], [-122.15239099999233, 37.22469699964921], [-122.15234199958854, 37.2248869997607], [-122.15227499964138, 37.225143999823786], [-122.15220000019661, 37.225474999730814], [-122.15180000016353, 37.22724699968379], [-122.15166799991907, 37.227837999696824], [-122.15166299989617, 37.22787899973647], [-122.15165000037572, 37.228001999721755], [-122.15164700000268, 37.228044000333725], [-122.15160599999479, 37.228439000210095], [-122.15148299997114, 37.22962700007475], [-122.15145000035916, 37.22995200009146], [-122.15145700003185, 37.230023000161786], [-122.15150700026057, 37.230725000049084], [-122.15166000042147, 37.2328319997162], [-122.15171099957676, 37.23353499978688], [-122.15180099998845, 37.23480499990032], [-122.15207299997502, 37.2386180000242], [-122.15215599981569, 37.23976900030002], [-122.15217500008227, 37.239888000326424], [-122.15221100006727, 37.240112999736645], [-122.15231599964925, 37.24077300013929], [-122.15233400009092, 37.24088500014983], [-122.15234699961141, 37.24102500010772], [-122.15260199987954, 37.24372099984033], [-122.15263299984167, 37.244034999950145], [-122.15263700003962, 37.2443209998728], [-122.15267399984954, 37.24714200001866], [-122.15267499967446, 37.247239999889494], [-122.15266899982667, 37.24756899995387], [-122.15265200010825, 37.248587999685185], [-122.15265299993317, 37.248878000315], [-122.1526560003062, 37.249627000288946], [-122.15264899973519, 37.24965999978433], [-122.15263899968946, 37.25099300027539], [-122.1526079997273, 37.25521199968023], [-122.15257699976517, 37.25943100018685], [-122.15257599994024, 37.25971700029993], [-122.15257400029043, 37.26000199980485], [-122.15247499965793, 37.27184300007433], [-122.15247499965793, 37.27190000031992], [-122.15247499965793, 37.27299499970756], [-122.15247499965793, 37.28147400012589], [-122.15247499965793, 37.28196100018532], [-122.15244600024393, 37.282778999777115], [-122.15237199972576, 37.284847999803375], [-122.15234199958854, 37.2852369998487], [-122.15227800001443, 37.28605500028296], [-122.15234999998444, 37.286499999831484], [-122.15240400041112, 37.28690500013654], [-122.15242600015242, 37.28706900026121], [-122.15250999981801, 37.287690000335346], [-122.15255599984877, 37.28810099985168], [-122.15257000009248, 37.288220000003726], [-122.15269999978881, 37.28864000033938], [-122.1527900002005, 37.28884999998538], [-122.15293999998832, 37.28913999996236], [-122.15309999982189, 37.28938000005919], [-122.15327999974696, 37.28959999965411], [-122.15339000025013, 37.289710000282334], [-122.15354099986287, 37.28983300011218], [-122.15355000008371, 37.28983999971297], [-122.15374000005448, 37.28997900032903], [-122.1538100003747, 37.29002999996109], [-122.1541199999961, 37.290230000230544], [-122.15438100011201, 37.29042299970782], [-122.15589000000773, 37.29140500018882], [-122.1560840001765, 37.29156099982338], [-122.15621399987283, 37.29164500020728], [-122.15623399996433, 37.29181200016446], [-122.15812500034978, 37.292639000249274], [-122.15826400026695, 37.292693000345615], [-122.15857300006344, 37.292821000022194], [-122.160127000165, 37.29334600030871], [-122.16027000028015, 37.29339299991339], [-122.16030799991499, 37.29337899994294], [-122.16050999958135, 37.29329299976131], [-122.16060800038896, 37.29311900022333], [-122.16119300036995, 37.29300099975724], [-122.16128600025638, 37.293099999785305], [-122.16141699977763, 37.293238000299986], [-122.16146000033366, 37.29327700018205], [-122.16148899974766, 37.29329400027089], [-122.16168200009152, 37.293444000089806], [-122.16171800007652, 37.29347299979634], [-122.16175499988644, 37.29351300006325], [-122.16188499958277, 37.29361699980014], [-122.16204199994162, 37.29386399984962], [-122.16216099976728, 37.29387099978999], [-122.16285399970334, 37.29391300013334], [-122.16297699972701, 37.29392300014358], [-122.16302500030588, 37.29392399993013], [-122.16300799968914, 37.29373199993273], [-122.16353900014178, 37.293954999738624], [-122.16370399999825, 37.29401300017586], [-122.1640399995589, 37.29408099984302], [-122.16413199962041, 37.29416200020703], [-122.1642220000321, 37.29424100020455], [-122.16435900029943, 37.294394000334734], [-122.16466300007305, 37.2944790001932], [-122.16564100041444, 37.29486399994678], [-122.1656599997827, 37.29486499972082], [-122.16571699968412, 37.294870000020126], [-122.1657369997756, 37.294872000282695], [-122.16632199975662, 37.29504800031183], [-122.16683800014063, 37.2952369997871], [-122.16582200016443, 37.295781000129644], [-122.16574799964626, 37.29585600009822], [-122.16565599958476, 37.295942000208306], [-122.16542700015421, 37.296161000152686], [-122.16539600019208, 37.29621900031833], [-122.16536299968179, 37.29629500031981], [-122.16534400031352, 37.29633300029179], [-122.16525999974962, 37.29648899971222], [-122.1652639999476, 37.29657000034184], [-122.16530499995547, 37.29726700033798], [-122.16529599973462, 37.297373999823975], [-122.16527499981825, 37.29764199988544], [-122.1651379995509, 37.29799199996779], [-122.16483200012746, 37.298267000217095], [-122.16478799974654, 37.29829300030814], [-122.16429800020005, 37.29859499988309], [-122.16403899973398, 37.29883900014474], [-122.16390200036494, 37.29922000015644], [-122.1637790003413, 37.29948699964467], [-122.16335199964571, 37.300127999920996], [-122.16326799998014, 37.30020799978717], [-122.16295499998569, 37.300510000247975], [-122.16272700038006, 37.30073099986171], [-122.16277500006062, 37.300803000096835], [-122.1627230001821, 37.30085299984243], [-122.16267200012845, 37.30090399996309], [-122.16280900039581, 37.30094100005704], [-122.16287899981768, 37.30095999994369], [-122.16323399964494, 37.301050999823204], [-122.16335199964571, 37.30108200026746], [-122.16362700000533, 37.30125699965421], [-122.16362700000533, 37.301479000331916], [-122.16353499994383, 37.30166199983779], [-122.16335900021674, 37.30180799996371], [-122.16316900024594, 37.301966999930215], [-122.16307499963628, 37.30204200016173], [-122.1628239995661, 37.302338999886715], [-122.16280299964973, 37.302364000324914], [-122.1626660002807, 37.3027370001308], [-122.1626660002807, 37.30304299981621], [-122.16260500018132, 37.303293999716814], [-122.16250899992184, 37.30343800021255], [-122.16237500002754, 37.30364199990689], [-122.16231200027835, 37.303772000271074], [-122.16223699993529, 37.30392399993914], [-122.16217699966082, 37.30404999977901], [-122.16207000042901, 37.30423300017424], [-122.16218699970658, 37.30433599973222], [-122.16226899972231, 37.30440800008875], [-122.1623299998217, 37.30441299975366], [-122.16239699976886, 37.3044180001328], [-122.16260000015842, 37.30443499984739], [-122.1626679999305, 37.30444099987182], [-122.16287200014503, 37.3045399998487], [-122.16350200033186, 37.30467299973524], [-122.16388300009837, 37.30485099969342], [-122.16425700019218, 37.305170999987716], [-122.16431099972056, 37.30521699971268], [-122.16469200038537, 37.30548400006127], [-122.16496699984665, 37.30553000030925], [-122.16559200001065, 37.30550799982138], [-122.1661719999688, 37.30542500026119], [-122.16658399969742, 37.305616999707226], [-122.16702700028651, 37.306204000250176], [-122.1672850000294, 37.30672300017435], [-122.16754299977224, 37.30710499987026], [-122.16786400016262, 37.30743399989711], [-122.16822999986051, 37.30780700027781], [-122.16828799958684, 37.30791700000426], [-122.16861099962702, 37.30851900006059], [-122.16882400006236, 37.30905299993869], [-122.16876700016093, 37.309548000311985], [-122.16877800003158, 37.309580999982806], [-122.16888599998664, 37.30998500006203], [-122.16919200030839, 37.31028999997835], [-122.16955899983117, 37.310524999784384], [-122.17009399958347, 37.3108990001105], [-122.17047500024832, 37.311234000166], [-122.17059700044703, 37.31149299987252], [-122.17059800027195, 37.31173699972596], [-122.17081199963387, 37.31198199976295], [-122.17117800023007, 37.31211800012416], [-122.17146899958492, 37.31217900019049], [-122.17207899968027, 37.312246999866424], [-122.173010000166, 37.31243500016343], [-122.17377300042224, 37.312639999993216], [-122.17427499966428, 37.31274199993029], [-122.17435199965715, 37.31275200029492], [-122.1744680000081, 37.31276999980475], [-122.17540500034163, 37.312801999954715], [-122.17570200044257, 37.312763999730464], [-122.17581700007028, 37.31274900025712], [-122.17668300025869, 37.312571999958294], [-122.17702999969, 37.312500999814155], [-122.17761999969386, 37.312380999951436], [-122.17838299995013, 37.31200699985306], [-122.17896299990828, 37.31175500019328], [-122.17971100009588, 37.311313000093826], [-122.18033600025987, 37.31065700023801], [-122.18073299991991, 37.310138000317615], [-122.18115999971717, 37.30979500020322], [-122.1817549997439, 37.3095659998744], [-122.18231999963344, 37.30952800015801], [-122.18319000001982, 37.30979500020322], [-122.18384600014592, 37.310038999851564], [-122.1845630003714, 37.3105270003451], [-122.18514300032955, 37.31109200014131], [-122.18557000012682, 37.311669999853876], [-122.18573699963308, 37.31206000007376], [-122.18579899955735, 37.31220400021508], [-122.18587600044857, 37.312540999963986], [-122.18587499972533, 37.31282199995221], [-122.18587600044857, 37.312837000125455], [-122.18588800014412, 37.312973999902205], [-122.18588999979396, 37.31299800012945], [-122.1860129998176, 37.3131960002828], [-122.18628700035228, 37.31344000032462], [-122.18634000005574, 37.31355800016032], [-122.18639399958411, 37.31367700004923], [-122.18634799955336, 37.31383700016128], [-122.18630599972057, 37.31388600029271], [-122.18626200023795, 37.313940000138054], [-122.18619100009283, 37.31404100022107], [-122.18615500010783, 37.31409399972224], [-122.1860909996354, 37.314254999891965], [-122.18605800002345, 37.31434099968154], [-122.18616500015357, 37.31463099997481], [-122.18621799985699, 37.31473700025117], [-122.18629599967481, 37.31489300007596], [-122.18633300038304, 37.31496599983245], [-122.18637900041382, 37.315271999762665], [-122.1865969999737, 37.31554799990605], [-122.18691300034119, 37.31568300003421], [-122.1872940001077, 37.315775000167875], [-122.18764499973699, 37.31591999983155], [-122.18857200002476, 37.3165440002278], [-122.18918999961772, 37.3169600002337], [-122.18926800033384, 37.31703300012609], [-122.18940300005303, 37.317162000007215], [-122.18950199978728, 37.31725499995037], [-122.18957999960504, 37.31732999993589], [-122.18965499994813, 37.31739399991202], [-122.18985999998755, 37.31757000010115], [-122.18988099990393, 37.317585000041404], [-122.18996299991969, 37.317641999929876], [-122.18999600042997, 37.31766499991021], [-122.19009699981399, 37.31773600017795], [-122.1901310001492, 37.317760000313626], [-122.19023699955609, 37.31778899993159], [-122.19048299960338, 37.31785799971657], [-122.19056100031949, 37.31786100026491], [-122.19067199974928, 37.31786699993236], [-122.1913210002027, 37.31789600022342], [-122.19164300041798, 37.317911000098604], [-122.19266500024199, 37.318010000199884], [-122.19306199990201, 37.31827700012601], [-122.1929880002822, 37.31837599974515], [-122.19278700044073, 37.31865099974953], [-122.19251299990603, 37.31879500012456], [-122.19216200027674, 37.319093999734385], [-122.19135299998976, 37.31948299985476], [-122.19052899963414, 37.31993300030872], [-122.18985999998755, 37.32035000028162], [-122.18971900042055, 37.32043699967586], [-122.18876000034572, 37.320915999973096], [-122.18873600005628, 37.32092200011103], [-122.18734000013846, 37.32153499965785], [-122.18651599978283, 37.32203100012294], [-122.18611900012283, 37.32248899986344], [-122.18577599999114, 37.32314100031268], [-122.18545799997382, 37.32373699998611], [-122.18543299985946, 37.32378600009293], [-122.18529200029248, 37.32400699987174], [-122.18502100013082, 37.32443400033786], [-122.18478000010639, 37.32480800003931], [-122.18460900040219, 37.325075000102714], [-122.18450300009694, 37.32522400002264], [-122.18418699972948, 37.3256739996748], [-122.18408299997239, 37.32582399991246], [-122.1836820001144, 37.32639500015394], [-122.18303799968383, 37.327314000251775], [-122.18220800037878, 37.32680999985971], [-122.18161199962879, 37.326449000298744], [-122.18178400005624, 37.326471999726905], [-122.18227600015084, 37.32654100011212], [-122.18230000044028, 37.32653300028809], [-122.18246600012164, 37.32648000027172], [-122.18232499965632, 37.326449000298744], [-122.18190299988191, 37.32635699965842], [-122.18187000026997, 37.32634999988459], [-122.1817749998354, 37.32629599966864], [-122.18160800032915, 37.32619999998266], [-122.18148199993243, 37.326128999853225], [-122.18123699971005, 37.32596900019092], [-122.18114700019667, 37.326021999853374], [-122.18111500040965, 37.3260309998058], [-122.18093100028663, 37.3260860002855], [-122.18083900022512, 37.326112000043686], [-122.18056399986553, 37.32619300019421], [-122.18047299962892, 37.32621999998685], [-122.18022900012974, 37.326308999869674], [-122.17963099972995, 37.326527999951225], [-122.17954600023945, 37.326414000037346], [-122.17939100042875, 37.32620699977041], [-122.1793679999642, 37.326204000269634], [-122.17930199984198, 37.32619699976726], [-122.17928000010066, 37.32619500033793], [-122.17925099978835, 37.326155000310834], [-122.17916700012276, 37.32603500010182], [-122.17913899963537, 37.325996000064045], [-122.17874199997534, 37.32543399967182], [-122.17861599957862, 37.32525599987105], [-122.17854600015674, 37.32515800011376], [-122.17684599956699, 37.32543799999963], [-122.17616900042279, 37.32555099988513], [-122.17594900031476, 37.32558599983416], [-122.17565399986364, 37.32563500016401], [-122.17529300018865, 37.32570099965398], [-122.17507499973041, 37.32574099992271], [-122.17589999991097, 37.32654899993525], [-122.17837799992726, 37.32897400002037], [-122.17920499975759, 37.32978300029161], [-122.17972799981433, 37.330184000309295], [-122.18000999984665, 37.33039000031811], [-122.1804500000627, 37.33071099977116], [-122.18064300040653, 37.330831999665186], [-122.18075999968408, 37.330948000035924], [-122.18108299972427, 37.33137100033222], [-122.1813379999924, 37.331760999756554], [-122.181605999781, 37.33211800025141], [-122.18187399956959, 37.332299000196315], [-122.1821630001729, 37.33243900017818], [-122.18227299977778, 37.33249200027672], [-122.1824929998858, 37.33263999978784], [-122.18272300003957, 37.332857000020624], [-122.1828440004134, 37.33297000017677], [-122.18292899990388, 37.33308200018271], [-122.18304400042994, 37.33323299989455], [-122.1830639996231, 37.33330499971651], [-122.18315700040785, 37.333437000163194], [-122.18329799997485, 37.33363500004124], [-122.1833669995718, 37.33379899968933], [-122.1834150001507, 37.33386499986478], [-122.18344299973978, 37.33397500002833], [-122.18358699967982, 37.334228000150354], [-122.18362900041096, 37.33432700018354], [-122.18380000011518, 37.33453100033828], [-122.18381400035886, 37.33454699971078], [-122.18388299995584, 37.33468999966511], [-122.18407799994952, 37.33484199967271], [-122.18422699991243, 37.33495900023496], [-122.18437199967738, 37.33529400018998], [-122.18471599963398, 37.33565100032262], [-122.18523200001799, 37.33645900018093], [-122.18523200001799, 37.33650300017474], [-122.18546600036974, 37.33689799974382], [-122.18549999980662, 37.337003000111544], [-122.18555699970801, 37.33711100011219], [-122.18561000030978, 37.33721199976721], [-122.18577500016622, 37.33761799972589], [-122.1858580000069, 37.33845300024726], [-122.18595400026639, 37.33870100004428], [-122.1865250000037, 37.339112999924254], [-122.1867529996093, 37.33920599984109], [-122.18706899997682, 37.33943100026939], [-122.18728200041214, 37.339645999667894], [-122.18770900020938, 37.33998100014506], [-122.18783300005795, 37.34004099984886], [-122.18833500019831, 37.340388000016766], [-122.18933299973284, 37.34115099965012], [-122.18962900000886, 37.34139799995319], [-122.18976700010111, 37.34149699982058], [-122.190104000385, 37.341821999831225], [-122.19029000015786, 37.34197000024237], [-122.19041999985419, 37.34216799976692], [-122.19083999997875, 37.34264600022618], [-122.19091600014676, 37.342793999727576], [-122.19096600037547, 37.34286800008311], [-122.19119800017906, 37.34321199979388], [-122.19140400004336, 37.34347500007315], [-122.19145900029497, 37.34349200023875], [-122.19188600009221, 37.3437829999977], [-122.19201699961349, 37.343914999884724], [-122.19244400030905, 37.344194999850735], [-122.19302300044228, 37.34463300007565], [-122.19350399976791, 37.34499700027537], [-122.1935409995778, 37.34503000009241], [-122.19363400036255, 37.34511300019582], [-122.1938550002955, 37.34538699965347], [-122.19416400009196, 37.34566799965651], [-122.19427399969683, 37.34586500033288], [-122.19435700043584, 37.34598600009691], [-122.19448100028438, 37.346123999949796], [-122.19454300020865, 37.34623400001317], [-122.1947289999815, 37.34642600019204], [-122.19480400032457, 37.34651499970304], [-122.19487299992157, 37.346595999992736], [-122.19494900008952, 37.346727999933776], [-122.19521000020544, 37.34702500020241], [-122.19527200012973, 37.34725499972828], [-122.19547200014627, 37.34759100032773], [-122.19564399967538, 37.34777200012098], [-122.19577500009497, 37.34795300019203], [-122.19585299991277, 37.34813600010041], [-122.19586399978343, 37.348162000082425], [-122.19589899994351, 37.34829899972903], [-122.19587100035443, 37.349343000209444], [-122.1959809999593, 37.3495959999792], [-122.19592599970773, 37.34989300032866], [-122.19583000034656, 37.350101999817426], [-122.19580900043013, 37.35020599982453], [-122.19580299968406, 37.35057999975818], [-122.19587100035443, 37.350848999828244], [-122.19606399979995, 37.35131000019169], [-122.19618099997582, 37.35145900020416], [-122.19651800025974, 37.35173500024629], [-122.19669599963662, 37.35187999978166], [-122.19697299964609, 37.352107000249966], [-122.19713099982981, 37.35220600028018], [-122.19724100033301, 37.35233800035536], [-122.19736900037951, 37.35267000003773], [-122.19746100044102, 37.35290899971096], [-122.19770900013812, 37.35325499997226], [-122.19793000007108, 37.35371099988671], [-122.19799799984314, 37.35379900034059], [-122.19801899975954, 37.35395899999266], [-122.19808099968382, 37.354123000246105], [-122.1982050004307, 37.35427199967371], [-122.19841799996769, 37.354398000080316], [-122.19861299996137, 37.35461399987723], [-122.19877600016798, 37.35479400018527], [-122.19905200035252, 37.355019000320326], [-122.19928599980591, 37.35526100013809], [-122.19962300008983, 37.35539299983966], [-122.19971199977829, 37.35545900031745], [-122.19984300019784, 37.35561800032138], [-122.20001499972697, 37.355898000201115], [-122.20044900009523, 37.356733000245505], [-122.20100700031209, 37.35748100033312], [-122.20107599990905, 37.35760700035121], [-122.20133700002496, 37.357837999954015], [-122.20148900036092, 37.35804599981027], [-122.20183300031752, 37.358820999877445], [-122.20201200041767, 37.359260999721506], [-122.20223900019836, 37.35968900004822], [-122.20226000011479, 37.359738999890446], [-122.20237700029064, 37.35996899973531], [-122.20246699980402, 37.360272000308306], [-122.20247100000196, 37.360377999739214], [-122.20248699989548, 37.36077199977361], [-122.2024319996439, 37.36094700012036], [-122.20242499997123, 37.36155199968468], [-122.2025220000556, 37.36185399998125], [-122.20254899981978, 37.36250200025145], [-122.20259099965257, 37.36272000017309], [-122.20265299957684, 37.36304600000094], [-122.20259800022357, 37.363217000299244], [-122.20226699978747, 37.36382099984145], [-122.20223300035057, 37.36394699992502], [-122.2022400000233, 37.36409000029625], [-122.20228799970387, 37.3642500001439], [-122.20229399955166, 37.36442000027758], [-122.20229500027487, 37.364430999752194], [-122.2022120004342, 37.36464500011429], [-122.20210199993105, 37.36478799986924], [-122.20188900039402, 37.365001999927166], [-122.20163400012588, 37.36538699972568], [-122.20149000018584, 37.36578299968107], [-122.20147599994213, 37.365920000010185], [-122.20144199960697, 37.366041000290835], [-122.20142099969054, 37.36650200016233], [-122.2013320000021, 37.3667609999733], [-122.20131799975837, 37.3670130000505], [-122.20146900026944, 37.367392999767624], [-122.20149000018584, 37.36748600035216], [-122.20154500043742, 37.36758500008773], [-122.20158600044532, 37.36778299988093], [-122.20159999979069, 37.368008000342165], [-122.20156600035385, 37.36815100011331], [-122.20147599994213, 37.368233000128704], [-122.20136600033727, 37.36850799966533], [-122.20120800015353, 37.36939299988662], [-122.20123599974264, 37.36945799997937], [-122.20123599974264, 37.369968999724556], [-122.2012700000778, 37.370404000326225], [-122.20120099958253, 37.3708049997478], [-122.20111199989405, 37.37105699980612], [-122.20105699964249, 37.37115599982695], [-122.20100700031209, 37.37121500013053], [-122.20094000036494, 37.371293999811016], [-122.20082999986177, 37.371507999873955], [-122.20080700029553, 37.371589000322345], [-122.2007060000132, 37.37196400025364], [-122.20064400008893, 37.37207400028723], [-122.20047199966145, 37.372233000070125], [-122.2001279997049, 37.37242000000311], [-122.2000309996205, 37.37244799976589], [-122.19998399976484, 37.372451000275326], [-122.19983200032719, 37.372464000339555], [-122.19956299981536, 37.37252499995205], [-122.1995100001119, 37.37254800026118], [-122.19935699995102, 37.372617999886025], [-122.19932799963874, 37.37267100018068], [-122.19925999986665, 37.3727939998985], [-122.19920799998812, 37.37297199982364], [-122.19919799994238, 37.37300799996572], [-122.19921899985877, 37.37316699991058], [-122.19928800035407, 37.37328799992567], [-122.19928800035407, 37.373563000207554], [-122.19935699995102, 37.37374999968059], [-122.19936000032408, 37.3739159998186], [-122.199361000149, 37.37393200007913], [-122.19936399962374, 37.37404700011112], [-122.19934600008037, 37.37424200025902], [-122.19932900036194, 37.374420000317585], [-122.1991850004219, 37.37466899994743], [-122.19915699993449, 37.37471700023687], [-122.19907699956856, 37.37482400010232], [-122.19897899965926, 37.37494000033108], [-122.19873199978706, 37.37519800014746], [-122.19858100017431, 37.37532399968547], [-122.19789200043624, 37.37559300030237], [-122.19737600005222, 37.37607699995683], [-122.1970520001871, 37.37633500014541], [-122.19690099967606, 37.376544000242454], [-122.19674900023841, 37.376846000159944], [-122.19671999992607, 37.37686999996883], [-122.19670800023052, 37.37692900006131], [-122.19670099965951, 37.37710800027572], [-122.19669999983459, 37.37736900008588], [-122.19667600044346, 37.377535000067006], [-122.19659799972735, 37.37763899989374], [-122.19645399978731, 37.37773899989322], [-122.1963490002053, 37.37779100004008], [-122.19623399967927, 37.377880000194125], [-122.19611999987644, 37.378140000079256], [-122.19596599989067, 37.37873299989068], [-122.19576699969905, 37.379090999847136], [-122.19550899995616, 37.37946099972516], [-122.19512800018967, 37.379858999770846], [-122.1949890002725, 37.38007800000886], [-122.19489200018812, 37.38046499965799], [-122.19484600015736, 37.3806649998393], [-122.19475400009586, 37.380871999889976], [-122.1945449998585, 37.381122000282616], [-122.19422900038931, 37.381370999790974], [-122.19405899961167, 37.38157699998624], [-122.19389399975523, 37.381880999711896], [-122.19381699976233, 37.382030999742355], [-122.19372600042406, 37.382239000344484], [-122.19371999967795, 37.38225300017898], [-122.19357099971505, 37.382401000104984], [-122.19309899971194, 37.38273699968211], [-122.19221300033037, 37.383560999902535], [-122.19198499982643, 37.383747000125496], [-122.19150299977755, 37.38409900032848], [-122.19127599999686, 37.38421399976089], [-122.19100800020826, 37.38440099980203], [-122.19090399955286, 37.38451100015426], [-122.1908149998644, 37.38468100005669], [-122.19077300003161, 37.38486799964696], [-122.19062200041887, 37.385110000271865], [-122.19050500024301, 37.385253000273984], [-122.19049799967199, 37.3854289999022], [-122.19058100041099, 37.385587999924915], [-122.19100099963725, 37.38591800026957], [-122.19107599998031, 37.38603899969897], [-122.19106299956152, 37.386176000150336], [-122.19097300004815, 37.38641200022105], [-122.19084199962859, 37.38669200010354], [-122.19077399985653, 37.38689600000188], [-122.19079399994801, 37.38738999993335], [-122.19082900010811, 37.38748899980842], [-122.19095999962936, 37.38768100008027], [-122.19111100014042, 37.38797299977424], [-122.1911250003841, 37.38814800019464], [-122.19102199955366, 37.38848900020736], [-122.19101499988095, 37.38858300028564], [-122.19104199964514, 37.38864800016453], [-122.19102199955366, 37.38876399970955], [-122.19097300004815, 37.38881300020794], [-122.19062200041887, 37.388906999879985], [-122.19042200040235, 37.388984000297995], [-122.19035399973195, 37.38903900034422], [-122.19031899957187, 37.38912099965046], [-122.19027799956397, 37.389412000215934], [-122.19030500022647, 37.38950000019641], [-122.19060800017517, 37.389884999877715], [-122.19063599976425, 37.38999999971415], [-122.19062200041887, 37.39037399973137], [-122.1905670001673, 37.390528000329695], [-122.19035399973195, 37.390653999805274], [-122.19020899996701, 37.39071399968504], [-122.190132999799, 37.39075799999462], [-122.190132999799, 37.390907000185976], [-122.19015399971543, 37.39096699986326], [-122.19014000037001, 37.39107200025358], [-122.19006400020206, 37.39114799995485], [-122.18993399960739, 37.3911920000097], [-122.18969900032909, 37.391181000176815], [-122.18960999974229, 37.391213999670526], [-122.1895749995822, 37.39128000004182], [-122.18959600039692, 37.3914010000958], [-122.18969299958296, 37.391532999737265], [-122.18974799983457, 37.391917999683486], [-122.1898299998503, 37.39212099972843], [-122.1898780004292, 37.3922419998523], [-122.19000899995048, 37.39246699974034], [-122.19017499963181, 37.392867999674486], [-122.19016100028644, 37.393005999675374], [-122.19005099978327, 37.39317600029951], [-122.19000899995048, 37.3932749996709], [-122.19001599962316, 37.39351700027997], [-122.19005099978327, 37.39361500002712], [-122.190132999799, 37.393747000052116], [-122.19015399971543, 37.39384600009673], [-122.19011299970754, 37.39411599981333], [-122.19008500011843, 37.394164999668206], [-122.19003700043787, 37.394197999989345], [-122.19003700043787, 37.394356999970626], [-122.19011299970754, 37.39453900031625], [-122.19009900036214, 37.39464300011142], [-122.19001599962316, 37.39479699979013], [-122.19001599962316, 37.39485699992223], [-122.19012000027854, 37.39501099987491], [-122.19035399973195, 37.39518100023385], [-122.19111100014042, 37.3954839998923], [-122.19122099974527, 37.39558299978371], [-122.19128299966954, 37.39569200028426], [-122.19127000014907, 37.396142999937254], [-122.19135200016484, 37.39630799989817], [-122.19158599961825, 37.39658200012941], [-122.19169000027365, 37.39675800028091], [-122.19184799955909, 37.397186999900036], [-122.19185799960482, 37.39750399985418], [-122.19186199980277, 37.397642999717405], [-122.19176600044163, 37.39813700019486], [-122.19166199978623, 37.39833499997482], [-122.19153799993767, 37.398484000091464], [-122.1914969999298, 37.39858300030212], [-122.1914900002571, 37.39875800021759], [-122.19177899996211, 37.39980200014933], [-122.19179800022869, 37.39983900006117], [-122.19185599995498, 37.39995100020379], [-122.19187600004648, 37.399988999844645], [-122.19203400023022, 37.40017000027305], [-122.19226799968364, 37.400714000155496], [-122.19225500016317, 37.40085199998312], [-122.19212200009379, 37.40113600002833], [-122.1921170000709, 37.401148000328206], [-122.1921310003146, 37.40142899990184], [-122.1921720003225, 37.40152199967088], [-122.19220599975937, 37.40166499976581], [-122.19231700008746, 37.401901000313785], [-122.19242699969232, 37.40247800000507], [-122.19260599979245, 37.40418700012294], [-122.19271600029562, 37.40443399989411], [-122.19295999979477, 37.40483899968951], [-122.19316400000929, 37.40517599976407], [-122.19329500042882, 37.40533500000347], [-122.19346600013307, 37.40565199974318], [-122.1936080004233, 37.40591399981451], [-122.1936300001646, 37.405929999669354], [-122.19362500014171, 37.40594499979776], [-122.19364600005811, 37.40602199983876], [-122.19378400015039, 37.40621399973521], [-122.19380500006677, 37.406296999950676], [-122.19393499976313, 37.406483999849875], [-122.19417699961247, 37.40695599981679], [-122.19423900043505, 37.40714800017404], [-122.19444500029938, 37.407609999663904], [-122.19450800004857, 37.40782499996406], [-122.19453999983563, 37.40793399978429], [-122.1945390000107, 37.40794299990637], [-122.19453599963765, 37.40795999973765], [-122.19452999978988, 37.40797199965817], [-122.19450700022365, 37.4079890001964], [-122.19448799995709, 37.40804399985455], [-122.19443899955327, 37.40818800003967], [-122.19436300028362, 37.408741000249584], [-122.19433099959824, 37.40886699978965], [-122.19419500005412, 37.40908800027759], [-122.19409299994688, 37.409369999721086], [-122.19392300006756, 37.41017600003546], [-122.19391300002181, 37.41041000013667], [-122.19392399989248, 37.4104739999761], [-122.19387799986171, 37.411150999678334], [-122.1938269998081, 37.41127500014233], [-122.1936080004233, 37.41167000002763], [-122.1935530001717, 37.411690999739214], [-122.19350700014094, 37.41177000030042], [-122.1928900003729, 37.41227100001403], [-122.19239499990526, 37.412600000266224], [-122.1922080003075, 37.412762000056865], [-122.19212600029174, 37.41293800002247], [-122.19210799985008, 37.41309900016806], [-122.19218400001806, 37.41336699976694], [-122.19235499972228, 37.41363000030479], [-122.19236499976802, 37.413868000215295], [-122.19233800000383, 37.41391199977415], [-122.19220599975937, 37.41396799969423], [-122.1921310003146, 37.41400000024134], [-122.19160800025786, 37.414154000096644], [-122.19138700032495, 37.41419199966941], [-122.19059499975639, 37.41418700017736], [-122.18955500038902, 37.41444499978814], [-122.18913500026444, 37.41451700018459], [-122.18885300023216, 37.4145370002032], [-122.1888299997676, 37.41446600014872], [-122.18812900033397, 37.41462100008022], [-122.18764700028512, 37.41474699971906], [-122.18755699987342, 37.414840999685296], [-122.18755299967548, 37.41529299998574], [-122.18746399998703, 37.41563300033357], [-122.18721399974177, 37.41610499973518], [-122.18715900038848, 37.41633500010097], [-122.18719399965028, 37.41654700016007], [-122.18734500016132, 37.4167209999217], [-122.18741100028357, 37.416815999842434], [-122.18755600004853, 37.41696500030895], [-122.18778700002721, 37.417101000308364], [-122.18796699995225, 37.41716500013873], [-122.18880100035359, 37.41713300023038], [-122.18905999992138, 37.41716599971203], [-122.18930199977072, 37.41725800035214], [-122.18958999965079, 37.4174710002216], [-122.18971100002464, 37.41763399974607], [-122.190032000415, 37.417982999797836], [-122.19009400033927, 37.41806799965205], [-122.19016299993625, 37.41819599974575], [-122.1902669996933, 37.41847700030446], [-122.19024900014996, 37.41863600013831], [-122.1901660003093, 37.41881199985686], [-122.1901179997304, 37.41885299999941], [-122.1900049997525, 37.41890000027446], [-122.18989099994968, 37.41891900028618], [-122.18965800032119, 37.41890699997895], [-122.18916200002865, 37.41892299991257], [-122.18897600025579, 37.418962000182304], [-122.18878299991194, 37.41903800013742], [-122.18856299980392, 37.419170000326694], [-122.18820499960363, 37.41947799986358], [-122.18818399968724, 37.41951199999428], [-122.18812199976294, 37.4196160000883], [-122.18810199967147, 37.41965099969648], [-122.18799799991439, 37.41982399984312], [-122.18798000037104, 37.41986500014508], [-122.18791500007372, 37.420016000036995], [-122.18791500007372, 37.420187000274545], [-122.18799999956423, 37.42058200024835], [-122.188053000166, 37.42082399970881], [-122.1880670004097, 37.421032999910594], [-122.18813600000665, 37.42136800015728], [-122.18813600000665, 37.42146199966124], [-122.18814799970221, 37.42152700027383], [-122.18829400019041, 37.422301999992904], [-122.18838399970377, 37.42246700013556], [-122.18847999996326, 37.42258199991193], [-122.18860399981179, 37.42267000017976], [-122.18888699966902, 37.422835000224936], [-122.18934100012876, 37.42310899976049], [-122.18959600039692, 37.423264000353015], [-122.1899190004371, 37.423523999774844], [-122.19011600008056, 37.423683000307186], [-122.19014000037001, 37.42370300001818], [-122.19020300011923, 37.42371999983969], [-122.19058100041099, 37.424000000163446], [-122.19070699990937, 37.42414899989105], [-122.19074000041967, 37.424187000099714], [-122.19083999997875, 37.42436499999432], [-122.19085699969719, 37.42439600018918], [-122.19088099998665, 37.42442799984758], [-122.19102099972874, 37.42460999991866], [-122.19106799958439, 37.424670999906205], [-122.19113999955442, 37.42476400007221], [-122.19130500030917, 37.425187000198356], [-122.19132500040068, 37.425302000077494], [-122.19131199998189, 37.42544999989154], [-122.19128699986751, 37.42549700030637], [-122.19122900014119, 37.425610000074855], [-122.19108400037624, 37.42580800001554], [-122.19042300022724, 37.42633499998666], [-122.18980999975884, 37.42691199981332], [-122.18960999974229, 37.427136999748534], [-122.18949299956641, 37.427341000123064], [-122.18946400015241, 37.42741300024843], [-122.18944499988584, 37.42746100029355], [-122.18947900022104, 37.42773600016677], [-122.18954799981799, 37.427851999841465], [-122.18973399959086, 37.42803800000252], [-122.18980300008614, 37.42818700025456], [-122.18981999980457, 37.42831500017202], [-122.18986800038347, 37.42865800029306], [-122.18987400023126, 37.42870000017075], [-122.1898790002541, 37.42873599994529], [-122.1898790002541, 37.42883000018639], [-122.1898790002541, 37.42884600013977], [-122.18993399960739, 37.429131999889094], [-122.19009900036214, 37.429521999861606], [-122.19009199979114, 37.42956600021019], [-122.19012000027854, 37.429592999908714], [-122.19029900037869, 37.43032399972304], [-122.19041599965624, 37.43060400031586], [-122.19048799962627, 37.43088899966546], [-122.19050600006793, 37.43095600014594], [-122.19052600015941, 37.431285999731664], [-122.19040200031084, 37.43147199992066], [-122.19030600005136, 37.43153799978459], [-122.19007199969964, 37.431658999740556], [-122.18983099967522, 37.431730999993], [-122.18944800025888, 37.4317589997158], [-122.18916899970134, 37.43178000021433], [-122.18877600023926, 37.431883999675286], [-122.18855600013121, 37.43197199970985], [-122.18841100036626, 37.432060000354355], [-122.18812199976294, 37.4323570001606], [-122.18794299966282, 37.43265400021508], [-122.18782499966203, 37.43311499994447], [-122.18775600006508, 37.43322500012416], [-122.18765300013291, 37.43331300000884], [-122.18735699985689, 37.43336199990789], [-122.18678500029466, 37.43347800013787], [-122.18648200034598, 37.433515999891284], [-122.18592400012915, 37.433648000236275], [-122.18543200003454, 37.43372300019891], [-122.18513099973568, 37.433769000348036], [-122.18482799978696, 37.43392300020736], [-122.18455900017348, 37.43409300000832], [-122.18442199990609, 37.434225000049054], [-122.18383399955205, 37.435047999748434], [-122.18379799956702, 37.43509699993823], [-122.18369200016012, 37.4352459996924], [-122.18365700000004, 37.435295999797155], [-122.18358599985493, 37.4354190001837], [-122.1834219998234, 37.43570799990228], [-122.18339099986126, 37.4357959997208], [-122.18334599965542, 37.43593099971951], [-122.18329799997485, 37.43607099964592], [-122.18327799988336, 37.43625800010204], [-122.18328499955607, 37.43643399976885], [-122.18334700037865, 37.43659299998736], [-122.18348399974766, 37.4367140003311], [-122.18350499966408, 37.43675800001846], [-122.18349100031868, 37.43692299968584], [-122.18334499983051, 37.437091999785], [-122.18313300011839, 37.437340000193494], [-122.18283000016972, 37.43780200031606], [-122.1827809997659, 37.437966999821505], [-122.18270600032113, 37.43851099981581], [-122.18249200006088, 37.43910399984139], [-122.18229899971705, 37.43936199990467], [-122.18217499986848, 37.43947800010773], [-122.18200900018712, 37.43957099971021], [-122.1817820004064, 37.439637000278324], [-122.18164400031415, 37.43962599971217], [-122.1814860001304, 37.43957099971021], [-122.18127900044118, 37.43940100022665], [-122.18110500036389, 37.43932800022918], [-122.18097599959415, 37.439273999999656], [-122.18057599956107, 37.43922999965165], [-122.18013500041842, 37.43931299965423], [-122.17986000005881, 37.43946100029827], [-122.17969400037747, 37.439604000001545], [-122.1795429998664, 37.43978500028157], [-122.1794879996148, 37.43989699989671], [-122.17942499986563, 37.44002699972378], [-122.17941200034515, 37.44036799971674], [-122.17954899971419, 37.44055400016025], [-122.17980399998231, 37.440840000108956], [-122.17983900014242, 37.44090600027107], [-122.17983199957142, 37.44099399968342], [-122.17978999973863, 37.44102100025239], [-122.17965300036958, 37.441053999904284], [-122.1793679999642, 37.441056999807046], [-122.1792120003286, 37.4410599997097], [-122.1787910003791, 37.44101599969864], [-122.17842899998087, 37.44102200022043], [-122.17813699990282, 37.441027000060465], [-122.1778399998019, 37.44108199970558], [-122.17736899962371, 37.44122199998132], [-122.17717899965294, 37.44127900012557], [-122.17702999969, 37.44134399993676], [-122.1768940001459, 37.44147500006494], [-122.176628999832, 37.441733999757766], [-122.17643100036362, 37.44173099988215], [-122.17624200021774, 37.441728999964965], [-122.17621000043066, 37.44173099988215], [-122.1761140001712, 37.44173800030504], [-122.17608300020906, 37.441741000180386], [-122.17599299979737, 37.441766999808465], [-122.17585600042834, 37.44180700026105], [-122.17573300040469, 37.44186899974345], [-122.17570400009238, 37.44188399980608], [-122.17567200030533, 37.44193599966707], [-122.17564399981792, 37.441981999760806], [-122.1756279999244, 37.44200999992811], [-122.17561000038106, 37.442139999650486], [-122.17560299981002, 37.44219399995156], [-122.1755869999165, 37.442311999945545], [-122.17548300015945, 37.44257600004397], [-122.17546800009083, 37.4426530002241], [-122.17546300006796, 37.44268599986949], [-122.17542100023515, 37.44276299993646], [-122.17539299974776, 37.442786000089285], [-122.17531199955688, 37.442856999679194], [-122.17528499979272, 37.442881999689526], [-122.17525499965551, 37.442908000347565], [-122.17516500014213, 37.44298700006968], [-122.17513599982979, 37.44301399991945], [-122.17506499968471, 37.443068000303], [-122.17501500035428, 37.443120000054364], [-122.1749109996989, 37.4432350001991], [-122.17489300015556, 37.4432690002391], [-122.1748529999726, 37.44334800029325], [-122.17475300041347, 37.44354299987126], [-122.17475300041347, 37.44364700010407], [-122.17477299960666, 37.443663999675785], [-122.17478699985034, 37.44386099971689], [-122.17466999967449, 37.4442460003454], [-122.17452499990954, 37.444471000240114], [-122.17414599979284, 37.444778999816755], [-122.17349100038996, 37.44514099986573], [-122.17321600003034, 37.44534999993376], [-122.17305700002169, 37.44552600032653], [-122.17249200013215, 37.446036999991925], [-122.17219599985614, 37.446257000002745], [-122.17192700024263, 37.446597000238135], [-122.17181599991454, 37.446701999683896], [-122.1717060003097, 37.44677999978812], [-122.17169200006599, 37.44678900023381], [-122.17156499984439, 37.44684399992257], [-122.17154099955495, 37.446854000250696], [-122.17146899958492, 37.4468750000795], [-122.17135599960702, 37.44690800000233], [-122.17094399987838, 37.446925000259455], [-122.17078700041783, 37.446946000068316], [-122.1705530000661, 37.447023000030285], [-122.17030299982085, 37.44718500022873], [-122.17014200016237, 37.44728899967817], [-122.16944099983043, 37.44780399964887], [-122.16929000021767, 37.447835999998105], [-122.16924099981385, 37.447847000070446], [-122.16914200007966, 37.44780699999419], [-122.168983000071, 37.44754500028537], [-122.16890299970507, 37.447414000086866], [-122.16886800044328, 37.447525999693724], [-122.16874700006944, 37.447434999758485], [-122.16846000001429, 37.44788100015412], [-122.167953999676, 37.44835699970265], [-122.16779800004038, 37.448568999659436], [-122.16763300018395, 37.448904000058434], [-122.16757700010744, 37.449101999712404], [-122.16757700010744, 37.4491900001828], [-122.16763900003171, 37.449293999697595], [-122.1677090003519, 37.449356000107564], [-122.16781200028407, 37.44944799970095], [-122.16787400020836, 37.449579999757205], [-122.16788699972884, 37.449674000206315], [-122.16788000005616, 37.44994799991591], [-122.16776299988028, 37.45046999972943], [-122.16762499978803, 37.45078300018367], [-122.16745999993157, 37.450920999751446], [-122.16724599967132, 37.450970000244716], [-122.167047000378, 37.450941000029424], [-122.16683999979047, 37.450910000131124], [-122.16675699994978, 37.45084900013273], [-122.16665400001762, 37.450805000173155], [-122.16649500000896, 37.45070099990647], [-122.16637100016041, 37.450661999769196], [-122.16613699980866, 37.450661999769196], [-122.1661019996486, 37.45067200030005], [-122.16606800021171, 37.45068399979427], [-122.16595100003585, 37.450766999927886], [-122.16581999961626, 37.45092600035632], [-122.1657440003466, 37.451151000129364], [-122.16566800017863, 37.451294000311606], [-122.16561299992703, 37.451628999917624], [-122.16550199959894, 37.45193100033082], [-122.16548800025356, 37.452047000302336], [-122.16541799993337, 37.45225099981595], [-122.16530199958241, 37.4528430002463], [-122.16522600031274, 37.45294199991757], [-122.16516400038846, 37.45298100029237], [-122.165068000129, 37.45298100029237], [-122.16486800011246, 37.45293099988135], [-122.16473699969289, 37.45284899981953], [-122.16466100042324, 37.45276599985671], [-122.16452300033096, 37.45267800002752], [-122.16430300022294, 37.45246899975086], [-122.16422700005496, 37.45244700025078], [-122.16410999987909, 37.45246399996229], [-122.16397199978684, 37.452529999854434], [-122.16392599975607, 37.45260599996063], [-122.16386899985467, 37.45270000017281], [-122.16386100035704, 37.4527329996655], [-122.16384799993826, 37.452794000266856], [-122.163709999846, 37.45299099980005], [-122.16359900041624, 37.453059000267764], [-122.16358599999744, 37.45306799995801], [-122.1634629999738, 37.453103000327744], [-122.16308999970491, 37.45321100004106], [-122.16289999973411, 37.45354199970308], [-122.16278900030433, 37.45379699979466], [-122.16276900021286, 37.453838999827035], [-122.1627159996111, 37.45384299972698], [-122.1626949996947, 37.45384400023677], [-122.1624570000433, 37.45385900003786], [-122.16237800040062, 37.45388399993742], [-122.16150299999134, 37.4537089997522], [-122.16113999976821, 37.453721000185496], [-122.16092600040628, 37.453799999899616], [-122.16078999996382, 37.453884999733525], [-122.16074999978086, 37.45393200012039], [-122.16070700012315, 37.45406300031443], [-122.16073999973513, 37.454284000045526], [-122.16073800008529, 37.454392000192875], [-122.16073200023753, 37.45447399998932], [-122.16067000031323, 37.45457300035425], [-122.16053200022095, 37.454650000309805], [-122.1604359999615, 37.454677000229154], [-122.1595189997195, 37.45472100005038], [-122.15927100002237, 37.45467199987506], [-122.15918800018167, 37.45463899981166], [-122.15907100000582, 37.454534000096494], [-122.15898200031737, 37.45441300004498], [-122.15892000039308, 37.45405099993601], [-122.15880300021722, 37.453792000094865], [-122.15867900036864, 37.45369300012238], [-122.1584990004436, 37.45361100018281], [-122.15768599995864, 37.45349499978427], [-122.1572449999177, 37.45358900030548], [-122.1571829999934, 37.45364300018732], [-122.15717600032069, 37.45392900002072], [-122.15713500031283, 37.454022999996425], [-122.15705900014484, 37.4541099998763], [-122.15685199955729, 37.454215000186714], [-122.15670000011963, 37.4542260000341], [-122.15626599975135, 37.454149000355144], [-122.15614199990281, 37.45413799978331], [-122.15603899997066, 37.4541099998763], [-122.15579100027354, 37.454126999922984], [-122.15570800043284, 37.454175999742226], [-122.15566400005191, 37.4542420002631], [-122.15561100034847, 37.45432400022394], [-122.15559100025699, 37.454389999901075], [-122.15562499969386, 37.45466000030748], [-122.15565400000618, 37.454741999810096], [-122.15571500010556, 37.45490699975427], [-122.15572699980113, 37.45492599989737], [-122.15576399961103, 37.454986000355], [-122.15577700002984, 37.45500600025917], [-122.155803999794, 37.45513799977773], [-122.15581200018993, 37.455153000032425], [-122.15589400020569, 37.45530199978418], [-122.15592799964257, 37.45541800023258], [-122.15591400029717, 37.45553300001383], [-122.15587999996201, 37.455568999716824], [-122.1558380001292, 37.45561599975851], [-122.15576199996121, 37.45566100022596], [-122.1557119997325, 37.45568900026544], [-122.15561299999831, 37.45572199986554], [-122.15554799970096, 37.45574099980155], [-122.15549300034769, 37.45575800019062], [-122.15506400000233, 37.455774999862726], [-122.1548249996277, 37.45578600019379], [-122.15442499959462, 37.455883999765724], [-122.15404600037625, 37.45615399977042], [-122.15392199962938, 37.45627199985197], [-122.15364600034317, 37.45653800012648], [-122.15361399965782, 37.456571000065075], [-122.1535929997414, 37.456592000018404], [-122.15353300036526, 37.456654999843025], [-122.15351300027379, 37.45667700024472], [-122.15344600032662, 37.456746999729326], [-122.15340399959551, 37.456784000031476], [-122.15312199956321, 37.45704300020787], [-122.15307499970754, 37.457101999927126], [-122.15298099999622, 37.45722299990677], [-122.15270099961373, 37.45758199968425], [-122.1525430003283, 37.4576810002136], [-122.15234199958854, 37.457670000161265], [-122.15221199989217, 37.45763100009229], [-122.15214300029521, 37.45757100033046], [-122.15205999955623, 37.45743900011447], [-122.15201199987565, 37.457257000007246], [-122.15195699962408, 37.45716899975734], [-122.1518670001107, 37.45708700006334], [-122.15179900033861, 37.45706499978232], [-122.15110899987732, 37.45719699994534], [-122.1508610001802, 37.457207000315506], [-122.15015800019843, 37.457128999674325], [-122.14995800018187, 37.45710799987179], [-122.14931700012437, 37.457098999954624], [-122.14905099998559, 37.45709500022876], [-122.14873799999116, 37.457090999789635], [-122.14849000029403, 37.4570310003076], [-122.14835300002667, 37.45695399995104], [-122.14828500025462, 37.45692700014067], [-122.14811799985003, 37.45686000009364], [-122.14805099990289, 37.45680700015227], [-122.14785900028227, 37.456654000083944], [-122.14781499990131, 37.456618999949725], [-122.14761499988478, 37.45652499967126], [-122.14747699979253, 37.45649799970595], [-122.14715999960013, 37.4565209999147], [-122.14711199991956, 37.45652499967126], [-122.14691799975078, 37.45655800032871], [-122.14676100029027, 37.456585000272305], [-122.14645699961832, 37.4566789997623], [-122.14635000038653, 37.45672599981952], [-122.14620200024852, 37.45679399974381], [-122.1460089999047, 37.456936999833886], [-122.1459129996452, 37.457133999864155], [-122.14590599997253, 37.45731600027072], [-122.1459610002241, 37.45747500032615], [-122.1459539996531, 37.45772800035419], [-122.1458979995766, 37.45781599994629], [-122.14574000029117, 37.457926000182155], [-122.1454969997186, 37.45801700019017], [-122.14514000024154, 37.458151000290286], [-122.144932999654, 37.4582000003255], [-122.14487400010276, 37.458201000063916], [-122.1445440003899, 37.458261999771025], [-122.14440700012251, 37.45826999981075], [-122.14421399977869, 37.45824799987769], [-122.14399500039389, 37.45814000030709], [-122.14378699998142, 37.45803799973745], [-122.14363800001851, 37.45800199979681], [-122.1434899998805, 37.458006000187254], [-122.14316000016761, 37.458070999727255], [-122.14303399977092, 37.4581130002118], [-122.1427929997465, 37.45809400016527], [-122.14247100042954, 37.45799099979169], [-122.14232400011645, 37.45794899995172], [-122.14208599956675, 37.457885000048314], [-122.14198900038069, 37.45787199982726], [-122.14190700036494, 37.45783099966386], [-122.1416179997616, 37.45767600006034], [-122.14132900005661, 37.457523000343684], [-122.14092200035084, 37.45739300025456], [-122.14070300006772, 37.45726800012032], [-122.14072499980904, 37.45725999997341], [-122.14074999992339, 37.45725100007449], [-122.14079599995415, 37.457233000273455], [-122.14085399968044, 37.45721000028369], [-122.14091099958186, 37.45719000025586], [-122.14106499956767, 37.457133000111476], [-122.14105100022225, 37.45712100022565], [-122.14100000016865, 37.457075000170136], [-122.14090899993205, 37.4569949998822], [-122.14088499964258, 37.45696599986367], [-122.14081600004563, 37.45688199972192], [-122.1407929995811, 37.45685400012909], [-122.14077099983977, 37.45682800003938], [-122.1407080000906, 37.456751000186905], [-122.1406870001742, 37.45672599981952], [-122.14065200001411, 37.456684999740894], [-122.14062699989974, 37.456654000083944], [-122.14054200040924, 37.456570000304815], [-122.140504999701, 37.4565329998968], [-122.14047200008902, 37.45649999994143], [-122.14040599996677, 37.45643399998701], [-122.14038300040056, 37.45639899974988], [-122.14035800028623, 37.456361999970305], [-122.14033200034696, 37.45632299993234], [-122.14028799996603, 37.45625500029284], [-122.1402570000039, 37.45620799993962], [-122.14023199988954, 37.45617000030001], [-122.14019699972943, 37.45611699986969], [-122.14013800017818, 37.45602799993709], [-122.14008700012457, 37.45596300004757], [-122.14004899959141, 37.45591399997286], [-122.13998300036751, 37.455829000305584], [-122.13984199990219, 37.455648000331415], [-122.139779000153, 37.45558099985162], [-122.13970600035805, 37.45550299965391], [-122.139482999877, 37.45526399968425], [-122.13908399966881, 37.45496700022719], [-122.13877400004739, 37.45480199970227], [-122.13835300009795, 37.45466400016357], [-122.13800900014134, 37.454614999950856], [-122.1369060001265, 37.45438900011166], [-122.13670799975978, 37.454337000348616], [-122.1365959996068, 37.45430700022209], [-122.13605199963365, 37.45405899971311], [-122.13554199999571, 37.4540640001082], [-122.13510799962745, 37.4541029998979], [-122.13428699964489, 37.454315999762095], [-122.13390099985548, 37.4543769997856], [-122.13356399957162, 37.45436599996037], [-122.13340499956296, 37.454338000138726], [-122.13299899968209, 37.45413399989914], [-122.13237199986827, 37.454051999729934], [-122.13210300025476, 37.45398000027255], [-122.13182700007023, 37.45378199998114], [-122.13173099981078, 37.45360599975744], [-122.13161399963491, 37.453451999756844], [-122.13151800027376, 37.45335900029289], [-122.13091099965311, 37.453270999735146], [-122.1303249998472, 37.453226999774], [-122.13003600014221, 37.453166000238916], [-122.12988399980622, 37.45308900018184], [-122.12928499958151, 37.45250100024396], [-122.12927200006108, 37.45246200033203], [-122.12925000031976, 37.45245500019944], [-122.12921599998454, 37.45238500026337], [-122.12900300044753, 37.45214399996217], [-122.12883100002007, 37.45197299998471], [-122.12863799967624, 37.45188499993571], [-122.1284729998198, 37.45184700023909], [-122.1283969996518, 37.45185200006895], [-122.12829399971963, 37.45186199972757], [-122.12800800038772, 37.45208499989735], [-122.1279530001361, 37.45252500006995], [-122.12794599956511, 37.45257999982042], [-122.12788299981592, 37.45268999991308], [-122.12785600005174, 37.45273700033773], [-122.12784199980804, 37.452761000087996], [-122.12779099975441, 37.452851999962526], [-122.1277189997844, 37.45297500001663], [-122.1277149995864, 37.45298399971692], [-122.12766000023316, 37.453030999956816], [-122.12763099992083, 37.4530550003259], [-122.12754600043034, 37.4531279997668], [-122.12751799994294, 37.4531529999107], [-122.12740599978994, 37.45324700014852], [-122.12708699994774, 37.45351999980545], [-122.12706900040439, 37.45351999980545], [-122.12692399974108, 37.45352699983842], [-122.12690600019775, 37.4536169996944], [-122.12661199957157, 37.45364899969635], [-122.12625500009449, 37.45361999980663], [-122.12597600043523, 37.45355400016315], [-122.12576100035008, 37.453465000033084], [-122.12550500025706, 37.45334399967844], [-122.12527299955512, 37.45318699972204], [-122.12508299958435, 37.45302399987744], [-122.1248059995749, 37.45288000034047], [-122.12449099993064, 37.45279999984403], [-122.12412500023272, 37.45279999984403], [-122.12350099989368, 37.45304599992096], [-122.123165000333, 37.45318400030564], [-122.12303700028649, 37.45321100004106], [-122.12280700013274, 37.45328000011301], [-122.12260399974313, 37.45330200008123], [-122.1223750003126, 37.453375999797174], [-122.12210300032602, 37.45359000010559], [-122.1218840000429, 37.45391000033748], [-122.12177199988992, 37.45424099975857], [-122.12176600004213, 37.45450300026109], [-122.12186999979919, 37.45480700004762], [-122.12195199981498, 37.45495299971702], [-122.12222600034968, 37.455275000090516], [-122.12255799971237, 37.45570999975331], [-122.12282100037642, 37.45614099996156], [-122.12287800027784, 37.45650599993438], [-122.12286200038432, 37.45693800030228], [-122.1227920000641, 37.45735100007874], [-122.12278100019344, 37.457620999778776], [-122.12299000043083, 37.45817799965881], [-122.12337899969494, 37.459570999964704], [-122.12366999994809, 37.46034899993021], [-122.12391599999536, 37.46101100020814], [-122.12391900036842, 37.46114499993459], [-122.12383499980452, 37.461215000228364], [-122.12375399961367, 37.46132100024285], [-122.12343899996941, 37.461534000227985], [-122.1195819997537, 37.46393500031744], [-122.11769299991639, 37.46523800030584], [-122.11717400005762, 37.465430999864886], [-122.11662699971144, 37.46556500022623], [-122.11595499969178, 37.46570900029357], [-122.11565699976597, 37.465906999665975], [-122.11533100025103, 37.46616699996113], [-122.11328199968183, 37.46752900031235], [-122.11326499996338, 37.46752999992603], [-122.11317299990188, 37.46745200007109], [-122.11289699971735, 37.46721900034889], [-122.11280600037905, 37.46714199978838], [-122.11197399962755, 37.466438000255245], [-122.11186800022065, 37.4663759997458], [-122.1115479996552, 37.466292000192574], [-122.11123700020889, 37.46628800024541], [-122.1089149998282, 37.46626399984516], [-122.09657400015051, 37.46613799993462], [-122.0964260000125, 37.46610200032865], [-122.09642900038554, 37.46606599999227], [-122.09677400016704, 37.46213799970466], [-122.09676199957318, 37.461904999821115], [-122.09370399959874, 37.46509099967937], [-122.08452999967544, 37.47465099999136], [-122.08147300042423, 37.47783800006457], [-122.08710300012629, 37.48180499976563], [-122.10399499978062, 37.49370600030945], [-122.10957400032737, 37.49763699978767], [-122.10961500033524, 37.49768499967287], [-122.10992900015461, 37.49805700005348], [-122.11024299997395, 37.498429000006254], [-122.11113099990366, 37.499481000225934], [-122.11151500004323, 37.499936999813954], [-122.11567900040558, 37.50487200015543], [-122.11623300042444, 37.50552900034672], [-122.11671399975008, 37.50609999971293], [-122.117194999974, 37.506669999897355], [-122.11724000017985, 37.50672099979549], [-122.11728500038569, 37.50677199965879], [-122.11731999964749, 37.506810999740296], [-122.11735300015776, 37.506849000001175], [-122.11739300034073, 37.50689400026632], [-122.11747199998345, 37.50699000021865], [-122.1182849995701, 37.5079849996916], [-122.12096299960291, 37.511257999919145], [-122.1218559995555, 37.51235000013174], [-122.12309900021079, 37.51386699971365], [-122.12683000002978, 37.51841899977214], [-122.12807399961162, 37.51993700030007], [-122.13041400043397, 37.52281600016429], [-122.13743400020608, 37.53145599981926], [-122.13977499995505, 37.53433599980958], [-122.14165499957156, 37.53663500007992], [-122.14729500021768, 37.54353500020434], [-122.14917499983416, 37.54583500032039], [-122.14942900027737, 37.54615900000179], [-122.15019400018345, 37.54713399977398], [-122.15044899955325, 37.5474590001879], [-122.15157400020773, 37.5488940001624], [-122.15494900037457, 37.55319900026392], [-122.15607499995566, 37.55463499998529], [-122.15831500032058, 37.557454999824756], [-122.16503499961874, 37.56591499986579], [-122.16727599980855, 37.56873500000386], [-122.169820999772, 37.571884000162946], [-122.1744680000081, 37.57763400033159], [-122.17745700038556, 37.5813309998221], [-122.18000300017393, 37.58447999984112], [-122.18133700016747, 37.58613000019919], [-122.18534099979794, 37.59108299992819], [-122.18667599961641, 37.59273399990783], [-122.1867099999516, 37.59277500002332], [-122.18681200005885, 37.592899000304406], [-122.18684600039404, 37.59294099968697], [-122.18836100013753, 37.59478400007438], [-122.19290799991624, 37.600314999900036], [-122.19442400038298, 37.60215899979245], [-122.19483399956349, 37.60265800028558], [-122.19542199991756, 37.60337300031981], [-122.19606700017302, 37.604157999943226], [-122.19642000035041, 37.60458700025137], [-122.19652800030545, 37.604718000155955], [-122.1967090000554, 37.60493900018922], [-122.1968189996603, 37.60507199999907], [-122.19765300006163, 37.60608800004752], [-122.1979319997209, 37.60642700002656], [-122.20007599982634, 37.609035000117586], [-122.20650899996762, 37.61686200027403], [-122.20865399989799, 37.619470999885046], [-122.21075000032289, 37.62202199988153], [-122.21666000040742, 37.62921100009928], [-122.21704100017392, 37.62967499970168], [-122.21871699957593, 37.63171399985602], [-122.21904499963898, 37.63211300004057], [-122.21913800042371, 37.63222600025986], [-122.21941600025804, 37.632564000349724], [-122.22025200030923, 37.63358099992516], [-122.22053099996849, 37.63391999977341], [-122.22244099972224, 37.636243999741936], [-122.22817199970663, 37.643216999662165], [-122.23008300018355, 37.645541999822086], [-122.2334020002739, 37.64957900005995], [-122.24335899964666, 37.66169300003622], [-122.2466789995619, 37.665731000273546], [-122.24773899991905, 37.667071000003915], [-122.25091900009224, 37.67109099980362], [-122.25122600023889, 37.67148000027888], [-122.25197899955107, 37.67243100017136], [-122.25471199983548, 37.675721999846616], [-122.26291199961537, 37.68559599985509], [-122.26469500004582, 37.68774399978268], [-122.2656459997247, 37.68888800009897], [-122.26886400043101, 37.69276299993582], [-122.27852000040316, 37.70438899981786], [-122.2808800004187, 37.707229999786506], [-122.28178000004398, 37.708229999648104], [-122.2945800002043, 37.708229999648104], [-122.36038100008135, 37.7083309998966], [-122.37168099966843, 37.7083309998966], [-122.37562400009786, 37.70837300014239], [-122.37606299959067, 37.70836399999018], [-122.3794009999476, 37.70840600021726], [-122.37948899981113, 37.708413999716356], [-122.38108100044586, 37.70843100007039], [-122.38748199990177, 37.7083309998966], [-122.38897599972888, 37.7083309998966], [-122.39268200033183, 37.7083309998966], [-122.39294500009758, 37.70835900030002], [-122.39318600012197, 37.70836300005219], [-122.39340000038223, 37.70836799974213], [-122.39347099962902, 37.708368999680054], [-122.39468300032216, 37.708390999732806], [-122.39485200037657, 37.70839300031873], [-122.39512000016516, 37.70839400025637], [-122.39528800039466, 37.708391999670425], [-122.39615600023288, 37.70838899985748], [-122.39752600021144, 37.70838600004442], [-122.39967899963942, 37.708379999707226], [-122.40128100031988, 37.70837400008025], [-122.40133400002333, 37.70837400008025], [-122.40176500001854, 37.708371000266574], [-122.40239699985523, 37.708368999680054], [-122.40292599975974, 37.708371000266574], [-122.4034370001209, 37.70836399999018], [-122.40434199976904, 37.708360000238066], [-122.40472799955842, 37.70835799965126], [-122.404754000396, 37.708322999677904], [-122.40514299966011, 37.70843200000747], [-122.40527900010257, 37.70846999973913], [-122.40537100016408, 37.708294000032666], [-122.40554500024135, 37.708341999929466], [-122.40604200035881, 37.70848099975136], [-122.40617200005514, 37.708517000296716], [-122.40618299992579, 37.70852100004036], [-122.40625999991869, 37.7083520000225], [-122.40629599990369, 37.70836200011418], [-122.40653799975303, 37.708360000238066], [-122.40658899980666, 37.70836100017611], [-122.40694199998408, 37.708360000238066], [-122.406978999794, 37.708271999951116], [-122.40732600012363, 37.70836300005219], [-122.4073520000629, 37.708305000070965], [-122.40737100032948, 37.70831099970352], [-122.40742400003293, 37.70832400032714], [-122.40767099990514, 37.70839300031873], [-122.40770299969219, 37.70840099981923], [-122.40773200000449, 37.70840700015473], [-122.40776100031682, 37.70834299986774], [-122.4080979997024, 37.70832199973931], [-122.41035999980862, 37.70832199973931], [-122.41177199961999, 37.708322999677904], [-122.41181799965072, 37.708322999677904], [-122.412216000034, 37.70843499981867], [-122.41227799995829, 37.70845300010474], [-122.41230100042281, 37.70845899972533], [-122.41237400021774, 37.70831500016899], [-122.41238000006554, 37.70830300019332], [-122.41251599960965, 37.70830400013218], [-122.41289800009939, 37.708308999826045], [-122.41328100041402, 37.70831500016899], [-122.41338099997313, 37.70830600000974], [-122.41348100043056, 37.70829699984945], [-122.41359299968525, 37.70832900001972], [-122.41420899962837, 37.708501999834695], [-122.41422100022227, 37.70847500013255], [-122.41428399997146, 37.70832900001972], [-122.4143500000937, 37.70817699997627], [-122.41440100014734, 37.70819199979338], [-122.41498899960307, 37.70835699971313], [-122.41507200034206, 37.708380999645044], [-122.41519299981758, 37.708412999779036], [-122.41525100044221, 37.70828499987087], [-122.4153140001914, 37.70830300019332], [-122.41541499957542, 37.7083309998966], [-122.41566800019372, 37.70840299969423], [-122.41572599992004, 37.70827299989034], [-122.41606900005172, 37.70837000032867], [-122.41614000019683, 37.70838899985748], [-122.41618799987742, 37.70840199975671], [-122.4162220002126, 37.708328000081195], [-122.41627499991606, 37.708209000198345], [-122.41637399965025, 37.70823699993715], [-122.41672000015495, 37.708333999711904], [-122.41675199994204, 37.70827000007258], [-122.41700700021016, 37.708341999929466], [-122.41706400011155, 37.70835799965126], [-122.41718499958706, 37.70838799991983], [-122.41721100042464, 37.7083309998966], [-122.41724099966355, 37.70826099990792], [-122.41731600000664, 37.70828200005359], [-122.41748599988593, 37.7083309998966], [-122.41753600011467, 37.70834499974431], [-122.41766699963591, 37.70838300023123], [-122.41770000014618, 37.708308999826045], [-122.41772500026053, 37.70825299968161], [-122.41800599956963, 37.7083309998966], [-122.41810000017927, 37.708355999775044], [-122.41814799985985, 37.708368999680054], [-122.4181649995783, 37.7083309998966], [-122.41820499976124, 37.708240999695896], [-122.41830400039377, 37.70827000007258], [-122.41838499968631, 37.708293000093676], [-122.41860700034246, 37.708354999836935], [-122.41871600012242, 37.70838500010673], [-122.41880200033613, 37.70840800009213], [-122.41895700014686, 37.70845100023108], [-122.41905500005615, 37.70847799994201], [-122.4192219995624, 37.708117999908175], [-122.41970100013651, 37.70823100029859], [-122.42006799965932, 37.70834399980601], [-122.42020900012463, 37.70838799991983], [-122.42091399975624, 37.70858199965778], [-122.42160500004246, 37.708769000071165], [-122.4222560001457, 37.708946999931236], [-122.42290499970083, 37.70912400014678], [-122.42334499991686, 37.70928000008254], [-122.42336099981038, 37.709245999760086], [-122.42355499997916, 37.70883799964844], [-122.4238610003009, 37.708195000325006], [-122.42404299987578, 37.70824300028592], [-122.42535199975498, 37.708617000219526], [-122.42540199998366, 37.708366999804134], [-122.4254170000523, 37.70830600000974], [-122.42543999961853, 37.708305000070965], [-122.42549900006807, 37.70830300019332], [-122.42561100022105, 37.7083020002545], [-122.42589200042846, 37.7083020002545], [-122.42599799983535, 37.7083020002545], [-122.42605300008692, 37.70830100031567], [-122.4261700002628, 37.70830300019332], [-122.42620700007272, 37.7083020002545], [-122.42625800012637, 37.70830100031567], [-122.4263119996547, 37.70830100031567], [-122.42637699995203, 37.70830100031567], [-122.42643700022649, 37.70830100031567], [-122.4264680001886, 37.70830400013218], [-122.42664899993859, 37.70832700014271], [-122.42667900007584, 37.70826399972605], [-122.42686400002374, 37.708299999666124], [-122.42693500016885, 37.70829899972721], [-122.42719000043701, 37.708299999666124], [-122.42786599975626, 37.70829699984945], [-122.42790799958908, 37.70823599999744], [-122.42794100009935, 37.70818600015118], [-122.42833600010957, 37.708354999836935], [-122.42844599971441, 37.70818800003198], [-122.42849000009537, 37.708204999727165], [-122.42889199977826, 37.708355999775044], [-122.42890299964893, 37.70836100017611], [-122.42914600022146, 37.70837300014239], [-122.4292540001765, 37.708378999769444], [-122.42933600019227, 37.70837300014239], [-122.42962700044542, 37.70835299996063], [-122.42978300008102, 37.70834499974431], [-122.42991100012755, 37.70833800017611], [-122.42982900011175, 37.70852499978378], [-122.42999899999108, 37.70852399984796], [-122.4300130002348, 37.70852900023769], [-122.43017899991615, 37.70842000005079], [-122.43038700032861, 37.70834599968256], [-122.43066500016295, 37.708305000070965], [-122.43093999962426, 37.70830600000974], [-122.43120099974017, 37.7082739998296], [-122.43134100038054, 37.70823100029859], [-122.43144199976459, 37.70818800003198], [-122.43151000043495, 37.708150000155726], [-122.4315840000548, 37.708229999648104], [-122.43168399961391, 37.70832900001972], [-122.43172700016994, 37.708380999645044], [-122.43180199961469, 37.708473000259495], [-122.43192299998852, 37.70834299986774], [-122.43208799984494, 37.708378999769444], [-122.43215399996718, 37.70839300031873], [-122.43218599975424, 37.70831500016899], [-122.43222299956416, 37.7082289997083], [-122.43225799972427, 37.70817699997627], [-122.43238300029607, 37.708225999888754], [-122.43269000044272, 37.70834700033148], [-122.4327029999632, 37.70835100008429], [-122.43276900008541, 37.70823200023836], [-122.43280099987247, 37.70817300021407], [-122.43286500034489, 37.70816999968155], [-122.43317900016426, 37.70815100009659], [-122.43330499966264, 37.70823200023836], [-122.43347999956481, 37.70834099999112], [-122.43355099970995, 37.70838300023123], [-122.43360900033456, 37.708360000238066], [-122.4336729999087, 37.70833499965034], [-122.43410700027694, 37.708195000325006], [-122.43431300014126, 37.708131999796066], [-122.43452900005133, 37.70809499983277], [-122.43478299959622, 37.7080520001979], [-122.4348169999314, 37.708045999833715], [-122.43501299975, 37.708013000309194], [-122.43498000013803, 37.70809499983277], [-122.43496800044247, 37.708131999796066], [-122.43493800030524, 37.70825800008967], [-122.43493300028236, 37.7082739998296], [-122.43505200010806, 37.708371000266574], [-122.43516599991088, 37.70829899972721], [-122.43536599992741, 37.7081649999783], [-122.43549200032412, 37.70824500016513], [-122.43561600017267, 37.70832400032714], [-122.4356399995638, 37.70834800026968], [-122.43570099966318, 37.70840700015473], [-122.4357240001277, 37.708430000133305], [-122.43575699973965, 37.70840700015473], [-122.43582899970968, 37.70835799965126], [-122.4360129998327, 37.70823200023836], [-122.43606800008429, 37.70819600026526], [-122.436118000313, 37.70816000027466], [-122.43617600003932, 37.708210000138465], [-122.43620100015369, 37.70823200023836], [-122.43627800014657, 37.70830799988731], [-122.43632400017734, 37.70835799965126], [-122.4363850002767, 37.708309999764815], [-122.43648099963784, 37.70821900030931], [-122.43666899995883, 37.70803399981449], [-122.43678100011181, 37.70791899994639], [-122.4370909997332, 37.7080400001797], [-122.43739299985701, 37.708157999682456], [-122.43753400032234, 37.708213999898675], [-122.437645999577, 37.7082570001502], [-122.43774799968425, 37.70829699984945], [-122.43785099961642, 37.70833700023777], [-122.43795400044687, 37.708376999893794], [-122.43805499983091, 37.70841700023899], [-122.43816600015899, 37.708459999662026], [-122.43825599967236, 37.70831799998492], [-122.43831199974888, 37.70823200023836], [-122.43835699995469, 37.70816200015617], [-122.43872600002564, 37.70830799988731], [-122.43883200033086, 37.70835000014612], [-122.43890799960054, 37.70824300028592], [-122.43903099962418, 37.708037000352505], [-122.43919100035606, 37.70810699984212], [-122.43935200001452, 37.70817699997627], [-122.43955200003107, 37.70826399972605], [-122.43967500005473, 37.70831799998492], [-122.4397520000476, 37.7083520000225], [-122.43983999991117, 37.70838999979519], [-122.43990199983546, 37.70838600004442], [-122.44004400012565, 37.708375999955976], [-122.44034399970134, 37.70850399970697], [-122.44045900022736, 37.70833800017611], [-122.44049699986219, 37.70828200005359], [-122.44052799982433, 37.70823599999744], [-122.44081200040479, 37.70832700014271], [-122.44085500006248, 37.70834000005282], [-122.44120999988971, 37.708333999711904], [-122.4412440002249, 37.708326000204224], [-122.44126699979114, 37.70831899992353], [-122.44131500037001, 37.708305000070965], [-122.44141800030218, 37.70827100001188], [-122.44181699961204, 37.70813099985494], [-122.44199599971219, 37.70806999986629], [-122.44218300020823, 37.70842199992523], [-122.44228100011753, 37.70838899985748], [-122.44260599980755, 37.708279000236196], [-122.44257200037069, 37.70821599977872], [-122.44265400038645, 37.70818800003198], [-122.44273300002916, 37.7081610002154], [-122.44280499999917, 37.70813600027123], [-122.44281500004492, 37.708153999919176], [-122.44289899971052, 37.708125000207794], [-122.44297099968053, 37.70825199974212], [-122.44301900025943, 37.70834599968256], [-122.44302500010721, 37.70835699971313], [-122.44305199987137, 37.70840199975671], [-122.44318099974281, 37.70834900020794], [-122.44334599959926, 37.708283999931815], [-122.44355499983665, 37.70821299995866], [-122.4435950000196, 37.70828499987087], [-122.44385100011264, 37.7081980001458], [-122.44389499959527, 37.708279000236196], [-122.44402600001482, 37.70823500005766], [-122.44429800000138, 37.70814199991749], [-122.44445700001006, 37.708088000241005], [-122.44455599974425, 37.70805500002449], [-122.44469200018668, 37.70830799988731], [-122.4447289999966, 37.708377999831654], [-122.44479799959358, 37.70835299996063], [-122.44503399959515, 37.70827299989034], [-122.44513400005255, 37.70823899981657], [-122.44511300013616, 37.70820199990665], [-122.44505500040987, 37.70809299994945], [-122.44508200017403, 37.708083999763296], [-122.4453120003278, 37.70800599999899], [-122.44532099965033, 37.70802199979332], [-122.44543299980332, 37.70823200023836], [-122.4454610002907, 37.70828299999268], [-122.44548899987979, 37.708332999773496], [-122.44550999979622, 37.70837400008025], [-122.44582199996573, 37.70826399972605], [-122.44591099965419, 37.70823300017818], [-122.4463540002433, 37.70808299982148], [-122.44639199987814, 37.708148000273894], [-122.44643799990888, 37.708229999648104], [-122.44652699959734, 37.708398999944166], [-122.44653900019124, 37.70841800017625], [-122.44700000032367, 37.70826099990792], [-122.44705700022509, 37.708240999695896], [-122.44715599995928, 37.70821100007853], [-122.4472000003402, 37.708192999733676], [-122.44722200008152, 37.70823500005766], [-122.4473119995949, 37.70838899985748], [-122.44735000012805, 37.70837400008025], [-122.44770300030548, 37.70826099990792], [-122.44773400026762, 37.70831899992353], [-122.44775299963585, 37.70831300029167], [-122.44779100016899, 37.70838300023123], [-122.44783899984957, 37.708366999804134], [-122.44787700038273, 37.70843699969275], [-122.44802899982037, 37.708384000169005], [-122.4480360003914, 37.70839700006912], [-122.4481009997904, 37.708517000296716], [-122.44815000019419, 37.70849999996241], [-122.44816000023995, 37.708517000296716], [-122.44853699980848, 37.70838799991983], [-122.44852199973988, 37.708360000238066], [-122.44861600034955, 37.708328000081195], [-122.44857500034165, 37.70825099980256], [-122.44866599967992, 37.70822100018923], [-122.44885900002377, 37.7081610002154], [-122.44881999966572, 37.708088000241005], [-122.44891500010027, 37.70805500002449], [-122.4489309999938, 37.708085999646805], [-122.44899899976586, 37.708210000138465], [-122.44914100005609, 37.7081610002154], [-122.44930000006472, 37.70810699984212], [-122.44945900007339, 37.70805300014015], [-122.44956200000556, 37.70801700008008], [-122.44965999991483, 37.7079849997751], [-122.44967199961042, 37.708008999827435], [-122.44977299989276, 37.70821200001857], [-122.4498520004338, 37.70833800017611], [-122.4502680003604, 37.70819900008601], [-122.45099700028145, 37.70795400011054], [-122.4510139999999, 37.70798100000249], [-122.45103400009138, 37.7080189999654], [-122.45111600010712, 37.708171000332854], [-122.4511760003816, 37.70828200005359], [-122.45119800012291, 37.70831899992353], [-122.4512120003666, 37.70831400023033], [-122.45153000038391, 37.70820199990665], [-122.45155399977504, 37.708192999733676], [-122.45158899993515, 37.70826099990792], [-122.45168600001954, 37.70843900027749], [-122.45234700016853, 37.708214999838674], [-122.45240900009281, 37.7083309998966], [-122.45250500035225, 37.708299999666124], [-122.45282400019451, 37.70819399967402], [-122.45290100018738, 37.70833600029942], [-122.45343099991682, 37.708154999860035], [-122.45355200029061, 37.708380999645044], [-122.45360499999407, 37.708485000207645], [-122.4542810002117, 37.70825600021076], [-122.45435599965646, 37.70823200023836], [-122.4544920000989, 37.708183000329896], [-122.4547180000547, 37.708103000076086], [-122.45490700020058, 37.7080380002949], [-122.45499500006414, 37.70809900030989], [-122.45504100009488, 37.7081299999138], [-122.45520099992845, 37.70823899981657], [-122.4553520004395, 37.708341999929466], [-122.45542400040954, 37.7082749997688], [-122.4554710002652, 37.70823100029859], [-122.45551999977067, 37.70818500021079], [-122.45559000009087, 37.70812300032535], [-122.45565299984008, 37.70816599991897], [-122.45574699955141, 37.70823100029859], [-122.45592800019968, 37.70835399989877], [-122.45593999989526, 37.70836200011418], [-122.45598199972805, 37.708322999677904], [-122.45608499966022, 37.70822499994885], [-122.45624200001902, 37.70808099993789], [-122.45646600032504, 37.708234000117926], [-122.4565690002572, 37.70830400013218], [-122.45667899986205, 37.708378999769444], [-122.45684299989357, 37.708234000117926], [-122.45699400040463, 37.70810200013457], [-122.45718299965219, 37.70823500005766], [-122.4573519997066, 37.70835100008429], [-122.45743500044559, 37.70842900019614], [-122.45748399995107, 37.708380999645044], [-122.45749800019479, 37.708366999804134], [-122.45763200008909, 37.70823899981657], [-122.45774400024207, 37.70812800003143], [-122.45791300029649, 37.70824300028592], [-122.45795199975622, 37.70826900013332], [-122.45798799974122, 37.70824200034624], [-122.45821799989501, 37.708032999872046], [-122.45850900014814, 37.70823100029859], [-122.45882499961733, 37.70844499989921], [-122.45904999974823, 37.70823100029859], [-122.45917399959679, 37.708125000207794], [-122.45922899984836, 37.708075000286705], [-122.45935699989488, 37.708155999800844], [-122.4594709996977, 37.70823100029859], [-122.45957399962987, 37.7083020002545], [-122.45975299973001, 37.708133999678324], [-122.45989400019532, 37.70823200023836], [-122.46008199961798, 37.70836100017611], [-122.46013600004464, 37.708309999764815], [-122.46017399967947, 37.7082749997688], [-122.46021999971026, 37.70823200023836], [-122.46038000044214, 37.708083999763296], [-122.46064200038295, 37.70825600021076], [-122.4607109999799, 37.70830400013218], [-122.46081899993496, 37.7081980001458], [-122.46092600006507, 37.70809499983277], [-122.4609910003624, 37.708037000352505], [-122.46127500004455, 37.70823200023836], [-122.46138299999956, 37.708305000070965], [-122.46146300036551, 37.70823200023836], [-122.46168400029845, 37.708030000044566], [-122.46202400005707, 37.70825999996848], [-122.4623150003102, 37.70798900025816], [-122.46265599989376, 37.70823200023836], [-122.46285400026045, 37.708364999928214], [-122.46291000033696, 37.708316000107686], [-122.46316100040713, 37.70809299994945], [-122.46341800032509, 37.70827000007258], [-122.46365400032664, 37.708065000156296], [-122.46367100004507, 37.708050000313484], [-122.46371100022805, 37.708014000251964], [-122.46381099978716, 37.708081999879695], [-122.46398900006237, 37.70820299984687], [-122.46445100001975, 37.708209000198345], [-122.46445000019483, 37.70823200023836], [-122.46445100001975, 37.7082739998296], [-122.4644960002256, 37.708271999951116], [-122.46481199969477, 37.708271999951116], [-122.46489100023581, 37.708271999951116], [-122.46489600025868, 37.70821299995866], [-122.46498400012221, 37.70821200001857], [-122.46505000024445, 37.70821200001857], [-122.46531700020813, 37.70821100007853], [-122.4653289999037, 37.708239999756245], [-122.46576200044706, 37.70824500016513], [-122.46590300001407, 37.708247999983904], [-122.46654099969854, 37.70825400033179], [-122.46662500026244, 37.708244000225534], [-122.46676800037757, 37.708229999648104], [-122.46697900026476, 37.708210000138465], [-122.46847800011476, 37.70820099996647], [-122.46864700016914, 37.70819900008601], [-122.46889999988913, 37.7081980001458], [-122.46896900038442, 37.7081980001458], [-122.46901299986706, 37.7081980001458], [-122.46927200033313, 37.70819900008601], [-122.47097799987236, 37.70820199990665], [-122.47107999997961, 37.70820299984687], [-122.4713329996996, 37.70820700031816], [-122.4714239999362, 37.708204999727165], [-122.47172799970981, 37.708209000198345], [-122.47284499996836, 37.708204999727165], [-122.4751139997473, 37.708190999853066], [-122.47645100011388, 37.70818899997234], [-122.47789999973517, 37.708190999853066], [-122.47956500016483, 37.70818099973831], [-122.48101999963389, 37.70817899985732], [-122.48231699981753, 37.70817300021407], [-122.48348099993174, 37.708171000332854], [-122.48425599988354, 37.70816899974094], [-122.48471700001602, 37.70817300021407], [-122.4853859996626, 37.70817300021407], [-122.48558999987708, 37.70823100029859], [-122.48564000010582, 37.708149000214846], [-122.48566400039525, 37.708108999725], [-122.48577400000012, 37.708133999678324], [-122.48587500028245, 37.708155999800844], [-122.48603799959075, 37.708154999860035], [-122.48613499967514, 37.708155999800844], [-122.48637599969956, 37.708155999800844], [-122.48877800044619, 37.708155999800844], [-122.48988200028597, 37.708143999799425], [-122.49013900020391, 37.708140999976436], [-122.49785699993495, 37.708131999796066], [-122.49809299993649, 37.708131999796066], [-122.49810999965491, 37.708131999796066], [-122.49816900010447, 37.708131999796066], [-122.49823299967858, 37.708131999796066], [-122.49830200017388, 37.708131999796066], [-122.50248499990447, 37.708132999737224], [-122.50277799980744, 37.708132999737224], [-122.50283200023412, 37.708132999737224], [-122.50438499961245, 37.708131999796066], [-122.50693100029913, 37.708088000241005], [-122.50710299982828, 37.70808499970506], [-122.55068600012251, 37.70733199992839], [-122.57518900027607, 37.70672099977438], [-122.5750290004425, 37.705320999666974], [-122.5745509996933, 37.70112099988656], [-122.57439199968466, 37.69972199996411], [-122.57360800041032, 37.692843999833165], [-122.57125699971733, 37.672210000294946], [-122.57047400026791, 37.66533299984364], [-122.57026699968034, 37.663520000095616], [-122.56964900008737, 37.658085000047706], [-122.56944300022303, 37.65627300029467], [-122.56918200010715, 37.653987000245046], [-122.5684020001325, 37.64713199977532], [-122.56814199984147, 37.64484700008329], [-122.56779399968691, 37.64179900005316], [-122.567496999586, 37.63918500015351], [-122.5701579999004, 37.63317899978799], [-122.57140099965737, 37.630376000043526], [-122.57203000001931, 37.62895499991271], [-122.57266600005393, 37.62752099980582], [-122.57388700006958, 37.62468099980723], [-122.57450100036289, 37.623254000258235], [-122.57543299977524, 37.621083000257514], [-122.57823200018188, 37.614569999847454], [-122.57916600014235, 37.61240000011728], [-122.57956000032765, 37.61148400009227], [-122.58017000042301, 37.609804000143605], [-122.58302500000786, 37.60195399993207], [-122.58397800023491, 37.599338000096566], [-122.5848159999359, 37.597032000338366], [-122.5864539997031, 37.592528999703596], [-122.5867879996139, 37.58998099985341]]]}, "properties": {"GEOID": "06081", "NAME": "San Mateo County"}}]}