{"type": "FeatureCollection", "features": [{"type": "Feature", "geometry": {"type": "Polygon", "coordinates": [[[-122.3731209999672, 37.88388400016003], [-122.37378200011617, 37.88372500002528], [-122.37258100019203, 37.88032499969737], [-122.3722289998395, 37.87932599984688], [-122.37067599956286, 37.87492699999483], [-122.3692279997665, 37.870825999771384], [-122.36898000006937, 37.87012500010896], [-122.36778099979504, 37.866726000251745], [-122.3653999998631, 37.860525999734705], [-122.3582600004404, 37.84192600009155], [-122.3558810001583, 37.83572699983474], [-122.35450399960875, 37.83202300006856], [-122.352634000038, 37.82698799996313], [-122.35037600012973, 37.820910999815], [-122.3497550001637, 37.81923999968162], [-122.3496070000257, 37.81884100007466], [-122.34938699991767, 37.81824799982395], [-122.34919399957381, 37.817728000267124], [-122.34906700025053, 37.817386000117544], [-122.34904999963378, 37.81733999973995], [-122.3490239996945, 37.8172699999435], [-122.34900100012828, 37.81720799988584], [-122.34854599984361, 37.81596699995773], [-122.34718099988794, 37.81224699976899], [-122.34688100031225, 37.811427000220434], [-122.34668100029575, 37.81102700028631], [-122.34540099983055, 37.80894700018993], [-122.34156100023164, 37.802706999695104], [-122.34102099955813, 37.80183000024131], [-122.34028099976643, 37.80062800030295], [-122.33664200000894, 37.79512099980931], [-122.33658099990959, 37.795028000200396], [-122.33646700010677, 37.794845999970704], [-122.3360910003631, 37.79424300024183], [-122.33607999959415, 37.79422500022725], [-122.33516999992311, 37.79276800031724], [-122.33244300038481, 37.788398000271], [-122.3315360001885, 37.786942000052214], [-122.3308109995671, 37.785793999804916], [-122.33060999972565, 37.78547400000604], [-122.33038700014289, 37.785119999972046], [-122.3301639996618, 37.7847659996623], [-122.32962300006173, 37.783908999867236], [-122.32953199982512, 37.78376399973751], [-122.32943999976364, 37.78361799969153], [-122.32887599969905, 37.78272300012873], [-122.32880499955391, 37.78260999982031], [-122.32873400030712, 37.782497999695984], [-122.32863999969747, 37.78234999998142], [-122.3279169996242, 37.78120200011313], [-122.3249599999321, 37.776560000015394], [-122.32155499962802, 37.77121499972896], [-122.32134200009102, 37.77088099991677], [-122.31609200033057, 37.76263800031781], [-122.31313599956506, 37.75799900006808], [-122.31048000017184, 37.753829000010064], [-122.30727999990718, 37.74866799994732], [-122.30117999985184, 37.73882900011893], [-122.30028000022656, 37.73742900004578], [-122.29766800031595, 37.73319599972965], [-122.29447999974686, 37.728029999822894], [-122.29429999982182, 37.727750000021814], [-122.29376000004665, 37.726909999950855], [-122.29358000012158, 37.726630000178325], [-122.29324000036297, 37.72612999998162], [-122.29222000018878, 37.72462999974368], [-122.29188000043014, 37.72413000025567], [-122.29146000030556, 37.72347000031076], [-122.29019999993186, 37.721490000007456], [-122.28977999980732, 37.72082999998769], [-122.28886000009055, 37.71938999988157], [-122.28609900021704, 37.7150700000316], [-122.28518000032518, 37.71363000024441], [-122.2844999999096, 37.71255000033735], [-122.28245999956124, 37.70930900005265], [-122.28178000004398, 37.708229999648104], [-122.2808800004187, 37.707229999786506], [-122.27852000040316, 37.70438899981786], [-122.26886400043101, 37.69276299993582], [-122.2656459997247, 37.68888800009897], [-122.26469500004582, 37.68774399978268], [-122.26291199961537, 37.68559599985509], [-122.25471199983548, 37.675721999846616], [-122.25197899955107, 37.67243100017136], [-122.25122600023889, 37.67148000027888], [-122.25091900009224, 37.67109099980362], [-122.24773899991905, 37.667071000003915], [-122.2466789995619, 37.665731000273546], [-122.24335899964666, 37.66169300003622], [-122.2334020002739, 37.64957900005995], [-122.23008300018355, 37.645541999822086], [-122.22817199970663, 37.643216999662165], [-122.22244099972224, 37.636243999741936], [-122.22053099996849, 37.63391999977341], [-122.22025200030923, 37.63358099992516], [-122.21941600025804, 37.632564000349724], [-122.21913800042371, 37.63222600025986], [-122.21904499963898, 37.63211300004057], [-122.21871699957593, 37.63171399985602], [-122.21704100017392, 37.62967499970168], [-122.21666000040742, 37.62921100009928], [-122.21075000032289, 37.62202199988153], [-122.20865399989799, 37.619470999885046], [-122.20650899996762, 37.61686200027403], [-122.20007599982634, 37.609035000117586], [-122.1979319997209, 37.60642700002656], [-122.19765300006163, 37.60608800004752], [-122.1968189996603, 37.60507199999907], [-122.1967090000554, 37.60493900018922], [-122.19652800030545, 37.604718000155955], [-122.19642000035041, 37.60458700025137], [-122.19606700017302, 37.604157999943226], [-122.19542199991756, 37.60337300031981], [-122.19483399956349, 37.60265800028558], [-122.19442400038298, 37.60215899979245], [-122.19290799991624, 37.600314999900036], [-122.18836100013753, 37.59478400007438], [-122.18684600039404, 37.59294099968697], [-122.18681200005885, 37.592899000304406], [-122.1867099999516, 37.59277500002332], [-122.18667599961641, 37.59273399990783], [-122.18534099979794, 37.59108299992819], [-122.18133700016747, 37.58613000019919], [-122.18000300017393, 37.58447999984112], [-122.17745700038556, 37.5813309998221], [-122.1744680000081, 37.57763400033159], [-122.169820999772, 37.571884000162946], [-122.16727599980855, 37.56873500000386], [-122.16503499961874, 37.56591499986579], [-122.15831500032058, 37.557454999824756], [-122.15607499995566, 37.55463499998529], [-122.15494900037457, 37.55319900026392], [-122.15157400020773, 37.5488940001624], [-122.15044899955325, 37.5474590001879], [-122.15019400018345, 37.54713399977398], [-122.14942900027737, 37.54615900000179], [-122.14917499983416, 37.54583500032039], [-122.14729500021768, 37.54353500020434], [-122.14165499957156, 37.53663500007992], [-122.13977499995505, 37.53433599980958], [-122.13743400020608, 37.53145599981926], [-122.13041400043397, 37.52281600016429], [-122.12807399961162, 37.51993700030007], [-122.12683000002978, 37.51841899977214], [-122.12309900021079, 37.51386699971365], [-122.1218559995555, 37.51235000013174], [-122.12096299960291, 37.511257999919145], [-122.1182849995701, 37.5079849996916], [-122.11747199998345, 37.50699000021865], [-122.11739300034073, 37.50689400026632], [-122.11735300015776, 37.506849000001175], [-122.11731999964749, 37.506810999740296], [-122.11728500038569, 37.50677199965879], [-122.11724000017985, 37.50672099979549], [-122.117194999974, 37.506669999897355], [-122.11671399975008, 37.50609999971293], [-122.11623300042444, 37.50552900034672], [-122.11567900040558, 37.50487200015543], [-122.11151500004323, 37.499936999813954], [-122.11113099990366, 37.499481000225934], [-122.11024299997395, 37.498429000006254], [-122.10992900015461, 37.49805700005348], [-122.10961500033524, 37.49768499967287], [-122.10957400032737, 37.49763699978767], [-122.10399499978062, 37.49370600030945], [-122.08710300012629, 37.48180499976563], [-122.08147300042423, 37.47783800006457], [-122.07904899993628, 37.47630900023977], [-122.07177999974382, 37.471723000132314], [-122.06935699997912, 37.47019500026213], [-122.06925900006983, 37.470133000016695], [-122.06896500034193, 37.469947999979254], [-122.06886800025757, 37.46988699982414], [-122.06874699988374, 37.469809999872815], [-122.06838399966058, 37.46958199972778], [-122.06826400000999, 37.46950599976258], [-122.06707499978141, 37.46875599967702], [-122.06350799999393, 37.466505999903895], [-122.06231999959024, 37.465755999666314], [-122.06178999986084, 37.46542200023642], [-122.06020200032238, 37.46442000012406], [-122.05967300041786, 37.464087000089634], [-122.0574859997564, 37.46270699986972], [-122.05264799972458, 37.45965599965732], [-122.0519310003974, 37.45925099971012], [-122.05124400030914, 37.459007000244775], [-122.05076300008521, 37.458950999787575], [-122.05031299982342, 37.45890000007327], [-122.04896999960903, 37.45890000007327], [-122.04818499961151, 37.45897300022685], [-122.04782499976137, 37.459007000244775], [-122.04657399960848, 37.45952599971081], [-122.04585700028133, 37.45993799974076], [-122.04527099957708, 37.46027599969374], [-122.04458699986189, 37.46066599993504], [-122.04447399988396, 37.46073000031054], [-122.04439900043923, 37.4607729997188], [-122.04339400033365, 37.46134500009073], [-122.04329499970112, 37.461399000076824], [-122.04254099966572, 37.46181099976968], [-122.04176700043713, 37.462291999645394], [-122.04069799985913, 37.462975000134136], [-122.03836999963067, 37.46416000017058], [-122.0380750000779, 37.46431000017181], [-122.03726599979089, 37.46469899968551], [-122.0361820000426, 37.46496600029199], [-122.034808999691, 37.46504999990906], [-122.03375599990484, 37.46512600012635], [-122.03165100015745, 37.46524099995182], [-122.02989600021444, 37.465316999974995], [-122.0277749996752, 37.46546899978953], [-122.02685900015636, 37.46552999998476], [-122.02542499970542, 37.46563000032565], [-122.02380799985464, 37.46542400023314], [-122.02348700036256, 37.4653549999576], [-122.02252599973963, 37.46515000017896], [-122.02247200021127, 37.465138999799294], [-122.0222010000496, 37.4651249997675], [-122.02115300028635, 37.4650730003395], [-122.02087200007894, 37.465138999799294], [-122.01621499979709, 37.46553999995355], [-122.00379600030158, 37.466610000295404], [-122.00243399982064, 37.46672699993907], [-122.0010730000629, 37.46684400011258], [-121.99997199969785, 37.466938999875026], [-121.99982199991005, 37.46695300028015], [-121.99824799971697, 37.46709499986101], [-121.99777099969101, 37.46713900021868], [-121.99717099964138, 37.46713900021868], [-121.99667100004916, 37.46723899983332], [-121.99647100003263, 37.46703899975719], [-121.99550199991208, 37.46674399996956], [-121.99431100003365, 37.4660489998076], [-121.99297500039029, 37.46492299972998], [-121.99266900006853, 37.46463899989071], [-121.98943500036701, 37.46368100023371], [-121.98017100003202, 37.46093900031977], [-121.98001399967319, 37.46089200005816], [-121.9790710003902, 37.46083900012213], [-121.97847399981531, 37.46080899975154], [-121.97507100005939, 37.46063900003872], [-121.97477200030862, 37.460738999790756], [-121.9747060001864, 37.4607400002083], [-121.97447100000976, 37.460738999790756], [-121.97082100038162, 37.46150699993203], [-121.9685240001153, 37.46195299984735], [-121.96811200038664, 37.46215000021152], [-121.9680739998535, 37.46216800025509], [-121.96706399972503, 37.46248699975418], [-121.96595099966443, 37.46281299990819], [-121.96415700026166, 37.46315099970009], [-121.95931300038205, 37.46351500001595], [-121.9592609996052, 37.46350499977626], [-121.95762399966296, 37.463199000352475], [-121.9558889998114, 37.46273000030788], [-121.95557900019001, 37.462640000010005], [-121.95537800034855, 37.462582000061715], [-121.95445100006077, 37.46220400032926], [-121.95440199965698, 37.4621930002292], [-121.95438699958838, 37.462186000294366], [-121.95410899975401, 37.46211200002604], [-121.95339099970361, 37.461945000201645], [-121.95281900014142, 37.4616740000216], [-121.95192100016595, 37.46146099972226], [-121.95176600035526, 37.461455000126875], [-121.9507329997623, 37.461417999996634], [-121.94960200015831, 37.46140800018954], [-121.94937500037761, 37.461495999729436], [-121.94897899964417, 37.46153799971637], [-121.94812599987455, 37.46184499992329], [-121.94784200019242, 37.46197799989335], [-121.94704100030134, 37.46260200007354], [-121.94640899956637, 37.46336200012449], [-121.94617400028804, 37.463946000161215], [-121.94616699971701, 37.46448699981473], [-121.94627600039529, 37.46480299973868], [-121.94662399965152, 37.46540800025762], [-121.9467719997895, 37.46566400016866], [-121.94699000024772, 37.466251999998654], [-121.94698699987468, 37.46647700000888], [-121.9470870003321, 37.467424000158196], [-121.94691400007973, 37.46764799988097], [-121.9469120004299, 37.467783000156835], [-121.94679699990387, 37.4679180001889], [-121.94678100001035, 37.467965000311864], [-121.9466789999031, 37.46827699995415], [-121.94644899974932, 37.46859000003277], [-121.94593400008851, 37.468991000213876], [-121.94589399990555, 37.46900599982864], [-121.94547899980385, 37.469168000182016], [-121.94491399991432, 37.46916300008397], [-121.94452200027716, 37.4688890001869], [-121.94424400044282, 37.46852599996837], [-121.94413700031268, 37.46811899965815], [-121.94414399998539, 37.46762300030485], [-121.94431700023777, 37.467400000122595], [-121.94433200030635, 37.466309000321985], [-121.94433499978109, 37.466093000067886], [-121.94422600000115, 37.46582199994922], [-121.94377900011241, 37.46545699981543], [-121.94347100014085, 37.46534800031878], [-121.9433640000107, 37.46528099997364], [-121.94325699988059, 37.46521400028148], [-121.94310100024497, 37.46511600010219], [-121.9430450001685, 37.46510400007142], [-121.94235700025531, 37.46496299992194], [-121.94157800010555, 37.46494499983822], [-121.9414910000669, 37.46494400018992], [-121.94127799963158, 37.46494400018992], [-121.94118200027043, 37.464946000199475], [-121.94108500018604, 37.464948000208935], [-121.9407920002831, 37.46470899976549], [-121.94059399991637, 37.46444999975886], [-121.94051500027362, 37.464345999927694], [-121.94046199967188, 37.46407499989365], [-121.94017899981468, 37.46346300018117], [-121.94002300017907, 37.46312499966061], [-121.93951400036603, 37.4627100003303], [-121.93924099965625, 37.46248699975418], [-121.93890300044575, 37.46239400011677], [-121.93879999961527, 37.462414999860954], [-121.93869699968312, 37.462436000312344], [-121.93832799961217, 37.462510000260025], [-121.93795799971633, 37.462584999814254], [-121.93788400009646, 37.462599000321674], [-121.93647800013291, 37.46288300006646], [-121.93602500039637, 37.46292900011445], [-121.93538000014091, 37.4626689999673], [-121.93498699978053, 37.46246399995426], [-121.93497599990988, 37.462376000127556], [-121.93496000001633, 37.46223499982469], [-121.93494999997058, 37.46214499964404], [-121.93494699959753, 37.46211999965387], [-121.93521399956124, 37.461585999978205], [-121.93525499956914, 37.46150400013623], [-121.93529599957701, 37.46142099979587], [-121.93527700020874, 37.46132699984905], [-121.93524200004863, 37.46106800024885], [-121.93513699956834, 37.46083999982527], [-121.93494099974977, 37.46066399981099], [-121.9347320004107, 37.46052400026549], [-121.93411599956926, 37.46033100016178], [-121.93357800034222, 37.46027099971401], [-121.93289600027683, 37.460265999733934], [-121.932374000045, 37.460351999772335], [-121.93249500041883, 37.46041900025608], [-121.93261599989434, 37.46048599996672], [-121.93277800027606, 37.46057600000502], [-121.93294099958436, 37.46066700035355], [-121.93306899963088, 37.460738000086224], [-121.93337800032566, 37.460762000121235], [-121.93267000032102, 37.460973999858204], [-121.93208500034001, 37.46099900023154], [-121.93193399982894, 37.46097699967527], [-121.93147100004667, 37.4609110001068], [-121.93119900006013, 37.460643999993856], [-121.93119900006013, 37.46041299986401], [-121.93112799991502, 37.460158000225476], [-121.93138999985582, 37.45959499966119], [-121.93136999976436, 37.45909999981632], [-121.9315210002754, 37.45883100019463], [-121.9314509999552, 37.45839900006571], [-121.9314099999473, 37.45818700015921], [-121.93117899996862, 37.45791099977054], [-121.93112799991502, 37.45739000029373], [-121.93124500009087, 37.457353000291405], [-121.93188199995045, 37.45715800034275], [-121.93219499994485, 37.45706100005464], [-121.93250700011438, 37.456965000108745], [-121.93258199955915, 37.45694200003655], [-121.93265600007732, 37.456918999957274], [-121.93271200015381, 37.4568420001985], [-121.93287600018536, 37.456238999781434], [-121.93288399968294, 37.45584399970857], [-121.93289899975157, 37.455447000138264], [-121.9326259999401, 37.455146999930875], [-121.93206900044649, 37.455276999645584], [-121.93146199982586, 37.45575999973278], [-121.9313739999623, 37.455829000305584], [-121.93095200018793, 37.45615800025972], [-121.93053100023845, 37.45648899971538], [-121.93028299964298, 37.45661500019825], [-121.93013500040331, 37.456690999718994], [-121.92948099992701, 37.45683999997217], [-121.92937299997197, 37.45686500030145], [-121.92920700029062, 37.45685299965952], [-121.92912799974961, 37.456909000261646], [-121.92904900010687, 37.456965000108745], [-121.92892600008322, 37.457052000131775], [-121.9288020002347, 37.45713999980629], [-121.92860899989081, 37.457276000266376], [-121.92844400003437, 37.45739400000381], [-121.92829699972128, 37.45733199983866], [-121.92816600020004, 37.457302999950755], [-121.92802499973472, 37.45725000032338], [-121.92779299993114, 37.457124000197275], [-121.92756100012755, 37.4569249999166], [-121.92746099967012, 37.45670499990381], [-121.92741800001241, 37.45654300035581], [-121.92741999966222, 37.456371999739076], [-121.92744099957865, 37.45627900034048], [-121.92749500000531, 37.456122999893374], [-121.92755899957942, 37.45600000002453], [-121.92772599998398, 37.45568300020688], [-121.9277960003042, 37.455549999737066], [-121.92786599972607, 37.45541599996817], [-121.92790000006126, 37.45535200003641], [-121.92788900019062, 37.45533300000158], [-121.92785999987828, 37.455278999913666], [-121.92784999983255, 37.455262000128876], [-121.92778600025846, 37.45521400008635], [-121.92765499983886, 37.45514799971016], [-121.92763300009759, 37.45513600021895], [-121.92762200022692, 37.455130999895545], [-121.92738399967722, 37.455036000105366], [-121.92736299976082, 37.45502900021363], [-121.92707599970565, 37.45517899999134], [-121.92703999972065, 37.45519299974603], [-121.92697100012366, 37.45522000018247], [-121.92690099980348, 37.455249000164926], [-121.92685999979558, 37.45524600011809], [-121.92675500021359, 37.45524099980203], [-121.92660399970256, 37.455059999831064], [-121.92658100013632, 37.45503200026923], [-121.92657100009058, 37.45502099982721], [-121.92642999962528, 37.454867999670675], [-121.9264170001048, 37.454840999820284], [-121.92635600000544, 37.454707999992436], [-121.92629400008114, 37.45457300035425], [-121.92619699999676, 37.454545999684285], [-121.92594500010169, 37.45447899964352], [-121.92578299971997, 37.454436000181815], [-121.92571199957486, 37.45441699991422], [-121.92563999960485, 37.45439699985262], [-121.92562100023659, 37.45439500027402], [-121.92556599998498, 37.454389999901075], [-121.92554800044167, 37.45438900011166], [-121.92539299973265, 37.45429499988282], [-121.92535400027292, 37.45429400009213], [-121.92522399967822, 37.4542930003015], [-121.92504100027844, 37.45418599980327], [-121.92474599982737, 37.45435400034371], [-121.92459299966649, 37.45444099983856], [-121.92447999968856, 37.45450600033774], [-121.92439799967282, 37.45454700018467], [-121.92437500010661, 37.45455899977038], [-121.92356699964449, 37.454986000355], [-121.92326200004597, 37.455153000032425], [-121.92300099993005, 37.45529599969464], [-121.92296199957201, 37.455317000005984], [-121.92283699989855, 37.45538600027438], [-121.92256900010995, 37.45553800031036], [-121.92230499962098, 37.45567899969223], [-121.92107500028281, 37.45634199971571], [-121.919018000216, 37.45745099994927], [-121.91892799980431, 37.457498000234416], [-121.91735299978633, 37.45834500005237], [-121.91726499992279, 37.45839100003979], [-121.91709699969331, 37.458472999730105], [-121.91635899955142, 37.458839999903404], [-121.91580500043088, 37.45909900008992], [-121.9153359999025, 37.459309000102955], [-121.91488399999089, 37.45954799998092], [-121.91439699991916, 37.459773999917694], [-121.91390300017477, 37.460021000301104], [-121.91345899976073, 37.46024700023448], [-121.91317699972845, 37.46040200021349], [-121.91303100013857, 37.46047100006862], [-121.9128300002971, 37.46056600008538], [-121.91265200002188, 37.46064999965432], [-121.91201500016234, 37.46095999975958], [-121.9108870000331, 37.46148599993277], [-121.91133200027203, 37.46223600022221], [-121.90916200022731, 37.462977999870915], [-121.90912899971703, 37.462995000040834], [-121.90892299985272, 37.46301299988103], [-121.90872799985904, 37.46303099971684], [-121.90858100044424, 37.463043000080326], [-121.90812399961145, 37.463199000352475], [-121.90808599997663, 37.46321000030453], [-121.90759999972983, 37.46340999992842], [-121.90746699966043, 37.46343700025019], [-121.9073880000177, 37.46346999999646], [-121.90733899961388, 37.46335300024697], [-121.9073110000248, 37.463286000253134], [-121.90729099993334, 37.46329199970161], [-121.90722300016128, 37.463314000289785], [-121.90706900017548, 37.46336400017636], [-121.90707699967308, 37.46340999992842], [-121.90709400028985, 37.46350200006063], [-121.90710799963522, 37.46358900032177], [-121.90701099955083, 37.4636280001355], [-121.90683499982374, 37.46371999999946], [-121.90672000019603, 37.463745999832035], [-121.90666599976934, 37.46375899974487], [-121.90637200004147, 37.46382600002788], [-121.90635399959979, 37.463830999769904], [-121.90600100032071, 37.46392700017076], [-121.90551900027187, 37.46411600019868], [-121.90523999971428, 37.464227000094255], [-121.90519600023168, 37.464233999838015], [-121.90506499981211, 37.464258999834385], [-121.9050220001544, 37.46426699994555], [-121.90495100000929, 37.464283000165246], [-121.904740999947, 37.46433300011686], [-121.9046709996268, 37.4643499999787], [-121.90452000001407, 37.464387999739806], [-121.90440000036347, 37.464418999755765], [-121.90435400033273, 37.464432000264615], [-121.90433900026409, 37.464434999942995], [-121.90429599970807, 37.4644459997132], [-121.90406700027752, 37.4645020003332], [-121.9039169995914, 37.46454000001705], [-121.90376000013087, 37.46457799968159], [-121.90357500018295, 37.46462400011276], [-121.90333300033362, 37.464667999785654], [-121.90328700030285, 37.464667999785654], [-121.90312699957097, 37.464667999785654], [-121.90303399968455, 37.464657999700236], [-121.90281699994956, 37.46463499985517], [-121.90275599985021, 37.46463699987294], [-121.9026639997887, 37.464642000273756], [-121.90257500010026, 37.46464600030893], [-121.90237900028166, 37.464702000066154], [-121.90223100014367, 37.464745000042285], [-121.902064999564, 37.46479400003462], [-121.90156900016976, 37.464893000284974], [-121.90152399996391, 37.4649039999878], [-121.90130700022893, 37.46495800025561], [-121.90123100006097, 37.4649919996912], [-121.90101099995293, 37.46509000003307], [-121.90077800032441, 37.46521000027669], [-121.90037999994117, 37.4654289998683], [-121.90013300006895, 37.46552200000874], [-121.89989299986945, 37.465642000272], [-121.89960400016446, 37.465719000238465], [-121.89925299963686, 37.46577400026779], [-121.8989730001527, 37.465845000142146], [-121.89884199973311, 37.465954000340226], [-121.89838200032389, 37.46655100023505], [-121.89830600015588, 37.46666099974211], [-121.89820999989644, 37.4667099999047], [-121.8980519997127, 37.46675900003519], [-121.8980380003673, 37.46676800021572], [-121.89785300041939, 37.46688000007432], [-121.89765300040284, 37.46697299983574], [-121.89734200005822, 37.46702300012731], [-121.89698399985792, 37.46704500033054], [-121.89682499984926, 37.46707200005264], [-121.89664599974914, 37.467120999945855], [-121.89650799965686, 37.46720399966255], [-121.89630099996761, 37.467292000223686], [-121.89608800043062, 37.46731300001823], [-121.89588800041406, 37.46735200002836], [-121.89565300023743, 37.46741199978488], [-121.89499200008844, 37.467544000220464], [-121.89461899981954, 37.4675819997841], [-121.89429499995444, 37.467620000041435], [-121.89406099960269, 37.467636999868866], [-121.89379199998919, 37.46766999990028], [-121.89360600021634, 37.46767500009824], [-121.89323399977236, 37.4676640000901], [-121.89295799958782, 37.46767500009824], [-121.89248899995778, 37.46774100011294], [-121.89220000025279, 37.46774600030615], [-121.89194499998466, 37.46781200025818], [-121.89138599994291, 37.46784999968564], [-121.89113099967479, 37.46790999975542], [-121.8908560002135, 37.46798200006078], [-121.89075900012912, 37.468038000171134], [-121.89063500028054, 37.46810799971536], [-121.8904069997766, 37.468321999932215], [-121.89024199992016, 37.468568999884006], [-121.89002799965992, 37.46891000024577], [-121.88993800014654, 37.469112999797744], [-121.88979300038159, 37.469382000216285], [-121.88968999955111, 37.46959600035085], [-121.88967100018286, 37.46962700034623], [-121.88952399986975, 37.4698769997238], [-121.88935200034064, 37.47010200023121], [-121.88917900008825, 37.47025499987568], [-121.88899300031545, 37.470365000349204], [-121.88866199987932, 37.47053500004966], [-121.88838599969479, 37.47065099968206], [-121.88802699966959, 37.470821000158004], [-121.88773799996461, 37.47093599977844], [-121.88741400009948, 37.471012999995764], [-121.88704199965551, 37.47108399988511], [-121.88631100008462, 37.47128699994987], [-121.88596600030313, 37.47137499998225], [-121.88541399993409, 37.47140700022758], [-121.88515899966596, 37.47141299973733], [-121.88493199988523, 37.47138499988214], [-121.88473199986869, 37.471329999703165], [-121.88456000033958, 37.471275000196684], [-121.8844149996763, 37.471203999775796], [-121.88436899964553, 37.4711729997215], [-121.88429099982774, 37.47112100022247], [-121.88402200021422, 37.47083499983609], [-121.88389099979466, 37.47076899970118], [-121.8837400001819, 37.47073100033168], [-121.88360200008965, 37.470753000156634], [-121.88346399999739, 37.47076399971023], [-121.88333299957782, 37.470753000156634], [-121.8830849998807, 37.47067000010258], [-121.88260299983185, 37.47055399978664], [-121.8824160002341, 37.47059800024729], [-121.88227200029407, 37.470648000253135], [-121.88210700043763, 37.47068300023737], [-121.88199600010954, 37.47070800021605], [-121.88163700008435, 37.47086700031259], [-121.88115500003548, 37.47107599979052], [-121.88086499960725, 37.471246000012805], [-121.88070999979655, 37.47131900023286], [-121.88054099974217, 37.471399999729485], [-121.88025100021225, 37.47154800034336], [-121.87989999968465, 37.47175599978587], [-121.87985899967678, 37.47178900013777], [-121.87968600032272, 37.47193200006853], [-121.8794650003898, 37.472168000153694], [-121.8793199997265, 37.472349000064504], [-121.87925799980223, 37.47254199980165], [-121.87909499959562, 37.47290799981851], [-121.8790779998772, 37.472948000015606], [-121.87900199970919, 37.47318999982458], [-121.87891899986853, 37.47333199967771], [-121.87879500001996, 37.473441999900636], [-121.87862299959254, 37.47355800001213], [-121.87840000000975, 37.47376300026072], [-121.87823599997822, 37.473915000012454], [-121.87811200012968, 37.47404600013206], [-121.8779949999538, 37.47420599978168], [-121.87790500044042, 37.4744199996509], [-121.87782199970142, 37.4746730000884], [-121.87772600034029, 37.47490300013177], [-121.87758800024804, 37.475061999859584], [-121.87745000015576, 37.47518300000416], [-121.87723599989553, 37.47522699987856], [-121.87716800012348, 37.475220999962026], [-121.87711200004698, 37.47521600026888], [-121.87695999971102, 37.47518300000416], [-121.87678800018185, 37.47513300018029], [-121.87656700024894, 37.47511700014404], [-121.87650399960143, 37.47512100033164], [-121.8762619997521, 37.47492399992691], [-121.87577899987835, 37.47499899985991], [-121.87520499976797, 37.475215000045], [-121.87461200028937, 37.47576699966212], [-121.87429000007408, 37.47636199990244], [-121.87421499973102, 37.47663699970086], [-121.8740089998667, 37.47740700016894], [-121.87390000008673, 37.47757000032914], [-121.87369300039751, 37.47784499995966], [-121.87364499981862, 37.47787799976178], [-121.87352099997005, 37.477926999700315], [-121.87343800012937, 37.477965999875714], [-121.87333099999925, 37.478000999997576], [-121.87330699970983, 37.47801000025028], [-121.87314199985337, 37.47805399988608], [-121.87297600017202, 37.47813600011025], [-121.87286599966885, 37.47819699994914], [-121.87274199982029, 37.47825200006504], [-121.87255600004744, 37.478378000229874], [-121.87170800030071, 37.478866999705886], [-121.87149499986538, 37.47899899987319], [-121.87104700015172, 37.479241000049555], [-121.87090900005947, 37.47933500028377], [-121.8708839999451, 37.47935799988322], [-121.87078500021089, 37.47945000034886], [-121.87072999995932, 37.479538000037316], [-121.87066100036235, 37.479626000335074], [-121.87064000044595, 37.47971399981631], [-121.87064700011864, 37.47980700000604], [-121.87064700011864, 37.47993899993858], [-121.87061299978345, 37.480066000269275], [-121.87056500010287, 37.480175999848], [-121.87055699970695, 37.48019200022685], [-121.87051700042228, 37.48025600028234], [-121.87048899993489, 37.480329000256454], [-121.87040699991911, 37.480422999834936], [-121.87039100002562, 37.4804390001609], [-121.87033900014706, 37.480492999899205], [-121.87031700040575, 37.480515999855065], [-121.87021399957528, 37.48059300018276], [-121.8701309997346, 37.48069799965929], [-121.87011499984106, 37.480729000039986], [-121.87007600038133, 37.48080799973335], [-121.87004799989393, 37.48096100027353], [-121.8700450004192, 37.481026999962545], [-121.87004200004614, 37.48111499993243], [-121.87005600028985, 37.48118600020523], [-121.87007600038133, 37.481291000274155], [-121.87005600028985, 37.48144499996574], [-121.87000100003827, 37.48153800013965], [-121.86997799957372, 37.48158400011387], [-121.86993900011397, 37.481664999891116], [-121.8699340000911, 37.48167999981388], [-121.86934599973704, 37.48204899967348], [-121.86778400013787, 37.48303300013203], [-121.86758400012133, 37.48315900007633], [-121.86699699959219, 37.483528999872675], [-121.86633399979337, 37.483951999957384], [-121.86529199987785, 37.48461999995259], [-121.8652669997635, 37.484637000190375], [-121.8641749996193, 37.4846249997294], [-121.86342200030711, 37.48461699965862], [-121.86338899979684, 37.48461699965862], [-121.86252299960844, 37.48460700010355], [-121.85992599976643, 37.48458000030026], [-121.8590610003013, 37.48457100012606], [-121.85872700039043, 37.48456699973147], [-121.85772700030775, 37.484557000169715], [-121.8573940002218, 37.48455399987322], [-121.85576200030242, 37.48453700032934], [-121.85065099956081, 37.484437000334445], [-121.85060899972801, 37.484437000334445], [-121.84624000022457, 37.48443600023403], [-121.84619699966854, 37.48443500013361], [-121.83787600041316, 37.484373000295996], [-121.833049000252, 37.4843370002057], [-121.83286599995391, 37.48433600010396], [-121.83272700003671, 37.48432599979843], [-121.83176399976394, 37.4842619996649], [-121.83144400009678, 37.484241000355375], [-121.83136600027898, 37.48423599984003], [-121.8303879999376, 37.48423599984003], [-121.82722100018323, 37.48423599984003], [-121.82701699996872, 37.48423599984003], [-121.82659199982126, 37.48423599984003], [-121.82616599984893, 37.48423599984003], [-121.82566000040893, 37.48423599984003], [-121.82414200029238, 37.48423599984003], [-121.82386600010788, 37.48423599984003], [-121.823636999779, 37.4842340003466], [-121.8228340002381, 37.48422500013073], [-121.82042599964369, 37.48419900029298], [-121.8196239999277, 37.484191000176594], [-121.81584500042814, 37.48415100029458], [-121.80450999978262, 37.4840309998072], [-121.8018340002979, 37.484002999689544], [-121.80073200010796, 37.48399099983953], [-121.79967000010099, 37.48399199994595], [-121.79648699955476, 37.48399400015863], [-121.79542700009591, 37.483995999658475], [-121.78623499973092, 37.48423599984003], [-121.76982900032341, 37.48407600027985], [-121.76974700030765, 37.484075000174606], [-121.76971799999535, 37.484074000069356], [-121.76963099995669, 37.484074000069356], [-121.7696019996444, 37.484074000069356], [-121.76942300044254, 37.484071999858756], [-121.76888899961688, 37.48406599993958], [-121.76871100023993, 37.4840649998342], [-121.76806000013669, 37.48405799980895], [-121.76610799965185, 37.4840400000465], [-121.76545800027183, 37.484034000124694], [-121.76063199993558, 37.48401500025042], [-121.7590979999255, 37.48400900032662], [-121.74615399982514, 37.48395799988572], [-121.74132800038718, 37.48394000009918], [-121.74128099963323, 37.48394000009918], [-121.7412570002421, 37.48393799988504], [-121.74118600009699, 37.48393500027653], [-121.74116299963244, 37.48393500027653], [-121.73686600009898, 37.48388499989296], [-121.73681400022048, 37.483883999785114], [-121.73576499973399, 37.48387300002398], [-121.7345930001221, 37.48386000004502], [-121.72500800029509, 37.48375000018706], [-121.7195740004116, 37.48368699967051], [-121.71496099961236, 37.48363500032436], [-121.71417800016293, 37.48360999967993], [-121.71255600028931, 37.4835580002802], [-121.6909410002309, 37.48286200022421], [-121.69092899963701, 37.48285500008624], [-121.69013799979169, 37.48283700003397], [-121.69005999997387, 37.48283399966845], [-121.68907900015773, 37.48282799964981], [-121.6888869996388, 37.482827000240654], [-121.68179900009463, 37.48279100011829], [-121.67940100044427, 37.48277900007367], [-121.67085799963444, 37.482734000245536], [-121.67039900005011, 37.482740000271676], [-121.66173700031288, 37.48283300025938], [-121.66105199987443, 37.48283100001561], [-121.66099699962285, 37.48283100001561], [-121.6609439999194, 37.48283100001561], [-121.65662399992145, 37.48281500020182], [-121.65589699965021, 37.48281199983536], [-121.65044400039848, 37.48279100011829], [-121.64060000010534, 37.482753999855646], [-121.63550099995761, 37.482734999655875], [-121.63541599956879, 37.482734000245536], [-121.6351629998488, 37.48273300012227], [-121.6350830003812, 37.48273300012227], [-121.63502700030469, 37.48273300012227], [-121.62896400005926, 37.48266799992575], [-121.62822300044265, 37.482659000234094], [-121.62600099962108, 37.48263500010045], [-121.62526099982935, 37.482627999941215], [-121.62509000012516, 37.482627999941215], [-121.62457899976398, 37.48263100031506], [-121.62440899988465, 37.48263299985138], [-121.62435799983105, 37.48263299985138], [-121.62420800004321, 37.48263299985138], [-121.6241579998145, 37.482633999975924], [-121.62345499983272, 37.482633999975924], [-121.62317899964818, 37.482633999975924], [-121.62064399973049, 37.482633999975924], [-121.62055699969184, 37.482633999975924], [-121.6203209996903, 37.482633999975924], [-121.60863500031383, 37.482633999975924], [-121.60836400015216, 37.48263299985138], [-121.60828399978621, 37.48263299985138], [-121.59888300008218, 37.4825900001856], [-121.58619900027284, 37.48253300015946], [-121.56435499988554, 37.48243300033368], [-121.55975500040341, 37.48253300015946], [-121.53304000037237, 37.48243300033368], [-121.5322329997352, 37.48243200020645], [-121.53221600001675, 37.48243200020645], [-121.52724200044081, 37.48242199964607], [-121.52686300032414, 37.48242199964607], [-121.52668699969871, 37.482421000231554], [-121.52638799994799, 37.482421000231554], [-121.52576500033211, 37.48242000010411], [-121.52573299964678, 37.48242000010411], [-121.52541899982741, 37.4824189999767], [-121.52502800001517, 37.48242000010411], [-121.51928899963482, 37.482409000127454], [-121.5184269996444, 37.48240699987233], [-121.5177730000664, 37.48240799999989], [-121.5169219999466, 37.48240500032996], [-121.51676700013594, 37.48240500032996], [-121.51661099960198, 37.48240599974469], [-121.51642599965407, 37.48240599974469], [-121.51624099970614, 37.48240400020235], [-121.51621800013993, 37.48240400020235], [-121.50106700018492, 37.4823799999868], [-121.48763500018792, 37.4823559997636], [-121.48751499963902, 37.482356999891856], [-121.4874229995775, 37.482356999891856], [-121.48732999969108, 37.482356999891856], [-121.48582900019129, 37.48235400021987], [-121.48417999965514, 37.4823509998349], [-121.48325300026568, 37.48234900029104], [-121.47552700013874, 37.48233700017542], [-121.47295200003808, 37.48233299966121], [-121.47289099993871, 37.48229999968795], [-121.47270799964059, 37.482201999811004], [-121.47264800026446, 37.48216999991064], [-121.47192500019119, 37.48178300034248], [-121.47160999964859, 37.482387000169275], [-121.47119799991995, 37.48282899977174], [-121.47105999982769, 37.48331699994382], [-121.47105999982769, 37.48369900028221], [-121.47113599999567, 37.48440800026811], [-121.47119799991995, 37.48503400015734], [-121.4707860001913, 37.485293000122674], [-121.47051099983169, 37.48546099990908], [-121.47051099983169, 37.48568300029482], [-121.47065399994683, 37.48598099970484], [-121.47072400026703, 37.4861249996444], [-121.47037399956434, 37.48678100005427], [-121.47003800000365, 37.487108999881116], [-121.46982399974344, 37.48832999969255], [-121.46962600027503, 37.48882599990587], [-121.46927499974743, 37.489092999859935], [-121.46921399964808, 37.48936000028524], [-121.46927499974743, 37.48968800019276], [-121.46968700037439, 37.48999300020311], [-121.4699619998357, 37.490314000030374], [-121.47037399956434, 37.490466000328844], [-121.47074000016055, 37.490793999656454], [-121.47093799962893, 37.49118300032331], [-121.47148699962494, 37.491519000111516], [-121.4719600003513, 37.49173300029184], [-121.47237200007993, 37.49222900000426], [-121.47293699996945, 37.49244900024773], [-121.47376100032507, 37.49277700013316], [-121.47438700031395, 37.49355500016813], [-121.47486000014196, 37.494050999897546], [-121.47548500030595, 37.494531999706425], [-121.47589700003459, 37.49527200027132], [-121.47603500012686, 37.49542399974544], [-121.47638599975615, 37.495577000286936], [-121.4771719995786, 37.49561399990031], [-121.477713000077, 37.495890000059426], [-121.47807899977488, 37.496338999894874], [-121.47936199971481, 37.49648399976185], [-121.47980899960356, 37.49764900029638], [-121.48006999971948, 37.49790500023681], [-121.48051999998127, 37.498590000093294], [-121.48074000008928, 37.499776999675476], [-121.48146900001034, 37.50026700008579], [-121.482064999862, 37.50143899986283], [-121.48346199960474, 37.50127800021726], [-121.48376999957632, 37.50115999991574], [-121.4849079997513, 37.501239000095936], [-121.48556600042554, 37.50139100025268], [-121.48659300027242, 37.501387999919714], [-121.48746699995846, 37.50178400007232], [-121.48822199981878, 37.501961000044474], [-121.48938099991013, 37.50214199976319], [-121.49008899991478, 37.50212499994611], [-121.49141200003767, 37.50234100010124], [-121.49191199962986, 37.50236600017784], [-121.49318299987422, 37.50242100031683], [-121.49320100031588, 37.502433999916185], [-121.49359399977796, 37.502717000226724], [-121.49412600005552, 37.503486000009424], [-121.49506900023682, 37.504356000087355], [-121.496017000441, 37.50493800009746], [-121.49553299984402, 37.505196000347595], [-121.49521300017686, 37.506859999941796], [-121.49561099966179, 37.50761499989672], [-121.49538200023127, 37.50813299980866], [-121.49552100014844, 37.508659000035955], [-121.49568099998203, 37.50874100015744], [-121.49667600004184, 37.50921099981103], [-121.49665400030052, 37.51010800000287], [-121.49667699986674, 37.510198000139646], [-121.4968430004464, 37.51096699982096], [-121.49712999960329, 37.51178299976816], [-121.49716200028867, 37.51229300001474], [-121.49723199971054, 37.512462999797556], [-121.49810200009689, 37.51359500000416], [-121.49847100016784, 37.51368199966018], [-121.49857499992493, 37.514090999861715], [-121.499307000219, 37.51476799973134], [-121.49986999956042, 37.51510799974781], [-121.49993999988061, 37.51624199979909], [-121.5002439996542, 37.51655800030478], [-121.50116799956893, 37.516866999672146], [-121.50184200013672, 37.517633000073765], [-121.50237100004122, 37.518470000192636], [-121.50135099986704, 37.51896500007398], [-121.50074599979456, 37.51966099997496], [-121.4998689997355, 37.52006600026454], [-121.4995800000305, 37.520140000138], [-121.49908399973796, 37.52102400015308], [-121.4989620004375, 37.52163400013981], [-121.49826799977826, 37.522426999720274], [-121.49895499986651, 37.52299600031525], [-121.50056000002171, 37.52390399968075], [-121.50076599988603, 37.52431000001636], [-121.50147499971561, 37.525002999833184], [-121.50239699998052, 37.52534000015341], [-121.50340299991099, 37.525603999843966], [-121.50406700043304, 37.52567300004624], [-121.50441999971214, 37.52586300015991], [-121.50491000015688, 37.52573700031106], [-121.50505900011981, 37.525660000219524], [-121.50541800014503, 37.52547800027011], [-121.50636799999901, 37.52554899968863], [-121.50788299974252, 37.52477399972996], [-121.50990600037248, 37.524625000277744], [-121.51150899997953, 37.525074999972404], [-121.51283100027752, 37.52509900000334], [-121.51367400000139, 37.52475800035291], [-121.51413699978366, 37.52491700011019], [-121.51528400017946, 37.52492599969649], [-121.5157529998095, 37.525175999961526], [-121.51674899969424, 37.52551199994989], [-121.51766099991342, 37.52526399991813], [-121.51913399982413, 37.52444700033642], [-121.52042199978692, 37.52458900035587], [-121.5214970002127, 37.52475599980715], [-121.522328000241, 37.52470500012104], [-121.5225950002047, 37.52504299991911], [-121.52305100031428, 37.52562100001328], [-121.52386200025111, 37.52621200034899], [-121.52547800027693, 37.526507999954454], [-121.52572500014917, 37.526688999993716], [-121.52620100035023, 37.527036000108396], [-121.52712799973969, 37.527163000141066], [-121.52789400036899, 37.52738700027196], [-121.52881699956048, 37.528059999706926], [-121.5298970000091, 37.52704800016562], [-121.53038599973067, 37.52706099975046], [-121.53082699977162, 37.52729400020065], [-121.53136400007206, 37.527396999797766], [-121.53172100044742, 37.52822100000343], [-121.53225700002464, 37.52821900026291], [-121.53269399986765, 37.528652999683544], [-121.5329370004402, 37.52865999980291], [-121.53361600013255, 37.52888699965302], [-121.53417900037223, 37.52860499976348], [-121.5350849998453, 37.528801000133164], [-121.53577199993356, 37.52908299999412], [-121.5361900004083, 37.529080000061846], [-121.53629199961723, 37.529531000162784], [-121.53707900016292, 37.52975199968902], [-121.53794600017625, 37.52973000014272], [-121.53942499993475, 37.52958399981551], [-121.54015800005375, 37.529883999680436], [-121.5406109997903, 37.5298219998215], [-121.54183299963084, 37.53021500026129], [-121.54262799967414, 37.530849000216946], [-121.54327999960229, 37.53159299983841], [-121.54575400031895, 37.53253200024187], [-121.54685399996076, 37.53503200020565], [-121.5483550003589, 37.53593200024941], [-121.5504540002585, 37.539331999817286], [-121.5566549996979, 37.542732000344024], [-121.5566549996979, 37.5455860002084], [-121.5566549996979, 37.546474999846964], [-121.5566549996979, 37.54914599974515], [-121.55665600042111, 37.550036000305234], [-121.55665600042111, 37.5500659997388], [-121.55665600042111, 37.550158999900454], [-121.55665600042111, 37.55018999992856], [-121.55665600042111, 37.55033100014636], [-121.55669700042898, 37.55502200006171], [-121.55678799976728, 37.56510200027915], [-121.55682799995023, 37.56951900006184], [-121.55687200033118, 37.57435299975935], [-121.55689300024757, 37.57664400016675], [-121.55695500017187, 37.58352200017743], [-121.55697699991316, 37.58581600015057], [-121.55703100033982, 37.591780000045404], [-121.55719299982323, 37.60967200010016], [-121.55724800007481, 37.61563699977275], [-121.5572489998997, 37.615834999879354], [-121.5572549997475, 37.61643199985553], [-121.55725700029565, 37.61663099973116], [-121.55725599957242, 37.616670999734836], [-121.55725300009767, 37.61679400028737], [-121.55725300009767, 37.61683499995189], [-121.55717500027988, 37.62050799970361], [-121.55694099992816, 37.631527999658395], [-121.55686399993526, 37.63520199999207], [-121.55686200028543, 37.63528799976003], [-121.55685700026257, 37.635531000320036], [-121.55685899991238, 37.63554700009775], [-121.55687399998102, 37.635633000177805], [-121.55688400002673, 37.63569800009778], [-121.5569169996387, 37.635893000228045], [-121.55692800040765, 37.63595900012337], [-121.55695699982165, 37.636129999741115], [-121.55695699982165, 37.642690000045924], [-121.55695699982165, 37.66289200005313], [-121.55695699982165, 37.66419999983495], [-121.55695699982165, 37.66422600019284], [-121.55695699982165, 37.669627000019624], [-121.55695699982165, 37.669830000063016], [-121.55695699982165, 37.670438999705645], [-121.55695699982165, 37.670641999661036], [-121.55695699982165, 37.6709050000805], [-121.55695699982165, 37.671696000166754], [-121.55695699982165, 37.67196000012394], [-121.55695699982165, 37.67317700027925], [-121.55695699982165, 37.676829000086556], [-121.55695799964657, 37.678046999650036], [-121.55695699982165, 37.67987800011783], [-121.55695699982165, 37.68537500009242], [-121.55695900036982, 37.68720900021482], [-121.55695699982165, 37.69048300027958], [-121.55695699982165, 37.70030499964967], [-121.55695799964657, 37.70358100003958], [-121.55695799964657, 37.70361200011179], [-121.55695799964657, 37.70362900014584], [-121.55695900036982, 37.70370500025048], [-121.55696000019474, 37.70373600027078], [-121.55697400043842, 37.70452899993618], [-121.55701899974595, 37.70690999982384], [-121.55703399981455, 37.707704000301426], [-121.55705800010404, 37.70904899984207], [-121.55713400027199, 37.71308700014853], [-121.55715799966312, 37.714328000022874], [-121.55713199972385, 37.71443000034393], [-121.55711900020337, 37.714486000084285], [-121.55710800033272, 37.71453000010433], [-121.55705800010404, 37.71472800022669], [-121.55705800010404, 37.71482199976937], [-121.55705800010404, 37.722791999818085], [-121.55705800010404, 37.72410599974059], [-121.55705800010404, 37.72804999966671], [-121.55705800010404, 37.72936499974581], [-121.55705800010404, 37.73009600012037], [-121.55705800010404, 37.73229200013105], [-121.55705800010404, 37.733024000345004], [-121.55705800010404, 37.73377200034399], [-121.55705800010404, 37.73601599975829], [-121.55705899992893, 37.73676400007831], [-121.55705899992893, 37.73858999987268], [-121.55705800010404, 37.73883800012208], [-121.55705399990603, 37.738961000054985], [-121.55695900036982, 37.741628999688274], [-121.55695900036982, 37.7418260003425], [-121.55695900036982, 37.74235699988764], [-121.55695900036982, 37.743051000306146], [-121.55695900036982, 37.743194999825526], [-121.55695900036982, 37.74332900014283], [-121.5569650002176, 37.74341900033643], [-121.55696799969232, 37.743489999954114], [-121.55698299976095, 37.74370399999062], [-121.55698899960873, 37.74377699967561], [-121.557022000119, 37.744286000100374], [-121.55712400022625, 37.74581700012216], [-121.55715900038635, 37.74632899971098], [-121.55715600001331, 37.74638400005962], [-121.55714699979247, 37.74655199983823], [-121.55714500014264, 37.746608000153245], [-121.55704499968522, 37.74850599992864], [-121.55691199961583, 37.751087000211335], [-121.55675199978228, 37.754207000010396], [-121.55669300023104, 37.75533799974592], [-121.55665800007093, 37.75602799986644], [-121.55666100044398, 37.7561070002015], [-121.55666100044398, 37.75612000024854], [-121.55666100044398, 37.75615699965974], [-121.5566620002689, 37.75616899969518], [-121.55671199959927, 37.75867399998374], [-121.55671499997234, 37.75883599975723], [-121.55677100004885, 37.761641999732504], [-121.55683700017107, 37.764898999652516], [-121.55686399993526, 37.76619299982867], [-121.5569019995701, 37.768081999970335], [-121.55696699986741, 37.768221999706476], [-121.55698299976095, 37.76960799990683], [-121.556986000134, 37.76982599966028], [-121.55697299971519, 37.77087200026028], [-121.55696799969232, 37.77132399980247], [-121.55697000024044, 37.77139500033718], [-121.55697600008824, 37.771750999650216], [-121.55699100015687, 37.7727710000869], [-121.55699500035482, 37.77301500029439], [-121.55700200002752, 37.773459999713985], [-121.55700500040055, 37.775755000108944], [-121.55700799987531, 37.778327999949624], [-121.55701299989816, 37.782210000016995], [-121.55701399972308, 37.78264399982449], [-121.55701799992103, 37.78494000012268], [-121.55701899974595, 37.78577799977686], [-121.5570229999439, 37.788707000026726], [-121.5570229999439, 37.78905400016963], [-121.55703200016474, 37.794732999742926], [-121.55695900036982, 37.79473399993411], [-121.55696000019474, 37.79872399997267], [-121.55696000019474, 37.79883699977443], [-121.55696000019474, 37.798995999881164], [-121.55696000019474, 37.79910600029043], [-121.55697899956297, 37.80244400003832], [-121.55700700005039, 37.80727599965154], [-121.5570299996166, 37.81099699974258], [-121.5570639999518, 37.815752999675624], [-121.55705100043131, 37.815763000160295], [-121.55703800001253, 37.81598800006144], [-121.55703200016474, 37.81606000016885], [-121.55699700000466, 37.816487999752084], [-121.55784700029952, 37.8162779998687], [-121.55839000044773, 37.81614299983097], [-121.55885300023, 37.816027999735525], [-121.55997299996332, 37.81575099986244], [-121.56022700040653, 37.815688000040815], [-121.56046699970773, 37.815627999890445], [-121.56083400012886, 37.81553900019252], [-121.56118599958305, 37.81545400003004], [-121.57700500025807, 37.811527000220195], [-121.5772630000009, 37.81146299966818], [-121.57734900021461, 37.811442999661736], [-121.57925499977038, 37.81099499980051], [-121.58016699998953, 37.810781000010074], [-121.58049900025055, 37.81070299987249], [-121.58134000032462, 37.8105050002997], [-121.58212699997199, 37.8103199999395], [-121.58655199955194, 37.80927999974135], [-121.59551100028841, 37.80708100018817], [-121.60042299994006, 37.80587499966679], [-121.60487699983233, 37.80478099991226], [-121.60941000026564, 37.803667000293196], [-121.61309099985591, 37.802763000078606], [-121.61491799976896, 37.802313999991675], [-121.61936199961546, 37.80122200021942], [-121.61954400008867, 37.801170999897806], [-121.61989300006812, 37.80107300028052], [-121.6202510002684, 37.80097300031971], [-121.62029399992612, 37.80096099974747], [-121.62041799977467, 37.80092600025592], [-121.6210749997257, 37.800743000250996], [-121.62135599993312, 37.800665000157636], [-121.62162299989679, 37.800590000317825], [-121.62234400032024, 37.8003880001433], [-121.6233069996947, 37.8001190000371], [-121.63447199956259, 37.796996000335305], [-121.63579300003566, 37.79672299999663], [-121.65539899970784, 37.79267099970948], [-121.6662930003124, 37.79000699965052], [-121.67037200028595, 37.78901400008277], [-121.6715039997148, 37.788739000230876], [-121.67682200014563, 37.78744499991711], [-121.68255800015292, 37.786045999966944], [-121.68669700040093, 37.78503599990761], [-121.68774099996625, 37.78477999996748], [-121.68975000035248, 37.78428700019985], [-121.69083900012363, 37.78401900002072], [-121.69732199959532, 37.782438000269586], [-121.69748099960395, 37.78239899979979], [-121.69853900031133, 37.782142000303764], [-121.69863800004552, 37.78211699977743], [-121.69928599977573, 37.78196000028312], [-121.70028400020858, 37.781717999803455], [-121.7033110002209, 37.780983000154656], [-121.70382099985882, 37.78085799973837], [-121.70536599973956, 37.78048199967697], [-121.70873699970846, 37.779658999865745], [-121.71014299967203, 37.77931599981002], [-121.71113799973185, 37.77907600000035], [-121.71546699995066, 37.77802400006675], [-121.7159570003954, 37.777905999710015], [-121.72023300001246, 37.7768720001526], [-121.72374500044664, 37.7760219999857], [-121.72815499995798, 37.77491500021527], [-121.73244499981871, 37.77383800022714], [-121.73255100012393, 37.773809999729416], [-121.73287199961598, 37.7737290003094], [-121.7329789997461, 37.77370300001212], [-121.7342390001198, 37.773385999721725], [-121.73802000016752, 37.772437999985584], [-121.7392799996429, 37.77212199973935], [-121.74134400028073, 37.77160400022543], [-121.74753499967434, 37.770052999948525], [-121.74869700013876, 37.76976199990354], [-121.74959900031217, 37.769535999964354], [-121.75068100041065, 37.76926400025909], [-121.75106399982697, 37.769168999700696], [-121.7513829996692, 37.76908899999544], [-121.75927600020073, 37.76711100019282], [-121.7611409997486, 37.76664399970497], [-121.76930200006872, 37.76459900021046], [-121.78036400000445, 37.76182699983868], [-121.78056400002099, 37.76182699983868], [-121.78072999970234, 37.761798999764046], [-121.78111399984189, 37.76173500016231], [-121.78116400007062, 37.761727000030696], [-121.7819950000989, 37.761524000217776], [-121.78327999968866, 37.7612090001397], [-121.78992200006732, 37.7595840002744], [-121.79188799989755, 37.75910400032209], [-121.79213700031788, 37.75904299970118], [-121.79222199980839, 37.75902299970785], [-121.79231100039516, 37.75900099977997], [-121.79283500027678, 37.758875999839546], [-121.79301000017898, 37.7588349997904], [-121.79357500006851, 37.75869999988359], [-121.79527300011014, 37.75829600007953], [-121.79556500018819, 37.758226999702586], [-121.79582399975594, 37.75816599977888], [-121.7958410003727, 37.75815100013925], [-121.79918399985416, 37.757375999704486], [-121.80075600039741, 37.757007000194534], [-121.80921800011811, 37.755017000204795], [-121.81180800028737, 37.754407999962574], [-121.81256300014769, 37.75423100000161], [-121.81258900008699, 37.75422499982695], [-121.81641699999037, 37.753292000133186], [-121.8279800002415, 37.75047800029451], [-121.83183499990905, 37.74954099986219], [-121.83221099965267, 37.74944899982292], [-121.83242400008801, 37.74939699990452], [-121.83419499992456, 37.74896599987102], [-121.83478499992844, 37.74882300031721], [-121.8349509996098, 37.7487800001738], [-121.8354569999481, 37.74865600011593], [-121.8356119997588, 37.74861700029538], [-121.83562400035268, 37.748615000085486], [-121.84150500012491, 37.747182999997776], [-121.84153199988907, 37.74717599983758], [-121.8419839998007, 37.7470660002766], [-121.84264300029989, 37.74690699997646], [-121.84938199986459, 37.745269000117425], [-121.85072699972876, 37.74494200000802], [-121.8556200000122, 37.743755999647114], [-121.85837699968776, 37.743086000210184], [-121.8600200003761, 37.7426880000821], [-121.86370000014148, 37.74179300023699], [-121.87071900008867, 37.74008899985396], [-121.87073300033238, 37.74008599990377], [-121.87098799970218, 37.74004200014632], [-121.87364700036674, 37.739498000209764], [-121.8811700001041, 37.7376739998741], [-121.88307599965985, 37.73718200030859], [-121.88399700009984, 37.736931999669316], [-121.88555700004922, 37.736507999968424], [-121.8882740004401, 37.73577199969457], [-121.89223100021492, 37.73484199982898], [-121.89489699965388, 37.73421599968341], [-121.89526700044803, 37.73412800026908], [-121.89544900002292, 37.734083999812306], [-121.89681099960556, 37.73375800032791], [-121.8974180002262, 37.73361200030706], [-121.90255300035894, 37.732384999796686], [-121.90395799959927, 37.73204900020137], [-121.90446700031063, 37.731928000102705], [-121.90472099985551, 37.731862999909325], [-121.90546200037046, 37.73166900003133], [-121.90724499990257, 37.73120699990138], [-121.90844500000182, 37.73089600002215], [-121.90944000006165, 37.73063899987873], [-121.90952499955216, 37.7306159996897], [-121.90967100004035, 37.73057799994869], [-121.90978200036841, 37.730550000127046], [-121.90986799968381, 37.73052800025973], [-121.9099210002856, 37.73051400034078], [-121.91008399959391, 37.730473000207695], [-121.91013800002057, 37.73045999991813], [-121.91020099976976, 37.73044599998632], [-121.91039400011361, 37.73040499981555], [-121.91045900041094, 37.730392999865266], [-121.9105699998407, 37.73038000027215], [-121.9110209999274, 37.730329999739006], [-121.91114700032409, 37.73031799977653], [-121.91268800000688, 37.73000000006289], [-121.91324299985067, 37.729887000191006], [-121.91349700029389, 37.729839999690526], [-121.913568000439, 37.7298279996487], [-121.91449900002641, 37.72958700017249], [-121.91646999987951, 37.72911400005232], [-121.91737399970273, 37.72889700006474], [-121.92236200042069, 37.72768400003632], [-121.92264100007995, 37.72761599992518], [-121.92451300019886, 37.72716000032496], [-121.92469700032187, 37.72711599999063], [-121.92582299990295, 37.72684800010259], [-121.9262349996316, 37.72674700022724], [-121.92647700037926, 37.726688000025256], [-121.92672599990128, 37.726626999682715], [-121.92697600014654, 37.72656699969286], [-121.9286420004011, 37.7261709996772], [-121.92928599993333, 37.72608400034816], [-121.92937200014705, 37.72607800002318], [-121.93055399980466, 37.72577100015293], [-121.93123199967208, 37.725601999690525], [-121.93141699962001, 37.72555599972919], [-121.93191299991257, 37.72543699980459], [-121.9327339998951, 37.725216000148], [-121.93280800041327, 37.72519699996029], [-121.93338499999837, 37.72507100005042], [-121.93375400006931, 37.72499600025606], [-121.93615799956744, 37.724466999975846], [-121.93651400011791, 37.72436900028283], [-121.93700299983948, 37.724246999990704], [-121.93706599958864, 37.724251000306324], [-121.93873500021625, 37.72384199995646], [-121.93919100032585, 37.72372999965613], [-121.93926900014367, 37.72370099964593], [-121.93955100017595, 37.723631999698476], [-121.94019499970818, 37.72348400014023], [-121.94033100015064, 37.72344400011282], [-121.94052199994636, 37.72339399987057], [-121.94095299994157, 37.72327400028835], [-121.94116899985163, 37.7232290000396], [-121.94118899994312, 37.72322499966879], [-121.9412850002026, 37.72320499994313], [-121.94157200025775, 37.7231479999493], [-121.94166900034216, 37.72312899994159], [-121.94179800021357, 37.72309600002885], [-121.94218900002582, 37.722997999942926], [-121.94231899972218, 37.72296599971277], [-121.94238300019458, 37.72294599991717], [-121.9424979998223, 37.72292600011618], [-121.94259200043193, 37.72290999998727], [-121.94341900026228, 37.72276800029058], [-121.94369500044684, 37.722721999990206], [-121.94373800010455, 37.722710000216026], [-121.94388899971726, 37.722666000080245], [-121.94393300009818, 37.72265400029705], [-121.94396700043337, 37.7226440000025], [-121.94399400019756, 37.722635999908015], [-121.94407500038841, 37.72261300007567], [-121.94418300034347, 37.722582000135915], [-121.94476400012648, 37.722422999828225], [-121.94502199986937, 37.722354000111395], [-121.94582299976044, 37.72198400031704], [-121.94820500041558, 37.721412999905475], [-121.94875500023649, 37.721277000185104], [-121.94944999982235, 37.72110500011842], [-121.95000499966613, 37.720962000035755], [-121.95035100017087, 37.720873999792964], [-121.95119800009269, 37.7206650001298], [-121.9520070003797, 37.720464000206825], [-121.95374999972883, 37.72004600010893], [-121.95460400022165, 37.719838999807685], [-121.95510899983674, 37.71971799965553], [-121.96003999975497, 37.71853099973994], [-121.96027099973364, 37.71873999973918], [-121.96245199964903, 37.720699999958114], [-121.96846200019101, 37.7265899997184], [-121.96936600001426, 37.72747600008483], [-121.97126300024748, 37.72955600030969], [-121.97193799974187, 37.730323999758035], [-121.97513800000654, 37.730617999675566], [-121.97718599985251, 37.73080600023377], [-121.98010400008485, 37.73110499994556], [-121.98487000014667, 37.73234500031384], [-121.98809700017551, 37.733148999908586], [-121.98939900038201, 37.734114999910815], [-121.991920000056, 37.73604999987218], [-121.9954259997441, 37.738351000275635], [-121.99585900028748, 37.738401999897754], [-121.99949800004495, 37.73843000030211], [-122.00107100041309, 37.739028000169206], [-122.00586199969094, 37.74278900023512], [-122.01177099995056, 37.74742800021725], [-122.01176699975261, 37.74748800035033], [-122.01137099991747, 37.75402800021525], [-122.01129099955155, 37.7541719996838], [-122.01127800003106, 37.754197999745394], [-122.01117599992381, 37.75438300000178], [-122.0108720001502, 37.75494100018472], [-122.01077099986786, 37.75512700002073], [-122.00793800002431, 37.75689099966427], [-122.00370800043805, 37.75952499996434], [-122.003007999931, 37.75996100003722], [-122.00119600008655, 37.76108999999788], [-121.99944299979335, 37.762183999683735], [-121.99792800004984, 37.7631289997707], [-121.99741099984091, 37.7633600003543], [-121.9982900004481, 37.76425499998696], [-121.99888600029975, 37.76486300023819], [-121.99920199976893, 37.76518399966414], [-121.99974599974205, 37.765737999838485], [-122.00029999976091, 37.766303000069385], [-122.00182700009833, 37.76785900011223], [-122.00237899956906, 37.76841999970245], [-122.00408099980862, 37.770147000267386], [-122.00442999978807, 37.77051099980071], [-122.00457499955303, 37.77065799997829], [-122.00502499981484, 37.77114699984273], [-122.00552699995518, 37.77166700001469], [-122.00661599972634, 37.77279499973561], [-122.0068450000552, 37.77302800021013], [-122.01050399990417, 37.77675100020339], [-122.01380000042829, 37.7801279998727], [-122.01407200041486, 37.780226999970665], [-122.0177720002717, 37.781227000238964], [-122.02197199972075, 37.78422700009587], [-122.02964500014426, 37.78738599982793], [-122.03047199997461, 37.78772700019817], [-122.0340210002187, 37.79019900012921], [-122.03607200043776, 37.791626999926464], [-122.03692100000939, 37.79225299991479], [-122.03797200014573, 37.79302700020374], [-122.04014800003823, 37.79450599999418], [-122.04327100030999, 37.79662900010936], [-122.0452270000945, 37.7979589996517], [-122.04547300014178, 37.79812599997185], [-122.050107999784, 37.798435000214674], [-122.05632800038828, 37.799346999775615], [-122.05947099985319, 37.79978699975865], [-122.06151899969919, 37.80008799991179], [-122.06151000037669, 37.79939400013436], [-122.06150600017871, 37.79920700007027], [-122.06168100008088, 37.79922000034811], [-122.0617730001424, 37.79922699984159], [-122.06220499996253, 37.7992549999383], [-122.06377699960746, 37.79936000002886], [-122.06430200021231, 37.79939599968079], [-122.06587499968217, 37.799500000154055], [-122.0705949997132, 37.799814000230405], [-122.07196200021703, 37.79990600008137], [-122.07216899990625, 37.799919999647386], [-122.07227299966334, 37.79992699978437], [-122.07418199959214, 37.800038999755834], [-122.07454999983818, 37.800061000249954], [-122.07886900001124, 37.80031400013786], [-122.08023899998979, 37.8004390002957], [-122.08231199995012, 37.80062800030295], [-122.08944999972302, 37.80114500002652], [-122.09229500016043, 37.801350999957066], [-122.09570299993923, 37.80159799980547], [-122.1015150001145, 37.80204000005029], [-122.10339800010402, 37.802175000322], [-122.10608700000753, 37.802363000057966], [-122.10654099956896, 37.802395000025776], [-122.10705000028032, 37.80243100032785], [-122.11279299996026, 37.80284400033008], [-122.11381200030955, 37.8027290001043], [-122.11809299994947, 37.803246000027045], [-122.12435200001347, 37.80369999976587], [-122.12991099957044, 37.804112999769686], [-122.13297699994077, 37.80432599965951], [-122.13525699959035, 37.804481999838906], [-122.13557299995784, 37.80450399971936], [-122.13865100002376, 37.804632000055506], [-122.14031700027833, 37.80470099971212], [-122.14069800004482, 37.80471699990106], [-122.14354299958396, 37.80796699985403], [-122.1459460001555, 37.810723000079435], [-122.14677600035887, 37.81162700008458], [-122.14799800019944, 37.812909999705695], [-122.14880800031133, 37.81375999995898], [-122.15236800042612, 37.81485500002579], [-122.15295000003408, 37.815034000170115], [-122.15304700011843, 37.81508500014373], [-122.15325600035582, 37.815243000130465], [-122.15352599979424, 37.81546100011391], [-122.1537829997122, 37.8157269999705], [-122.15405300004893, 37.815885999907366], [-122.15436000019561, 37.816083999952475], [-122.15464399987773, 37.816214999787206], [-122.15507599969787, 37.816345000200506], [-122.1553469998595, 37.816395999978056], [-122.15553199980747, 37.81644499992594], [-122.15571699975537, 37.81654600012145], [-122.15587499993912, 37.81667500005779], [-122.15605999988702, 37.81684199992659], [-122.15628400019304, 37.81713199992724], [-122.15640100036889, 37.817277999741144], [-122.15652299966932, 37.81741600019406], [-122.1566830004012, 37.81756300003795], [-122.156753999648, 37.817615000274735], [-122.15684200040987, 37.817680000341724], [-122.15702599963457, 37.81778300002501], [-122.1572609998112, 37.81789099966263], [-122.15739200023079, 37.81795199997948], [-122.1612100000884, 37.816170999901104], [-122.16181400033598, 37.81589000023609], [-122.16667300028419, 37.813624000348995], [-122.16687300030074, 37.81342400021693], [-122.17277499998937, 37.81582599991786], [-122.17697699998655, 37.81622700000963], [-122.17787300031219, 37.81632300029947], [-122.1803520001534, 37.81815199990855], [-122.18122400018957, 37.819341000310665], [-122.18182599988904, 37.81961900004981], [-122.18359000005287, 37.82047900025061], [-122.1855769997995, 37.82072599998418], [-122.18611599974977, 37.82128299987774], [-122.18626999973554, 37.82144699976768], [-122.18655500014091, 37.82174999998614], [-122.1868709996101, 37.822082000157906], [-122.18669499988297, 37.822602000264006], [-122.18663700015668, 37.82277399997309], [-122.18654500009517, 37.82300599986986], [-122.18636799964484, 37.82354699993409], [-122.18618900044301, 37.82409399976154], [-122.18611999994772, 37.824284999830816], [-122.18594400022063, 37.8247720000514], [-122.18572900013548, 37.825366000172075], [-122.18618299969691, 37.82615300021681], [-122.18654400027025, 37.826792000299356], [-122.18702399977097, 37.827537000032976], [-122.18696100002175, 37.827909999788396], [-122.18675400033253, 37.82939899994766], [-122.18668800021028, 37.82987700020168], [-122.18643299994216, 37.83027599974648], [-122.1860000002971, 37.83094900007716], [-122.1858429999383, 37.83119200003654], [-122.18574599985392, 37.831343000314696], [-122.18571700043992, 37.83138899976948], [-122.18573699963308, 37.831589000181275], [-122.18564700011969, 37.83172599972826], [-122.18561399960942, 37.831775999831045], [-122.18558400037053, 37.83181800026009], [-122.18554400018755, 37.831859000267364], [-122.18552499992096, 37.83187800002075], [-122.18551599970012, 37.831889000137096], [-122.18546800001957, 37.83194499967214], [-122.18540899957001, 37.83204199977971], [-122.18537500013316, 37.832106999912085], [-122.18533599977508, 37.8321899999761], [-122.18527600039891, 37.83229700013446], [-122.18525100028458, 37.83234299970398], [-122.18520699990366, 37.83243399978582], [-122.18514099978141, 37.83254199997905], [-122.18508499970491, 37.83261200019063], [-122.18501000026016, 37.832709000130784], [-122.18476400021285, 37.83285699969863], [-122.18431499977598, 37.833574999744876], [-122.18422600008753, 37.833717000305846], [-122.1838179996585, 37.83435299977464], [-122.18395800029893, 37.83466200024484], [-122.1840610002311, 37.83488900000449], [-122.18413200037621, 37.835047000165595], [-122.1843800000733, 37.835593000245574], [-122.18450899994474, 37.835862000233575], [-122.18452599966318, 37.835916000323955], [-122.18453700043216, 37.835942000011784], [-122.18455300032566, 37.83598099988108], [-122.18458099991476, 37.83605000003589], [-122.18491099962766, 37.836852000339405], [-122.18511599966706, 37.83735300018849], [-122.18526899982794, 37.837388000148486], [-122.18549099958578, 37.83743999989624], [-122.18691599981594, 37.837771999713695], [-122.18700399967946, 37.837776000275085], [-122.18706700032698, 37.83779899977423], [-122.18713799957376, 37.83781800012617], [-122.18720399969601, 37.83783800008062], [-122.18726800016843, 37.837852999865525], [-122.18733500011557, 37.837865999723974], [-122.18740100023784, 37.837870999887215], [-122.18791800044677, 37.83781499988424], [-122.18860100033709, 37.83775199974135], [-122.18876500036859, 37.8377369999359], [-122.18892299965405, 37.837899999834], [-122.18899200014933, 37.83796999992781], [-122.18907199961693, 37.83797500008396], [-122.18921800010513, 37.83807799982058], [-122.19000899995048, 37.838673999853015], [-122.1905670001673, 37.83909399997824], [-122.1911720002398, 37.8395479999001], [-122.1916240001514, 37.83990099984596], [-122.19206900039033, 37.84024900022896], [-122.19256700033272, 37.840367999893516], [-122.19358599978366, 37.8406120003222], [-122.1936879998909, 37.840655999825174], [-122.19366500032469, 37.840757999797326], [-122.19369799993666, 37.84082999985965], [-122.1939260004406, 37.84098300011343], [-122.193939999786, 37.8409839996782], [-122.19395300020479, 37.8409899999042], [-122.1939680002734, 37.84099799996822], [-122.193983000342, 37.841004999757565], [-122.19399800041063, 37.841012000255624], [-122.19401400030416, 37.84101900004359], [-122.19403400039563, 37.84102700010451], [-122.19412300008409, 37.841071000069284], [-122.19412100043428, 37.84109099985115], [-122.19412100043428, 37.84110500012084], [-122.19412200025917, 37.841149000039074], [-122.19412300008409, 37.841163999860164], [-122.19412399990901, 37.84119299993114], [-122.19419099985618, 37.841283999737385], [-122.19430399983405, 37.841365999848605], [-122.19445799981985, 37.84142699991549], [-122.19460000011007, 37.84146800025771], [-122.1947709998143, 37.84148699966455], [-122.19498800044758, 37.84152400032496], [-122.19512399999172, 37.84155300025438], [-122.19521400040341, 37.84159300026064], [-122.19526799993176, 37.841630000158446], [-122.19533499987891, 37.84168799992257], [-122.195622999759, 37.841913000239295], [-122.19538900030558, 37.84257899976438], [-122.19534800029771, 37.84262600026847], [-122.19518599991598, 37.84282600001082], [-122.19504600017392, 37.84299999989172], [-122.19510600044838, 37.84360499989863], [-122.19644200009174, 37.844616000121626], [-122.19657099996317, 37.844714000107324], [-122.19663100023762, 37.844759000223654], [-122.1969259997904, 37.84498099973347], [-122.19744499964918, 37.84538299980997], [-122.19754199973355, 37.84545800025402], [-122.19789699956078, 37.84573399978406], [-122.19863399987776, 37.846348999948646], [-122.19871800044166, 37.84641899982681], [-122.19881600035096, 37.84648800014837], [-122.199100999858, 37.84668900025449], [-122.19934600008037, 37.846845999772775], [-122.19961399986897, 37.84696500014278], [-122.19966699957241, 37.846974999944564], [-122.19975399961108, 37.84699199967548], [-122.19998200011501, 37.847101000026534], [-122.200170000436, 37.84718300005429], [-122.20076100026479, 37.847444999739466], [-122.20084199955731, 37.84761600022857], [-122.20086300037202, 37.84766200017634], [-122.20099700026633, 37.84787799979399], [-122.20121599965114, 37.84821199979614], [-122.20152899964557, 37.84872700004157], [-122.2023680000698, 37.8500190001422], [-122.20265699977479, 37.850479999797244], [-122.2031000003639, 37.85119199985234], [-122.2040939997005, 37.851386999814686], [-122.20480099988026, 37.851414999988805], [-122.20569100035812, 37.85152699986968], [-122.20605299985804, 37.85155200030757], [-122.20616599983595, 37.85154699965319], [-122.20650599959457, 37.851630999961415], [-122.2077600001205, 37.85179200010734], [-122.20781100017412, 37.85179800016325], [-122.20889800029546, 37.8519409998146], [-122.20983499973066, 37.85303999980724], [-122.21087499999634, 37.854226000207014], [-122.21080999969902, 37.854334999794155], [-122.21040800001612, 37.85506500029331], [-122.21158600037406, 37.85636000017213], [-122.21185400016265, 37.85680100012541], [-122.21186199966026, 37.856819999837356], [-122.21188500012478, 37.856869999951776], [-122.21189000014765, 37.85687999982876], [-122.21190199984323, 37.85690000028787], [-122.2119069998661, 37.856909000102604], [-122.21192600013265, 37.856937000307305], [-122.21193299980537, 37.85694600011753], [-122.21201200034639, 37.85701299969471], [-122.21237999969411, 37.85723399984785], [-122.21281400006238, 37.85743100024414], [-122.21288900040544, 37.85760699980369], [-122.21295899982734, 37.85774900019785], [-122.21292299984233, 37.8577839996986], [-122.21327699984465, 37.858183000066504], [-122.21338899999765, 37.85830900014458], [-122.21375600041878, 37.85867800019815], [-122.21526600013942, 37.860192000197706], [-122.21702399955718, 37.8619560002771], [-122.21887200028495, 37.863800999997366], [-122.21982600033688, 37.86477099975037], [-122.22114799973656, 37.865348999940004], [-122.2214180000733, 37.865468000229754], [-122.22060799996139, 37.86640099981069], [-122.21979100017678, 37.86733199980104], [-122.21885300001837, 37.867805999941986], [-122.21778400033868, 37.86835600032635], [-122.21697199967862, 37.868776000163315], [-122.21637199962903, 37.869075000005026], [-122.21654999990426, 37.86954599991057], [-122.21748899988758, 37.8718259998792], [-122.21764000039865, 37.87224999990049], [-122.21849499981805, 37.872733000323315], [-122.21980399969725, 37.873494999762066], [-122.22076199994717, 37.874772000349914], [-122.22141399987534, 37.875639999833325], [-122.22236799992729, 37.87690499983261], [-122.22240800011026, 37.876957999860124], [-122.22361999990508, 37.878565999983124], [-122.22509000034105, 37.87925800023821], [-122.22556599964383, 37.8794820002968], [-122.2258109998662, 37.87959700003061], [-122.22587600016351, 37.879619999955814], [-122.22603500017217, 37.87970299971868], [-122.22652100041898, 37.87993199998894], [-122.22884000042663, 37.881023000246806], [-122.23030900013936, 37.88130699985697], [-122.23124999977253, 37.88148799986595], [-122.23194299970858, 37.881621999711406], [-122.23253600008552, 37.88173599992771], [-122.23434100025726, 37.88221399984636], [-122.23562599984702, 37.88251100032162], [-122.23597300017664, 37.88260500001247], [-122.23603799957564, 37.882622999743454], [-122.23754300017173, 37.883025999855946], [-122.2375969997001, 37.883039999960985], [-122.23791600044063, 37.88312399982617], [-122.23857000001863, 37.883296000196566], [-122.23867899979855, 37.883325000000966], [-122.23904200002174, 37.88320299967107], [-122.23935300036634, 37.88309999987447], [-122.2394129997425, 37.88308000014508], [-122.2395059996289, 37.8830479997159], [-122.2397850001865, 37.88295599999993], [-122.2398789998978, 37.88292499993103], [-122.24013699964068, 37.88279900011131], [-122.24026100038756, 37.88273899995259], [-122.24027300008312, 37.882731999871794], [-122.24145899993867, 37.88215699977575], [-122.24185499977378, 37.88196599997619], [-122.24197100012474, 37.881927000323714], [-122.24242999970903, 37.88220300014714], [-122.24407900024518, 37.883223999777094], [-122.24411400040529, 37.88325199990922], [-122.24461499982237, 37.88364600003137], [-122.24558999979071, 37.884340000140575], [-122.246645000125, 37.88515099972169], [-122.24691000043892, 37.8853549997613], [-122.24763099996402, 37.885876999750046], [-122.24783099998056, 37.88592999970226], [-122.24856099972654, 37.886459999962064], [-122.24915400010347, 37.88690400023171], [-122.24926200005848, 37.886971999870504], [-122.24927600030219, 37.887018999719736], [-122.24934900009714, 37.88726999994508], [-122.2493409997012, 37.887363999942], [-122.24932599963259, 37.88743500021464], [-122.24933700040157, 37.887515999683146], [-122.24935999996778, 37.8876510002536], [-122.24940799964835, 37.88778999984184], [-122.2494529998542, 37.88818199981236], [-122.24949300003718, 37.888251000030614], [-122.24948399981633, 37.88880900003652], [-122.249538000243, 37.88930500035158], [-122.24967700016018, 37.88948999972642], [-122.25028600043063, 37.88982800030775], [-122.24979900035892, 37.89019499998102], [-122.24903100007981, 37.89076200007548], [-122.24914499988263, 37.89112799975292], [-122.24966600028951, 37.89282400013734], [-122.24985700008526, 37.89276999990466], [-122.24991200033685, 37.89277600016877], [-122.24994999997166, 37.892784000283854], [-122.25000699987307, 37.89281100004554], [-122.25003899966012, 37.892847999755396], [-122.25007700019327, 37.89297700022696], [-122.25004799988093, 37.89305999982282], [-122.25004899970585, 37.893147999992536], [-122.25010099958439, 37.89327399982682], [-122.25016199968375, 37.8933560002333], [-122.25034699963169, 37.89345200009162], [-122.25069300013642, 37.89360200019573], [-122.25105200016161, 37.893819000131415], [-122.25115400026888, 37.893840000045536], [-122.2512200003911, 37.89384699977929], [-122.25126200022392, 37.893848000045], [-122.25129999985873, 37.893848000045], [-122.25138400042263, 37.893835000134075], [-122.25174699974748, 37.89360200019573], [-122.25182700011341, 37.89353499986091], [-122.25190599975615, 37.89350299972177], [-122.25205899991703, 37.89348400025293], [-122.25220100020725, 37.89349799978742], [-122.2523319997285, 37.89356599971652], [-122.25241499956915, 37.89360700012301], [-122.25247300019382, 37.89364100004508], [-122.25256299970717, 37.89367100029688], [-122.25265999979155, 37.893682999968874], [-122.25277699996742, 37.89370599974814], [-122.25286700037911, 37.89373200032221], [-122.25290300036411, 37.89374700007666], [-122.25294000017404, 37.8937639996529], [-122.25300100027341, 37.89381400021853], [-122.25304700030418, 37.8938629997758], [-122.2530790000912, 37.89393100007668], [-122.25310400020558, 37.894007999851574], [-122.25310099983253, 37.89406699978111], [-122.25308900013694, 37.894098000121666], [-122.25308199956595, 37.894115999878906], [-122.25303899990823, 37.894174000169485], [-122.25296100009044, 37.89425900035392], [-122.25282200017327, 37.89437999982997], [-122.25279299986094, 37.894415999911054], [-122.25274699983018, 37.89445600029557], [-122.25269699960147, 37.894514999866054], [-122.25266800018747, 37.8945690002365], [-122.25265399994376, 37.89464499979807], [-122.25265399994376, 37.894800000153154], [-122.25265399994376, 37.89484299966789], [-122.25267900005812, 37.8949869996898], [-122.25268499990591, 37.89501500031117], [-122.25276000024897, 37.89519100012477], [-122.25288400009754, 37.895358999683175], [-122.25296299974025, 37.89543600009106], [-122.25301499961881, 37.8954950002939], [-122.25312199974891, 37.895606000282925], [-122.2534940001929, 37.8959889997519], [-122.25362999973703, 37.89613800012292], [-122.25370199970705, 37.89619300024556], [-122.25377100020233, 37.89622000017469], [-122.25384200034745, 37.89622999967334], [-122.25392299964001, 37.8962260001576], [-122.25401399987659, 37.89621299995773], [-122.25418200010607, 37.89619600023815], [-122.25437899974959, 37.89620599974006], [-122.254479000207, 37.89621599994951], [-122.25456000039784, 37.89623399989775], [-122.25465699958393, 37.89627100001382], [-122.25485599977554, 37.89633499999829], [-122.25493299976844, 37.89634500019021], [-122.25498100034731, 37.89634099997182], [-122.25502499982996, 37.89633200001136], [-122.25515600024951, 37.896257999821906], [-122.25551399955148, 37.896024999754964], [-122.25570100004755, 37.89590400014728], [-122.25577100036774, 37.89592699994158], [-122.25589500021631, 37.89599499975365], [-122.25593600022418, 37.89603099975376], [-122.25601499986689, 37.896148999867194], [-122.25607699979119, 37.89623899964633], [-122.25611799979906, 37.89628899994862], [-122.25615100030934, 37.89635700013517], [-122.25622199955615, 37.89648399966899], [-122.25625099986847, 37.89659599981281], [-122.25630500029516, 37.89679500033155], [-122.25628699985347, 37.89705599993279], [-122.25630600012005, 37.89740999973821], [-122.25632500038662, 37.897751000039484], [-122.256310000318, 37.897840999986464], [-122.25628299965553, 37.89792200005729], [-122.25621599970836, 37.89802899980424], [-122.25606799957035, 37.898236000224536], [-122.25605400022498, 37.89827199983756], [-122.25604800037719, 37.89833500000407], [-122.25605900024782, 37.8983990003205], [-122.25606300044579, 37.89842099984044], [-122.25608099998914, 37.89846100017525], [-122.25613600024074, 37.898538000173666], [-122.25618499974622, 37.89858800033203], [-122.25621900008142, 37.89863300016199], [-122.25624900021865, 37.89869499981963], [-122.25626900031013, 37.89873699969527], [-122.25633200005932, 37.89886599977092], [-122.2563529999757, 37.89890999994289], [-122.25660800024383, 37.89944499986452], [-122.25664199968072, 37.899515000348266], [-122.25668699988657, 37.89957800015969], [-122.256823000329, 37.89973000020274], [-122.25690600016966, 37.89982299970122], [-122.25692899973588, 37.89984100018507], [-122.25697800013968, 37.89985899995571], [-122.25700499990388, 37.89986400016686], [-122.25705199975955, 37.89986400016686], [-122.25711299985892, 37.89985600011236], [-122.2571689999354, 37.89982399988572], [-122.25738900004345, 37.899658999736694], [-122.25755499972477, 37.89952100006259], [-122.2579580001309, 37.89918899977638], [-122.25801800040539, 37.89914000022012], [-122.25815099957644, 37.899056000196], [-122.25821300039902, 37.8990289998894], [-122.25835999981383, 37.89898899986333], [-122.25841900026336, 37.89898099971372], [-122.25849799990607, 37.89898099971372], [-122.25854499976174, 37.89898099971372], [-122.25865100006695, 37.89901200011136], [-122.2586889997018, 37.899031999766464], [-122.25876099967181, 37.899090999922336], [-122.25899599984845, 37.899336999858406], [-122.25905199992496, 37.89939500028834], [-122.25910899982635, 37.89944899991422], [-122.25925600013944, 37.89958900009871], [-122.2593570004218, 37.89968500033461], [-122.2594729998744, 37.89977100001138], [-122.25968499958653, 37.89987600024698], [-122.25977599982315, 37.89989100016714], [-122.25982199985388, 37.89989999969249], [-122.25987899975529, 37.89989999969249], [-122.2599280001591, 37.89989999969249], [-122.25997900021271, 37.899895000192586], [-122.26004299978682, 37.89988800032514], [-122.26010499971109, 37.89986999985273], [-122.26012900000056, 37.89986100032377], [-122.26025700004708, 37.89981700001152], [-122.26053300023159, 37.89968299996177], [-122.26055300032307, 37.89967499988765], [-122.2606250002931, 37.89964799980814], [-122.2607030001109, 37.89963900025197], [-122.26077599990582, 37.89965800025877], [-122.26080799969287, 37.8996720000368], [-122.2608370000052, 37.89968500033461], [-122.26095199963291, 37.89977200019658], [-122.26102799980092, 37.899844000029034], [-122.26105899976305, 37.899885999957824], [-122.26109599957297, 37.89994399995512], [-122.26111700038769, 37.89998000015042], [-122.2611399999539, 37.900070000207236], [-122.26123000036559, 37.9009390001113], [-122.26123899968809, 37.901025999908654], [-122.26124799990896, 37.901130000313564], [-122.26124299988606, 37.901288000265815], [-122.26125799995467, 37.901345999867104], [-122.26128999974175, 37.90139200030049], [-122.26131400003118, 37.90140999969181], [-122.26138600000118, 37.90145099998221], [-122.26142000033639, 37.901460000025594], [-122.26153099976614, 37.90148300021028], [-122.2618210001944, 37.901517000038645], [-122.2619199999286, 37.901522000137206], [-122.26197699982998, 37.901531000171914], [-122.26211499992226, 37.90156799975179], [-122.262273000106, 37.90163700018298], [-122.26236699981733, 37.901695999668284], [-122.26239199993168, 37.90172299970532], [-122.26242299989383, 37.90177000006117], [-122.26247200029763, 37.90184099990837], [-122.26253699969664, 37.90194499987042], [-122.26270800029917, 37.90226600023728], [-122.26274099991114, 37.90232499992716], [-122.26308599969265, 37.90274000026574], [-122.26310199958615, 37.902759000180815], [-122.26372099990238, 37.90350199969072], [-122.26388099973592, 37.90367500007877], [-122.26392900031485, 37.90371900021091], [-122.26394600003326, 37.903734000056645], [-122.2640270002241, 37.90377499976112], [-122.26407900010264, 37.903779000284295], [-122.26414000020202, 37.90377499976112], [-122.26428900016495, 37.903753999846224], [-122.26444099960258, 37.90376399973893], [-122.2644919996562, 37.90376399973893], [-122.26463700031947, 37.903791999856644], [-122.26470000006869, 37.90381000007857], [-122.26479700015307, 37.90386199974995], [-122.26483399996299, 37.90388300034285], [-122.26487800034391, 37.903915000222256], [-122.26494299974294, 37.90397400000771], [-122.26497200005524, 37.904009999649354], [-122.26501100041328, 37.90406900006745], [-122.2650950000789, 37.90413299965059], [-122.26512199984306, 37.90414699999497], [-122.26522099957728, 37.90420099967826], [-122.26536600024055, 37.904261000067486], [-122.26549900030993, 37.90430300031079], [-122.26553799976966, 37.90431599979057], [-122.26563200037931, 37.904333999884315], [-122.26588299955117, 37.904382000112825], [-122.26590099999282, 37.904385999894195], [-122.26638800006455, 37.90443400008879], [-122.26664900018046, 37.90444899978878], [-122.26680900001402, 37.90445900029591], [-122.26690500027351, 37.904459999708585], [-122.26695399977898, 37.904463000073086], [-122.26707599997772, 37.904465000315945], [-122.26710100009207, 37.90446199995158], [-122.26715100032078, 37.90445700005282], [-122.26721599971981, 37.904449999910454], [-122.26724400020721, 37.90444799966714], [-122.26734899978919, 37.904407999750994], [-122.26739999984282, 37.9043849997717], [-122.26746099994217, 37.90435900012541], [-122.2676430004154, 37.90424600032917], [-122.2678059997237, 37.9041449997434], [-122.26797899997605, 37.90403999992794], [-122.2680860001062, 37.903984999998514], [-122.26817200031991, 37.903972999879606], [-122.26821699962741, 37.903975000135844], [-122.26828100009985, 37.90397899993934], [-122.26832399975756, 37.9039829997426], [-122.2684330004358, 37.904013000032144], [-122.26857800020076, 37.9040470001093], [-122.26883799959343, 37.90411099971158], [-122.26901400021885, 37.90414699999497], [-122.26905699987655, 37.90415599970866], [-122.26912100034897, 37.90416600025559], [-122.26916200035686, 37.90417600009231], [-122.26919400014391, 37.904182000135485], [-122.26923199977875, 37.904196999886835], [-122.26928399965728, 37.90422599996453], [-122.26938099974166, 37.90427099989128], [-122.26940500003109, 37.90428000029863], [-122.26944600003898, 37.90429600015377], [-122.26946899960522, 37.90430200018716], [-122.26952800005475, 37.90432699973026], [-122.26958400013125, 37.9043480001905], [-122.2696169997432, 37.90435800000249], [-122.26981799958463, 37.90441999979902], [-122.26986000031577, 37.90442800006622], [-122.26993399993562, 37.904430999723154], [-122.27001099992852, 37.90442499970029], [-122.27008500044668, 37.90440999999541], [-122.27015400004363, 37.90439599970107], [-122.27023699988433, 37.90436299990802], [-122.27034900003731, 37.904390999797826], [-122.27147899981637, 37.90491800006514], [-122.27154099974064, 37.9049409998779], [-122.27107999960818, 37.90582399970302], [-122.27136800038659, 37.90574500003144], [-122.27165100024379, 37.90566799977651], [-122.27214699963804, 37.90553300035006], [-122.27248200027212, 37.905369000351364], [-122.2735950003327, 37.90507199993776], [-122.27376799968677, 37.904902000345274], [-122.27446300017095, 37.904213999884874], [-122.2748110003255, 37.903872000336804], [-122.27574199991291, 37.90365199987033], [-122.27787000012484, 37.90314999969412], [-122.27781499987324, 37.9028739997113], [-122.27780700037565, 37.90283099992639], [-122.27779499978178, 37.902776999946575], [-122.27779200030703, 37.90275500031102], [-122.27777999971316, 37.902701000275485], [-122.27754700008465, 37.90224499989173], [-122.27728199977079, 37.90172100009672], [-122.27765400021478, 37.90147199984549], [-122.27877899997095, 37.90073899999175], [-122.27961800039517, 37.9007629998647], [-122.28002199972791, 37.90077800031293], [-122.28020699967581, 37.90074500031515], [-122.28057499992187, 37.90065999982317], [-122.28074499980117, 37.9006250001341], [-122.28076300024283, 37.9006250001341], [-122.28144399958501, 37.900475000164285], [-122.28201299967247, 37.90034799971925], [-122.28224500037439, 37.900295999691465], [-122.28257199971422, 37.90022599995052], [-122.28284200005096, 37.90017600019604], [-122.2831190000604, 37.90011499983997], [-122.28364299994205, 37.89999799988706], [-122.283795000278, 37.899658999736694], [-122.28415799960284, 37.8992999998658], [-122.28584999979668, 37.898814000113816], [-122.28589500000253, 37.898800999662164], [-122.28636600018073, 37.898676999764376], [-122.28669300041886, 37.89851300008175], [-122.28674799977216, 37.898486000284834], [-122.28697000042831, 37.89837700008508], [-122.28701999975871, 37.89835199993847], [-122.28715100017827, 37.89836799966468], [-122.28751400040143, 37.89841300033797], [-122.28763499987694, 37.89830999984314], [-122.28810000020734, 37.89789699975614], [-122.28816899980431, 37.897835000135196], [-122.28843699959292, 37.8975969997332], [-122.2890190000992, 37.897539000013005], [-122.28922699961335, 37.897518999952226], [-122.28956800009522, 37.89749000006713], [-122.2898839995644, 37.897553000194094], [-122.29010500039564, 37.89759600022727], [-122.29060199961478, 37.89769299973181], [-122.29073300003435, 37.89774699989751], [-122.29076300017158, 37.89775599968496], [-122.29146799980319, 37.898054000060554], [-122.29160500007052, 37.898099999716045], [-122.29164400042859, 37.89811300029151], [-122.29181500013281, 37.89817000006128], [-122.2919110003923, 37.89820200029821], [-122.29197900016436, 37.8982250000833], [-122.29234599968714, 37.89828599987923], [-122.29252599961221, 37.898315999655686], [-122.29265500038196, 37.89833799990936], [-122.29270999973522, 37.89834700033342], [-122.292827999736, 37.89836700016922], [-122.29329100041659, 37.89841799993853], [-122.29333099970124, 37.8985000002858], [-122.29342000028802, 37.89854500016956], [-122.29345000042525, 37.8985599996521], [-122.29367499965782, 37.89846500027843], [-122.29390800018466, 37.89836799966468], [-122.29447999974686, 37.89872500013831], [-122.29455400026502, 37.89873500000554], [-122.29488399997791, 37.89877900025576], [-122.29517600005596, 37.89881800019781], [-122.29587400001488, 37.89891100013979], [-122.2959800003201, 37.89892500005991], [-122.2962070001008, 37.89892500005991], [-122.29633799962207, 37.89892500005991], [-122.2964049995692, 37.89892500005991], [-122.29654100001164, 37.89892500005991], [-122.29676399959442, 37.89883200013562], [-122.29718399971898, 37.8988559999215], [-122.29736899966689, 37.89886599977092], [-122.29742499974338, 37.89886899965462], [-122.29784400004304, 37.89859400012192], [-122.29798899980801, 37.898562000055456], [-122.2986990003608, 37.89841799993853], [-122.29881200033873, 37.89834499992422], [-122.29884499995067, 37.89832399987758], [-122.29891299972273, 37.89824000033993], [-122.2996480003899, 37.898098000009], [-122.30016999972338, 37.897940999798486], [-122.30049000028885, 37.89799000015295], [-122.3010019995766, 37.89794799985111], [-122.30143699976979, 37.89816000011729], [-122.30157900005997, 37.8982290001993], [-122.30217999993452, 37.898524999673256], [-122.30245000027128, 37.89849099988039], [-122.30321099997938, 37.8984069998245], [-122.30336800033821, 37.89838999990275], [-122.30469899995873, 37.89824200004311], [-122.30540699996337, 37.89816300002977], [-122.30603799997515, 37.89809200017868], [-122.30675199982757, 37.898011000294936], [-122.30683800004131, 37.89800100032936], [-122.30877899975717, 37.89778299974971], [-122.30885900012312, 37.89777299975315], [-122.30907800040623, 37.89774800011021], [-122.30924999993536, 37.89772900031925], [-122.30926099980601, 37.89772800010629], [-122.30927800042275, 37.897725999680254], [-122.30947699971608, 37.89770299973919], [-122.3107169999983, 37.89756300022054], [-122.31135899988072, 37.89749000006713], [-122.31166799967721, 37.897455000288375], [-122.31177700035546, 37.897432999770786], [-122.31199200044061, 37.897390999859994], [-122.31209199999972, 37.89736799981424], [-122.31284199983718, 37.89734799970701], [-122.31298099975434, 37.89732499964788], [-122.31711300032967, 37.89640799987938], [-122.32941399982438, 37.893676999778684], [-122.33103900007107, 37.893317000232905], [-122.33339800026167, 37.892794000249246], [-122.33568100028431, 37.89228800001181], [-122.33826100040784, 37.89171499997667], [-122.34600000005527, 37.889996999662095], [-122.34858100000372, 37.88942499984576], [-122.35065999981185, 37.88898499979894], [-122.35689999960928, 37.88766399983857], [-122.35898099996555, 37.88722500025857], [-122.36128099970662, 37.886684999748255], [-122.36818099982813, 37.885064000304475], [-122.3704820002924, 37.88452499993701], [-122.37114199971816, 37.88436399968816], [-122.3731209999672, 37.88388400016003]]]}, "properties": {"GEOID": "06001", "NAME": "Alameda County"}}]}