{"type": "FeatureCollection", "features": [{"type": "Feature", "geometry": {"type": "Polygon", "coordinates": [[[-122.93818299990764, 39.748993000159885], [-122.93841300006142, 39.748111999667536], [-122.93153800005426, 39.74812599977601], [-122.9315260003587, 39.74812599977601], [-122.93148399962757, 39.74812599977601], [-122.93134399988548, 39.74812599977601], [-122.93128699998411, 39.74812599977601], [-122.93124599997621, 39.74812599977601], [-122.93122099986184, 39.74812599977601], [-122.93120699961815, 39.74812599977601], [-122.93104699978458, 39.74812699988231], [-122.93093299998176, 39.74812699988231], [-122.928105999986, 39.74813299982916], [-122.92450300021353, 39.74814099998769], [-122.92402399963942, 39.74814200009378], [-122.92397299958581, 39.74814200009378], [-122.92393400012604, 39.74814200009378], [-122.92094899994656, 39.748146999933354], [-122.92077400004436, 39.748146999933354], [-122.91973399977869, 39.748149000145354], [-122.91938099960127, 39.748150000251314], [-122.91933499957052, 39.748150000251314], [-122.91903400016996, 39.748150999666585], [-122.91749099993902, 39.74815399998437], [-122.91745099975604, 39.74815399998437], [-122.9173689997403, 39.74815399998437], [-122.91467200033921, 39.74815999992886], [-122.91397100000724, 39.74816200014047], [-122.91338699985114, 39.74816300024625], [-122.9132360002384, 39.74816300024625], [-122.91251599963987, 39.748164999767134], [-122.91253800027948, 39.7457999998589], [-122.91253800027948, 39.745774999805896], [-122.91254099975421, 39.74547800027845], [-122.91255199962487, 39.7442639996548], [-122.91255199962487, 39.74425299993996], [-122.91255599982283, 39.7437710000364], [-122.91258000011227, 39.741126000261076], [-122.91258000011227, 39.741103999827786], [-122.9125950001809, 39.73948699986965], [-122.9125950001809, 39.73946400006265], [-122.9126090004246, 39.73799699978744], [-122.9126090004246, 39.7379639997089], [-122.91261000024951, 39.73793999983022], [-122.91261000024951, 39.73792500016089], [-122.91261299972425, 39.73760200013347], [-122.9126169999222, 39.73666299984687], [-122.91268399986936, 39.72936899986068], [-122.91272400005234, 39.7253440002407], [-122.91274999999158, 39.72252500010339], [-122.91275300036465, 39.72223300021421], [-122.91275500001447, 39.72200700006168], [-122.91277500010594, 39.71971400011561], [-122.91283200000737, 39.71361799980404], [-122.91286899981729, 39.70930699972651], [-122.91286700016745, 39.70900200007401], [-122.91287399984016, 39.70877900006159], [-122.9128760003883, 39.7087230001219], [-122.90055800027682, 39.70878799993664], [-122.89906000025175, 39.70878799993664], [-122.89882400025019, 39.70878799993664], [-122.89877700039453, 39.70878899992266], [-122.89451699977272, 39.70890200032492], [-122.89444999982555, 39.70890400029369], [-122.89441399984055, 39.708905000278044], [-122.89440200014496, 39.708905000278044], [-122.89364800010958, 39.70892499996216], [-122.89267599961595, 39.70889799969619], [-122.89228099960573, 39.69391600021031], [-122.89227200028324, 39.69358000009547], [-122.89216900035107, 39.68967399980222], [-122.89216699980291, 39.68959799981644], [-122.89216599997802, 39.68957300012119], [-122.8921650001531, 39.68953799984138], [-122.8920739999165, 39.686077999946185], [-122.89204999962706, 39.68511799975639], [-122.89204999962706, 39.685100999691095], [-122.89204899980217, 39.685069000207484], [-122.89204799997725, 39.685044999893734], [-122.89204700015233, 39.685012999692795], [-122.89204700015233, 39.684842000333845], [-122.89204200012945, 39.68482700017584], [-122.8920379999315, 39.68469300032483], [-122.89196699978638, 39.68234799989886], [-122.89196599996147, 39.68231799987869], [-122.89180000028013, 39.6757779996608], [-122.89179899955691, 39.67573099994589], [-122.89179799973199, 39.6756949997896], [-122.89179799973199, 39.67568499997332], [-122.8917919998842, 39.67546099969912], [-122.89171900008925, 39.672567000074444], [-122.89154400018708, 39.66634499999196], [-122.89133999997259, 39.65913500009749], [-122.89133900014767, 39.659111999776606], [-122.89133800032275, 39.65907899999439], [-122.89133800032275, 39.659062999759044], [-122.89133800032275, 39.659049000241616], [-122.89093699956645, 39.64487500013833], [-122.89093599974153, 39.64484899994496], [-122.8909330002668, 39.6447310001151], [-122.8908420000302, 39.64151599966845], [-122.89084100020528, 39.641490999864665], [-122.8907149998086, 39.636847000200206], [-122.89037099985202, 39.62487799997579], [-122.89041299968481, 39.62291599976227], [-122.89001500019987, 39.622220999713825], [-122.89000900035207, 39.62221099977168], [-122.88991599956735, 39.62204800023464], [-122.88754899987913, 39.616830000006146], [-122.88751200006921, 39.61674899979829], [-122.8874839995818, 39.61668699966062], [-122.8873620002814, 39.616415999947115], [-122.88734399983971, 39.61637700021506], [-122.88733799999196, 39.6163640002995], [-122.88731299987758, 39.616384999736056], [-122.88449699975246, 39.61076099971722], [-122.88449900030062, 39.61068200006524], [-122.88459100036212, 39.607799999964136], [-122.88459200018704, 39.607769000047156], [-122.88460200023279, 39.60744800004651], [-122.88471400038578, 39.60249600027202], [-122.88471500021069, 39.60246000004323], [-122.88471500021069, 39.60244600014149], [-122.88471500021069, 39.60243299968633], [-122.88472899955607, 39.60180799973636], [-122.88473899960182, 39.60136000002708], [-122.8847860003558, 39.59967300033911], [-122.8851520000537, 39.58708500020708], [-122.88518600038888, 39.58585199970186], [-122.88519200023664, 39.585656000208544], [-122.88519399988648, 39.58560700007554], [-122.88524900013806, 39.583879000115495], [-122.885249999963, 39.5837569998977], [-122.88526300038178, 39.58330599988384], [-122.88530600003946, 39.581812000049275], [-122.88530600003946, 39.58179699968879], [-122.88535200007023, 39.580107999680095], [-122.87611100019977, 39.580347000060975], [-122.87503400012416, 39.580719999802284], [-122.87335000032625, 39.5806899999901], [-122.87331799964088, 39.58068900022692], [-122.87252099994777, 39.5806750000792], [-122.8672300001794, 39.5805830003236], [-122.86719599984426, 39.58058199986651], [-122.86505500011184, 39.58051799966256], [-122.86480099966863, 39.580510000152174], [-122.86416899983195, 39.58049099975351], [-122.86405900022707, 39.580487999762944], [-122.86381200035487, 39.580480000249096], [-122.86273899957892, 39.5804470003408], [-122.86083499967297, 39.58038900000222], [-122.85889499978204, 39.58032999984676], [-122.85883100020793, 39.58032800031], [-122.85854699962749, 39.58031900031679], [-122.85852300023636, 39.58031300032069], [-122.85781100003375, 39.580293000099125], [-122.85779799961493, 39.580293000099125], [-122.8513159999682, 39.58006799980526], [-122.8487540002863, 39.580009000068905], [-122.84725299988817, 39.579975000162804], [-122.84145800032967, 39.57987799991143], [-122.83928699956172, 39.57984199969797], [-122.83916100006334, 39.57984000014713], [-122.8390179999482, 39.57983799990386], [-122.83887200035834, 39.579835999660574], [-122.8388499997187, 39.579835999660574], [-122.83194600029755, 39.579725000259685], [-122.83181999990086, 39.57972200023602], [-122.8310340000784, 39.57970499986844], [-122.82956700001546, 39.579683999693756], [-122.82843399986336, 39.579660999956744], [-122.82368299987019, 39.58007200027847], [-122.8234860002267, 39.5800889998636], [-122.82344100002085, 39.5800930003356], [-122.82342500012732, 39.58009499987909], [-122.82336599967779, 39.58009100009963], [-122.8199670001198, 39.58036800003479], [-122.81985599979171, 39.580412000190016], [-122.81965300030045, 39.580466999825546], [-122.81665200022744, 39.58104200019925], [-122.81602000039075, 39.58122299979569], [-122.81556599993098, 39.581258000229276], [-122.81409899986804, 39.58139999990784], [-122.81284299969231, 39.58130799972996], [-122.81213600041087, 39.581256999781914], [-122.81192700017351, 39.581241000238464], [-122.81013500042054, 39.58110899988312], [-122.81004300035903, 39.58110200019819], [-122.8093770001872, 39.58105400006475], [-122.80889099994037, 39.58101900022052], [-122.80879600040414, 39.58101199983413], [-122.80876600026691, 39.58101000031705], [-122.8086950001218, 39.58100399968845], [-122.80850000012813, 39.58099000029667], [-122.80643700021353, 39.580840000305706], [-122.80600299984526, 39.58080800033025], [-122.80542399971203, 39.58076800016704], [-122.79892000032396, 39.58029500032927], [-122.79375800042703, 39.579914999880614], [-122.79370599965019, 39.57991100009071], [-122.79091299998962, 39.57971699996539], [-122.79051600032957, 39.57971099991718], [-122.7840050003705, 39.579620000045324], [-122.77879999991754, 39.579548999803635], [-122.77247499973132, 39.57946300000828], [-122.77044799980175, 39.579654000125565], [-122.76801400016636, 39.57988300017039], [-122.76668400037076, 39.58000800029589], [-122.76653899970752, 39.58002100011327], [-122.76617899985739, 39.58005499999675], [-122.76331599987662, 39.58032399985161], [-122.76313400030175, 39.58034100006729], [-122.76311300038537, 39.580343000296004], [-122.7621169996023, 39.58043699990385], [-122.76099299967103, 39.580543999795815], [-122.75905600015312, 39.580725999763146], [-122.75752499961776, 39.580869000292324], [-122.75393799973881, 39.58120899975579], [-122.75106399988739, 39.58099300026546], [-122.74463800031712, 39.58085800015559], [-122.74061700006992, 39.58077799986385], [-122.7406020000013, 39.58077799986385], [-122.74058500028286, 39.58077799986385], [-122.74054699974972, 39.58077700010194], [-122.7393650000921, 39.58075300027296], [-122.735639000296, 39.58066799965806], [-122.73564099994582, 39.580347000060975], [-122.73565299964139, 39.57882499978859], [-122.73588299979518, 39.548756000015956], [-122.73588600016821, 39.54840200028364], [-122.73589600021397, 39.54756799980922], [-122.73589700003886, 39.54751399994626], [-122.73579499993161, 39.54480400028676], [-122.7357659996193, 39.54406599983626], [-122.73619300031488, 39.530620999759954], [-122.73619300031488, 39.53060300003388], [-122.73623299959954, 39.52822399991054], [-122.73625699988897, 39.5266430002154], [-122.73626500028492, 39.526071999978896], [-122.73627899963029, 39.52550500005389], [-122.73631999963818, 39.52340699965371], [-122.73640400020206, 39.517319999707645], [-122.73640400020206, 39.51730399996664], [-122.73645899955535, 39.513785999992336], [-122.73645899955535, 39.513773000234714], [-122.73646100010347, 39.513683999856134], [-122.7364619999284, 39.51359600009394], [-122.7364629997533, 39.513521000027495], [-122.73648600021785, 39.51204900000186], [-122.73648700004274, 39.511977999893915], [-122.73649200006561, 39.51164000007385], [-122.73650499958609, 39.510941000004856], [-122.73650499958609, 39.51092600025645], [-122.73650600030932, 39.51090299989671], [-122.73650600030932, 39.510889000216366], [-122.73650700013422, 39.510836000312], [-122.73654800014212, 39.508509999810855], [-122.73605600004753, 39.50640000003479], [-122.73525400033152, 39.50286700022662], [-122.73503699969824, 39.50191100027347], [-122.73500099971324, 39.50175099978844], [-122.73496399990331, 39.50159100032138], [-122.73495200020777, 39.50153599983466], [-122.73494700018487, 39.50151400004367], [-122.73457499974087, 39.49987900008889], [-122.7338719997591, 39.49856699997736], [-122.73347299955093, 39.4978219997456], [-122.73317999964797, 39.49705699988882], [-122.73296499956282, 39.49649599981894], [-122.73294700001946, 39.49644999993736], [-122.73274399962986, 39.49592100015101], [-122.73243300018356, 39.49462900016863], [-122.73227599982472, 39.49334500029462], [-122.73222099957314, 39.492185000241285], [-122.73220700022775, 39.49188699995229], [-122.7322030000298, 39.4917919999383], [-122.73219100033423, 39.49152800033426], [-122.73218999961101, 39.491467999811825], [-122.73218399976322, 39.49119800028614], [-122.73214199993043, 39.490474000259844], [-122.73214100010551, 39.490457999882985], [-122.73213899955738, 39.49043100027867], [-122.73213299970959, 39.49033000020222], [-122.73213100005977, 39.490296999699275], [-122.73213000023485, 39.49028199965456], [-122.73185900007323, 39.4855899998975], [-122.73181399986738, 39.485291999768414], [-122.73181800006533, 39.48527499983422], [-122.73183499978377, 39.48519899995523], [-122.73185700042337, 39.48510600001767], [-122.73187300031691, 39.48504100003224], [-122.73171099993522, 39.48293200030714], [-122.73170799956216, 39.48289100008701], [-122.73170599991235, 39.482790000151915], [-122.73170599991235, 39.48276400013116], [-122.7317030004376, 39.48257400000439], [-122.73164700036111, 39.4792930002341], [-122.73164599963786, 39.47923700029512], [-122.73177700005745, 39.47614900033778], [-122.73181499969228, 39.475295000240806], [-122.73181800006533, 39.475219999753406], [-122.73182200026329, 39.475130000032586], [-122.73184999985239, 39.47451799981398], [-122.73188599983739, 39.473678999966076], [-122.7319000000811, 39.473363000121054], [-122.73191799962444, 39.47266499989716], [-122.73192500019546, 39.47240999991969], [-122.73192699984529, 39.472313999710494], [-122.73192900039341, 39.472250000190876], [-122.73193100004326, 39.47218699985865], [-122.73193100004326, 39.47217000018851], [-122.73194799976167, 39.471532000223185], [-122.73195299978454, 39.47151600034232], [-122.73202499975456, 39.468642999926594], [-122.73202700030268, 39.46857199986299], [-122.7320280001276, 39.46853900013112], [-122.7320280001276, 39.46852300025548], [-122.7320280001276, 39.46851100034631], [-122.73203200032557, 39.46836499989902], [-122.73204099964808, 39.46804300019502], [-122.73206300028771, 39.46723800031078], [-122.73211000014338, 39.46479100018667], [-122.73219399980896, 39.46047699965352], [-122.73233199990123, 39.4561390002236], [-122.73233399955105, 39.456095999823745], [-122.73242800016068, 39.45417900022537], [-122.73260100041307, 39.4507539999593], [-122.73446000011315, 39.44731699967834], [-122.7347150003813, 39.446900000125936], [-122.73583900031254, 39.44506200023432], [-122.73970300020093, 39.43875699993385], [-122.73992599978371, 39.43839600001555], [-122.74110099976858, 39.43635299988524], [-122.74117100008877, 39.43623099983243], [-122.74127999986872, 39.43604200006802], [-122.74133400029541, 39.43594900033712], [-122.74174799967386, 39.43523000007736], [-122.7409109997978, 39.42678499995132], [-122.740616000245, 39.42293299978582], [-122.74061100022213, 39.42286800001675], [-122.74061000039723, 39.422857999779986], [-122.740608999674, 39.42283700004149], [-122.74059199995554, 39.42261699995508], [-122.74030200042563, 39.41883700002732], [-122.7402999998775, 39.41880500032864], [-122.74024200015118, 39.41843900034413], [-122.73963299988074, 39.4111259998163], [-122.73934500000064, 39.40768500020434], [-122.73928800009924, 39.40495300009541], [-122.73918400034218, 39.39981199995706], [-122.73912599971752, 39.39173299997881], [-122.73912599971752, 39.39171300029155], [-122.73912599971752, 39.39166999969477], [-122.7391249998926, 39.391569000013305], [-122.73911599967178, 39.39035600034241], [-122.73910999982401, 39.38960900019215], [-122.73910999982401, 39.3895900003275], [-122.73910899999909, 39.389543999903076], [-122.73910899999909, 39.389524000282606], [-122.73910800017417, 39.38941699975105], [-122.73910800017417, 39.3893599999849], [-122.73910700034925, 39.38922000006923], [-122.73907300001409, 39.38477300013086], [-122.73906200014343, 39.38326600021583], [-122.73518200036152, 39.38327000022135], [-122.7350629996375, 39.38327000022135], [-122.72672300011556, 39.3832780002317], [-122.72616099970075, 39.38327900005936], [-122.72051099990722, 39.383284999719294], [-122.71764899975135, 39.383225000319555], [-122.7172639997869, 39.38321700030313], [-122.70418199959428, 39.3829459997254], [-122.7000499999173, 39.38297300005557], [-122.69989299955844, 39.38298500012187], [-122.69337499992668, 39.38322799980477], [-122.69140499989851, 39.38352299993144], [-122.68925400012036, 39.383788000041264], [-122.68138400005336, 39.384285999755214], [-122.67437599997682, 39.3846769999194], [-122.66941699957117, 39.38469999965663], [-122.6693189996619, 39.38469999965663], [-122.66510599979404, 39.38471999996534], [-122.6650320001742, 39.38471999996534], [-122.66457400041479, 39.38472300008057], [-122.65871600020878, 39.38477700005002], [-122.65655600020982, 39.384784000081545], [-122.64995099964109, 39.38483899980904], [-122.64745300043163, 39.38486399979714], [-122.64731799981409, 39.384865000296344], [-122.64708400036068, 39.38486799971108], [-122.63837300021962, 39.38496699976456], [-122.63784799961476, 39.384976999881346], [-122.63762800040506, 39.3849809997888], [-122.6277339998832, 39.38517900012906], [-122.62610100013893, 39.385211999784026], [-122.61311900040373, 39.385366999848046], [-122.61297000044081, 39.385366999848046], [-122.60951599973293, 39.38537200022514], [-122.5986990000196, 39.38550299997906], [-122.59816699974203, 39.38550900014212], [-122.59454800007606, 39.38554200033532], [-122.58326600003231, 39.385472999850414], [-122.5795639996273, 39.385449999673654], [-122.57132700003751, 39.38540000010844], [-122.57117300005174, 39.38538799976305], [-122.57099599960141, 39.385375000312344], [-122.5705520000857, 39.38537200022514], [-122.56811900027523, 39.38533500006462], [-122.56793099995427, 39.38533199997564], [-122.56248500037525, 39.38525100030286], [-122.55198800032903, 39.38509500017958], [-122.5490099998222, 39.3850539999691], [-122.54890799971496, 39.38505300016692], [-122.54880999980567, 39.38505199967035], [-122.54246000040338, 39.38497799968466], [-122.5417919996834, 39.384975000274714], [-122.54128299987035, 39.38496200005276], [-122.54085100005024, 39.38495899994775], [-122.54071600033102, 39.38495800014421], [-122.53977899999751, 39.38495100013009], [-122.53062900036366, 39.38487900034111], [-122.52837099955704, 39.38486099968792], [-122.52400399970341, 39.38482700006156], [-122.52354599994403, 39.384823999950804], [-122.51743599984293, 39.38453299970176], [-122.51731500036742, 39.384527000149106], [-122.50752299995284, 39.38406300008703], [-122.50155599996688, 39.384067999863234], [-122.50109800020748, 39.384067999863234], [-122.49891300009413, 39.384085000210526], [-122.4986489996052, 39.38408600002657], [-122.4985359996273, 39.38408600002657], [-122.49772600041368, 39.38408799965872], [-122.49769499955323, 39.384082000067814], [-122.49767199998702, 39.38408799965872], [-122.4967210003081, 39.38409300012746], [-122.48639300031633, 39.38399299971111], [-122.46910199955549, 39.38382500032766], [-122.4680889999523, 39.38381900001981], [-122.46145499996959, 39.38382900030114], [-122.45469999961301, 39.38384399967896], [-122.44515900016692, 39.383823999813494], [-122.44338499995732, 39.383818000199895], [-122.43923099964073, 39.38380399994235], [-122.43129000032691, 39.38377900026889], [-122.43103699970862, 39.38378199973029], [-122.41776700009332, 39.38397500021806], [-122.41623100043344, 39.383996999674956], [-122.40303299988987, 39.38418899975358], [-122.3998119997088, 39.38418399998606], [-122.37716700032875, 39.38415600030922], [-122.37616300004811, 39.384154999799854], [-122.37368099983384, 39.38423600005035], [-122.37286499987415, 39.38425700030567], [-122.37248599975747, 39.38426900015121], [-122.36626100002864, 39.38442899997698], [-122.36101000044329, 39.384567999974855], [-122.35993199964444, 39.384567999974855], [-122.35871599965168, 39.384567999974855], [-122.33949499994395, 39.38457999976687], [-122.315335999747, 39.3845949996776], [-122.30510800021263, 39.384596000180665], [-122.30437099989565, 39.38460099991868], [-122.28501700011856, 39.38461299970508], [-122.28433099985523, 39.38461299970508], [-122.2655689997318, 39.38462599999203], [-122.26298799978335, 39.38462800030299], [-122.25698200033764, 39.38484199991921], [-122.25687900040549, 39.38485200005391], [-122.25653299990074, 39.38488700016702], [-122.25643499999148, 39.38489000027508], [-122.25630000027226, 39.384894999992035], [-122.255641999598, 39.38490800022647], [-122.25007800001818, 39.38494199981336], [-122.24931700031009, 39.38495100013009], [-122.24918800043866, 39.38495199993378], [-122.24893999984319, 39.38495899994775], [-122.2487630002912, 39.38495999975133], [-122.24851700024392, 39.38496100024921], [-122.24841400031175, 39.38496500015759], [-122.24834200034172, 39.384976000078005], [-122.24822500016587, 39.38500599972603], [-122.24820699972419, 39.38510699988098], [-122.24816200041667, 39.385110999780984], [-122.24801799957831, 39.385123000173955], [-122.24744099999322, 39.38513099997191], [-122.24478600042492, 39.385131999773016], [-122.2442499999494, 39.385144999963295], [-122.24371000017423, 39.38514199986621], [-122.2409619998212, 39.385149999661984], [-122.23943299983398, 39.385148000060255], [-122.23808600031995, 39.38513899976899], [-122.23412500034719, 39.385142999667174], [-122.2341069999055, 39.385142999667174], [-122.23383999994184, 39.385144999963295], [-122.23051199963066, 39.385165000144475], [-122.23003499960468, 39.3851599997526], [-122.22992199962678, 39.38514400016238], [-122.22963899976955, 39.38514599976422], [-122.22729499964757, 39.38513400006952], [-122.22522000003741, 39.38512700007304], [-122.21841000032757, 39.38510699988098], [-122.21810599965566, 39.3851060000795], [-122.21613800017559, 39.38518900021552], [-122.21527500036024, 39.38519200031059], [-122.21182599967526, 39.385186000120314], [-122.2110359996548, 39.385172000137146], [-122.21097999957833, 39.385171000336605], [-122.20651999983828, 39.385116000176424], [-122.20345400036625, 39.38501400023171], [-122.19413499977968, 39.38524400031817], [-122.19358999998163, 39.38524299982434], [-122.19317200040518, 39.38524200002487], [-122.19294999974903, 39.38523999973147], [-122.1928629997104, 39.38523899993189], [-122.19279900013629, 39.38523800013232], [-122.19260499996753, 39.385248000210325], [-122.19242900024044, 39.38525699979327], [-122.19233399980588, 39.38525699979327], [-122.1918569997799, 39.38525200010224], [-122.19136200021057, 39.385248000210325], [-122.1827880003369, 39.385196000205724], [-122.17346299990253, 39.38525299990163], [-122.16596000025667, 39.385303000266475], [-122.15911600021167, 39.38534699972476], [-122.14140799969933, 39.385458999924865], [-122.1360059996029, 39.38549399973357], [-122.13604900015893, 39.394366000253775], [-122.13610699988523, 39.40635500028796], [-122.1361090004334, 39.4067450001469], [-122.13611500028115, 39.40689900008494], [-122.13613799984736, 39.40745400034405], [-122.13616100031192, 39.41449900018879], [-122.13595899974722, 39.41449700004023], [-122.13562499983638, 39.41449299974293], [-122.13484599968662, 39.41448499984157], [-122.13442200026239, 39.41448000016305], [-122.13419399975845, 39.41447699993934], [-122.12608900041316, 39.41439999970568], [-122.12562699955747, 39.41459300016688], [-122.12178899960834, 39.41455899976122], [-122.12121299984817, 39.41455400008801], [-122.12052800030807, 39.414548000340865], [-122.12025100029862, 39.41454500012008], [-122.12016799955964, 39.41454400004649], [-122.12010099961249, 39.41454400004649], [-122.11977400027264, 39.41453999975183], [-122.1071349997708, 39.414429999887965], [-122.10653800009423, 39.41442400013014], [-122.10276899974208, 39.41439500002107], [-122.09910999989312, 39.4143739998149], [-122.0979039999461, 39.41436299967131], [-122.08286900034206, 39.41422700027653], [-122.08110600000309, 39.41421099971793], [-122.08046599977048, 39.41420600001976], [-122.08040399984623, 39.414210000333526], [-122.08034799976974, 39.414204999941255], [-122.08028699967036, 39.414203999862735], [-122.08018399973821, 39.414202999784266], [-122.07996199998034, 39.414201000321185], [-122.07927200041738, 39.414193999771015], [-122.06122699962114, 39.414012999875226], [-122.06055100030183, 39.41399900012444], [-122.0558460003394, 39.41396600020502], [-122.0520860002081, 39.413933000269985], [-122.05206199991865, 39.413933000269985], [-122.0519170001537, 39.41393200018762], [-122.050917000071, 39.41392599969291], [-122.05085299959859, 39.41392599969291], [-122.04626999983489, 39.41389700007071], [-122.02890100015458, 39.41374300031917], [-122.02163299978704, 39.41367899970048], [-122.01928100016745, 39.413657999972614], [-122.01040599999487, 39.413580000135006], [-122.01019799958242, 39.413577999960076], [-122.00990300002964, 39.41357699987257], [-122.00901900029788, 39.41356799977856], [-122.00885699991616, 39.41356699969091], [-122.00837599969226, 39.41138399975195], [-122.0076900003272, 39.40839100007598], [-122.0064940004259, 39.404876999967804], [-122.00483700039219, 39.40422399988795], [-122.0043739997116, 39.40387999983935], [-122.0042549998859, 39.40349700015996], [-122.00421300005311, 39.40298500023572], [-122.00439499962799, 39.4019109999892], [-122.00444400003181, 39.40104000028029], [-122.00397399967852, 39.39956199977734], [-122.00370900026297, 39.39782700034703], [-122.00382800008863, 39.396994000194084], [-122.0039109999293, 39.39689800013476], [-122.00425700043404, 39.39612199983812], [-122.00485499993553, 39.39508900002439], [-122.00608000014914, 39.39362100004564], [-122.0074080002949, 39.39229099991233], [-122.00748199991475, 39.392105000198946], [-122.0074989996332, 39.39199600005435], [-122.00783199971909, 39.390569999750134], [-122.00783300044232, 39.3900940000636], [-122.00748600011269, 39.38852799985194], [-122.0074280003864, 39.38826499989597], [-122.00751899972467, 39.386957000335926], [-122.00756700030357, 39.38678299970291], [-122.00782599987133, 39.38585100025114], [-122.00841800042333, 39.3851970000059], [-122.00873800009049, 39.38484700033387], [-122.01020199978036, 39.38394599994497], [-122.00835700032397, 39.383860000261485], [-122.00113199961415, 39.383856000289775], [-121.99159299981785, 39.38388099993561], [-121.9902449995806, 39.383937000192965], [-121.98999299968553, 39.38394800027545], [-121.98980699991269, 39.383930999894794], [-121.98976599990479, 39.383929000258156], [-121.98965200010197, 39.38392399977766], [-121.98708399967401, 39.38391100005427], [-121.98349799961997, 39.383910000235666], [-121.98072400022598, 39.38389900014723], [-121.97937099996585, 39.38389399966459], [-121.97863899967174, 39.38388800005701], [-121.97625100006715, 39.38386800020421], [-121.97537999985585, 39.383861000080806], [-121.97248199971501, 39.38385399995664], [-121.97186300029712, 39.38385700010916], [-121.97128300033897, 39.383852000317844], [-121.9712280000874, 39.383852000317844], [-121.97059100022784, 39.38385300013723], [-121.96987499982727, 39.383858999747815], [-121.96461699967088, 39.38383599973343], [-121.96451700011177, 39.38383599973343], [-121.96325500008822, 39.383823999813494], [-121.95996100011226, 39.38379299983716], [-121.95753099977652, 39.38379500017204], [-121.95725299994218, 39.383811000071475], [-121.95716900027661, 39.383815999865725], [-121.95708800008573, 39.38382099965962], [-121.95659299961811, 39.383845000192785], [-121.95500300042984, 39.38383800006707], [-121.95409600023356, 39.383815999865725], [-121.95252799988826, 39.38377900026889], [-121.95024499986565, 39.38378199973029], [-121.94951400029476, 39.383783000245], [-121.94723799994485, 39.383788999861615], [-121.9441309995666, 39.38379699981248], [-121.93774500017929, 39.383804999762425], [-121.93629099963684, 39.383804999762425], [-121.93621799984192, 39.383804999762425], [-121.93018999975658, 39.383818000199895], [-121.92954500039943, 39.38381900001981], [-121.9177369999259, 39.38387200017523], [-121.91225000033896, 39.38387600014602], [-121.91079699962143, 39.38387699996511], [-121.90439899964022, 39.38388099993561], [-121.89902800040429, 39.383885999724846], [-121.89893399979462, 39.383885999724846], [-121.89871799988455, 39.383884999905895], [-121.8900129995913, 39.38386400023296], [-121.89021099995803, 39.384154999799854], [-121.89018199964569, 39.384337999743515], [-121.88956300022781, 39.385092999881955], [-121.88929799991395, 39.38571100023859], [-121.88926799977673, 39.385963000336716], [-121.88941599991472, 39.38621399973924], [-121.88979900022937, 39.38646600010394], [-121.88979900022937, 39.386602999956175], [-121.89003500023094, 39.38690099972468], [-121.89018199964569, 39.38713000006832], [-121.8904479997845, 39.389166000066396], [-121.8904190003705, 39.390150000195234], [-121.89027100023249, 39.39058499976191], [-121.88915099960086, 39.39294199986418], [-121.88888600018531, 39.39463599986077], [-121.88847299973344, 39.39539099965634], [-121.88750000031324, 39.39616899973401], [-121.88755899986445, 39.396992999868765], [-121.8876479995529, 39.397198999943605], [-121.88767699986525, 39.398069000101025], [-121.8876479995529, 39.398778000338936], [-121.88717600044811, 39.39992300025774], [-121.88679300013347, 39.40049500032019], [-121.88576000043882, 39.40150200007779], [-121.88514100012262, 39.402348000302545], [-121.8849929999846, 39.40273700011429], [-121.88487599980876, 39.40351599970793], [-121.88440399980564, 39.40516299970688], [-121.88413799966686, 39.405827000121825], [-121.88345999979941, 39.40676499968931], [-121.88348900011175, 39.407657999719355], [-121.88375500025055, 39.40813800030471], [-121.88393199980256, 39.408915999800044], [-121.8843159999421, 39.40962600027845], [-121.8843159999421, 39.410175000226005], [-121.88393199980256, 39.41118199972204], [-121.88381399980176, 39.411273999767], [-121.88251599979321, 39.41365400032121], [-121.88180799978855, 39.414157000321346], [-121.88177900037458, 39.41534699971723], [-121.88095300036912, 39.416422999945105], [-121.88092300023189, 39.41694900030255], [-121.88095300036912, 39.41738400000377], [-121.88115900023345, 39.418069999756874], [-121.88112999992114, 39.418825999893976], [-121.88101199992036, 39.4194889999716], [-121.88096500006468, 39.419757000176844], [-121.880950999821, 39.41983000005418], [-121.88024500036447, 39.42056500011086], [-121.87962500022337, 39.42161800024517], [-121.87944799977303, 39.42269300017695], [-121.87929999963502, 39.42278500029822], [-121.8779730002125, 39.42273900025279], [-121.8777070000737, 39.422829999664614], [-121.8777070000737, 39.42321899971511], [-121.87823799962806, 39.4236769999135], [-121.8792119997715, 39.42392900026029], [-121.8792119997715, 39.42413499987786], [-121.87894599963272, 39.42429499986814], [-121.87791399976295, 39.42468400006873], [-121.87773700021094, 39.424866999865245], [-121.8778250000745, 39.425621999920565], [-121.87758900007296, 39.42589700020624], [-121.87758900007296, 39.426103000251786], [-121.8779730002125, 39.42639999999006], [-121.87803199976372, 39.427658999700206], [-121.87791399976295, 39.42777299973417], [-121.8770869999326, 39.427728000090006], [-121.87608400037516, 39.42745300009098], [-121.87555299992252, 39.427566999768096], [-121.8751989999202, 39.42791100021967], [-121.8751989999202, 39.42855100007515], [-121.87587799961251, 39.42964999996163], [-121.87575899978685, 39.43202999966679], [-121.87561200037207, 39.43246500030174], [-121.8751989999202, 39.433014000087724], [-121.87511000023174, 39.43360900024346], [-121.8745789997791, 39.43413499995317], [-121.8745789997791, 39.434501000075265], [-121.87481499978065, 39.434662000333276], [-121.87528699978374, 39.43479899988058], [-121.87608400037516, 39.43550799992293], [-121.87626099992718, 39.43557700017194], [-121.87626099992718, 39.43603500032385], [-121.87608400037516, 39.436125999718286], [-121.87593600023715, 39.43626400031136], [-121.87584800037362, 39.43674400027541], [-121.87608400037516, 39.4371789999226], [-121.8764669997915, 39.43752199965892], [-121.87693999961951, 39.438346000246426], [-121.87688000024336, 39.438483000180426], [-121.87608400037516, 39.439033000135325], [-121.87606400028366, 39.43905300012752], [-121.8755229997853, 39.43958200019572], [-121.87499200023095, 39.44054300004759], [-121.87511000023174, 39.44086299992816], [-121.87508000009451, 39.44122999977415], [-121.87481399995573, 39.44177899986179], [-121.87484400009293, 39.442099000307444], [-121.87499100040606, 39.44230500031942], [-121.8752280002325, 39.44244299977112], [-121.87508000009451, 39.443198000155355], [-121.87360399981074, 39.44589800006555], [-121.87360399981074, 39.44624099987592], [-121.87404700039983, 39.446859000176495], [-121.8740459996766, 39.44729399977973], [-121.87369199967428, 39.447660000129964], [-121.87298399966963, 39.447842999930565], [-121.87245300011527, 39.4478200002057], [-121.87183299997417, 39.44768299990768], [-121.87156699983541, 39.44777400003947], [-121.87094699969428, 39.448324000156944], [-121.87077000014227, 39.448713000080424], [-121.87080000027952, 39.449558999656766], [-121.87100600014385, 39.44976499979971], [-121.87239299984084, 39.450269000239935], [-121.8731019996704, 39.450864000062076], [-121.8731019996704, 39.451229999682766], [-121.87268800029194, 39.4518939996551], [-121.87251099984161, 39.452580000250705], [-121.87248099970438, 39.45342700021829], [-121.87313099998273, 39.45438799977091], [-121.8740459996766, 39.456127000259876], [-121.87428199967816, 39.45653899991203], [-121.87428199967816, 39.45711100012709], [-121.87401600043769, 39.45761500010269], [-121.87339600029658, 39.458324000236495], [-121.87345499984781, 39.45880500018844], [-121.87398600030046, 39.459583000039345], [-121.87475399968127, 39.46033799976604], [-121.87484300026804, 39.46052100022866], [-121.87469500013003, 39.460864000133135], [-121.87428199967816, 39.46109300031937], [-121.87313000015781, 39.46123099998905], [-121.87262800001747, 39.461391000087715], [-121.87212599987714, 39.46171099987523], [-121.87064999959337, 39.46342699970463], [-121.87026100032924, 39.46398400001771], [-121.87005999958949, 39.46422799976671], [-121.87000000021335, 39.465349000023515], [-121.86982299976302, 39.465760999877794], [-121.86935099975992, 39.46619599997021], [-121.86929200020869, 39.466584999897265], [-121.86943899962347, 39.46667700030724], [-121.87050200035368, 39.46656200012251], [-121.87103299990801, 39.466860000052634], [-121.87121100018322, 39.467179999659656], [-121.87106300004524, 39.46800400021373], [-121.87106300004524, 39.46910300033169], [-121.87153500004835, 39.470453000318614], [-121.87191900018792, 39.47100200021835], [-121.87185999973836, 39.47129999985697], [-121.87159399959957, 39.47152799973325], [-121.87168200036145, 39.47212300022221], [-121.87206599960268, 39.472238000231066], [-121.87230199960426, 39.47276400010972], [-121.87230199960426, 39.47393099970912], [-121.87203600036379, 39.476060000316075], [-121.87215400036453, 39.476860000006795], [-121.87339399974844, 39.47805100023559], [-121.87354199988646, 39.47859999980939], [-121.87289199960814, 39.48026999967799], [-121.87298000036999, 39.481048000151], [-121.87318700005922, 39.48159800014157], [-121.87318700005922, 39.482055000085325], [-121.87300999960888, 39.48226099973662], [-121.87153300039851, 39.482741999945986], [-121.87129700039698, 39.483039000125125], [-121.8713559999482, 39.48367999996143], [-121.87144399981177, 39.483817000130394], [-121.87123799994744, 39.48436699971655], [-121.87088300012017, 39.48482400018481], [-121.87088300012017, 39.48512200023945], [-121.87168200036145, 39.48577899966653], [-121.87149999988824, 39.48782800020951], [-121.87152800037565, 39.488158000306925], [-121.87179399961612, 39.48861300002622], [-121.87239500038898, 39.48969900030853], [-121.87252799956003, 39.4900309999051], [-121.8718050003851, 39.49059299982722], [-121.87170999995053, 39.49077100000006], [-121.87185200024075, 39.49114499992236], [-121.87226599961923, 39.49211100028871], [-121.87257000029115, 39.49291499971164], [-121.87302899987547, 39.49367099994753], [-121.87345999987069, 39.49417699986841], [-121.87375600014668, 39.4946330000232], [-121.87386300027681, 39.49531399998486], [-121.8740580002705, 39.4965699999564], [-121.87418899979174, 39.49694399987685], [-121.87489199977352, 39.49813900032798], [-121.87529900037761, 39.498975999912034], [-121.87554200005188, 39.49933799992098], [-121.875937999887, 39.49988500011074], [-121.87608600002498, 39.499990999948636], [-121.87713299996337, 39.50178199998485], [-121.87608299965196, 39.50243099982573], [-121.87513699999592, 39.503308000205564], [-121.87516799995804, 39.5038620001976], [-121.87523300025539, 39.50491299988544], [-121.87608600002498, 39.50714300024113], [-121.87734100037584, 39.509549000134996], [-121.87608100000212, 39.511551999801696], [-121.87590699992487, 39.51181500022083], [-121.8741379997381, 39.513089000119706], [-121.87487900025305, 39.5139939999418], [-121.87344900000002, 39.51490899994065], [-121.87333000017433, 39.515087000216965], [-121.87111400009888, 39.51844699991343], [-121.87013699958239, 39.5191189997528], [-121.86858500002893, 39.52026500014725], [-121.86841099995168, 39.52041899994542], [-121.86799900022305, 39.52078099981822], [-121.86766100011421, 39.52118800012303], [-121.8670669999124, 39.52191999970007], [-121.86619800024926, 39.52230099978105], [-121.86486199970756, 39.522923999669736], [-121.86414200000735, 39.523159999941], [-121.86412100009095, 39.52400599994858], [-121.86411400041824, 39.524706000086844], [-121.86300800003032, 39.5248170002436], [-121.86149999995952, 39.5249849999561], [-121.85944799991556, 39.52719900021496], [-121.85984700012374, 39.528709000086735], [-121.86003100024675, 39.5292269996951], [-121.85681000006568, 39.53220600010406], [-121.85659499998053, 39.53248300010015], [-121.85647299978181, 39.532642000026286], [-121.85648799985042, 39.53304300017062], [-121.85649799989616, 39.53358200029377], [-121.8563809997203, 39.534518999710464], [-121.85645299969033, 39.53460400008625], [-121.85650600029207, 39.534697000304824], [-121.85653100040642, 39.53476300000442], [-121.85654999977471, 39.53489600033164], [-121.85654499975182, 39.534974999790684], [-121.85653899990406, 39.53507899998513], [-121.85654099955384, 39.53590199987212], [-121.85653200023134, 39.536903999882824], [-121.85686199994423, 39.536922999755056], [-121.85904299985961, 39.53690500027733], [-121.86219999956826, 39.536857000030736], [-121.86863299970952, 39.536800000344265], [-121.87155900033781, 39.53678200014184], [-121.8722349996571, 39.536761999834475], [-121.8753670001497, 39.53677700023875], [-121.88072499986518, 39.53672399999669], [-121.88129200030286, 39.536709999978264], [-121.8819299999873, 39.53669399985479], [-121.8844630002552, 39.536658999788344], [-121.88464300018023, 39.53665599997978], [-121.88696200018788, 39.53663400022496], [-121.88834800005998, 39.53661300016907], [-121.88884199980438, 39.536589000295315], [-121.88924199983747, 39.53654400033655], [-121.8894710001663, 39.53652699977488], [-121.88999300039815, 39.53651999974618], [-121.89097099984122, 39.53651999974618], [-121.8913270003917, 39.53651999974618], [-121.89154400012666, 39.53650400027172], [-121.89158699978437, 39.53649500013268], [-121.8916179997465, 39.536483000176496], [-121.8917020003104, 39.536424000072905], [-121.89227700024566, 39.53644700029538], [-121.89487400008767, 39.53672499970098], [-121.89667599988636, 39.536691999752506], [-121.89876399991532, 39.53660600014899], [-121.90599399974968, 39.53669300015006], [-121.90836999965873, 39.536676000317684], [-121.9095639999102, 39.536670000009096], [-121.90984099991965, 39.536669000304016], [-121.90993499963098, 39.53663000001687], [-121.91025799967119, 39.53650200016395], [-121.91073300004732, 39.53642199996279], [-121.91159699968757, 39.5363930000923], [-121.91230100039259, 39.536407000174655], [-121.91500500036472, 39.53640599977298], [-121.92134999974412, 39.536407000174655], [-121.92254200034576, 39.5364050000641], [-121.92892799973305, 39.536414000214755], [-121.92984199960203, 39.53642100025414], [-121.93840899980303, 39.53624000009703], [-121.9392859998621, 39.536209000034304], [-121.94519400029681, 39.5360570000402], [-121.95451499963488, 39.53362100021485], [-121.9552560001498, 39.533439999685285], [-121.9569020003129, 39.533077999981764], [-121.95883499963286, 39.53262100014845], [-121.96059899979672, 39.5321880000961], [-121.96201700035417, 39.53185199978352], [-121.97305900019839, 39.52909299977905], [-121.9740309997937, 39.52885000016095], [-121.97313100016842, 39.530161000292686], [-121.97336899981978, 39.53114199970076], [-121.97437999977315, 39.531943999758596], [-121.97570899974384, 39.53253300012923], [-121.97682000015462, 39.53286999967715], [-121.97813900007955, 39.53307700022491], [-121.97973400018901, 39.532726000167095], [-121.98252400037485, 39.53274499979722], [-121.98321899996071, 39.53292000012036], [-121.98329400030377, 39.532909999757486], [-121.98407799957809, 39.53276499987625], [-121.98465800043455, 39.5325459998399], [-121.98492600022315, 39.53214300005572], [-121.98513700011036, 39.531839999717526], [-121.9856700002128, 39.53101700017384], [-121.9857530000535, 39.531060999772485], [-121.98599300025299, 39.53118999974198], [-121.98841799966756, 39.532286000313974], [-121.99190699963721, 39.53372399991891], [-121.99252799960324, 39.53379200003668], [-121.99270099985559, 39.53383800013968], [-121.99312900037607, 39.534050999722304], [-121.99355500034841, 39.53399099988648], [-121.99402099960543, 39.53392599989034], [-121.9943190004296, 39.53496399999417], [-121.99484599978595, 39.53572700013799], [-121.9949549995659, 39.535892999655076], [-121.99582800032532, 39.53720899968287], [-121.99827899967913, 39.54246100006836], [-121.99915200043853, 39.54483899970959], [-122.00007700017818, 39.5492000002381], [-122.00108800013152, 39.55166500022493], [-122.00193900025131, 39.55376699990858], [-122.00201500041932, 39.55395400026913], [-122.0022759996369, 39.55558499996475], [-122.00305099958868, 39.55766499998422], [-122.00324599958236, 39.558228000062904], [-122.00318100018335, 39.55887099976758], [-122.00313400032769, 39.55929500031083], [-122.00172300034124, 39.56102300023126], [-122.00108800013152, 39.561159000231406], [-121.99824000021938, 39.56176599986811], [-121.9951229997954, 39.561651999814394], [-121.99227300023342, 39.56225899998401], [-121.9917290002603, 39.56263500016939], [-121.99063399974304, 39.56429500003389], [-121.99105300004268, 39.56589199975321], [-121.99253599999915, 39.56713299977558], [-121.99456399975365, 39.5679990001556], [-121.99528600000201, 39.56810399996864], [-121.99718599971, 39.567698999714665], [-121.99806699996701, 39.56777100027125], [-121.99884600011677, 39.568056999781824], [-122.00108800013152, 39.56887799993655], [-122.00142500041544, 39.56900199989426], [-122.00209700043506, 39.56989600028606], [-122.003340000192, 39.57326000025179], [-122.00329699963599, 39.57395199985943], [-122.00324300010764, 39.574814999999305], [-122.00319999955161, 39.574897999789854], [-122.00255799966921, 39.57576700031381], [-122.00139899957783, 39.57679200002706], [-122.0012689998815, 39.57686300032336], [-122.00108800013152, 39.57696200027378], [-121.99983500032884, 39.57764499997477], [-121.99892399993458, 39.57887699993084], [-121.9982900004481, 39.57901199974515], [-121.99713200018165, 39.58003699993832], [-121.99599800020462, 39.58066799965806], [-121.99520099961319, 39.5817460001006], [-121.99506199969602, 39.58229500008915], [-121.99685799964695, 39.587620999662654], [-121.99682800040802, 39.58892500024246], [-121.99634700018409, 39.5899360002262], [-121.99617700030477, 39.591788999691246], [-121.99582300030245, 39.59244800009305], [-121.99607099999957, 39.59427599995871], [-121.99592600023462, 39.595735000305325], [-121.99667600007206, 39.59868900030717], [-121.99662099982048, 39.60038700023669], [-121.99576700022594, 39.603163999660545], [-121.99400700026005, 39.606264000089176], [-121.9923229995638, 39.60817999973828], [-121.98983200002704, 39.60883999996233], [-121.98897099986152, 39.60928300020485], [-121.9876469999137, 39.609520000219], [-121.98512399969157, 39.60997199986583], [-121.98222200025106, 39.61136900031183], [-121.97955500008887, 39.61479100010843], [-121.9794039995778, 39.617159000226245], [-121.98002600026706, 39.61884299976128], [-121.98141499961389, 39.620753000081855], [-121.98265200042135, 39.621787000066085], [-121.98354600019887, 39.62328300028712], [-121.9844369996033, 39.6236120002777], [-121.98532799990605, 39.62394199991893], [-121.9867099995802, 39.623517999748074], [-121.98801099996177, 39.62407299978256], [-121.98833300017706, 39.62420999974441], [-121.98941100007755, 39.6252779997994], [-121.99064700016183, 39.62631899993987], [-121.99213199976812, 39.62915899968772], [-121.9923639995717, 39.629599999775344], [-121.99159799984072, 39.630832000070846], [-121.9909710000269, 39.63184099974942], [-121.99045399981797, 39.635063000032005], [-121.9907300000025, 39.636148000334956], [-121.99082899973672, 39.63653899973466], [-121.98807299988604, 39.63971899988172], [-121.98717499991061, 39.642374000046644], [-121.9870750003515, 39.64395100019647], [-121.98681800043356, 39.64429800009294], [-121.98639099973796, 39.644873999918204], [-121.98580099973408, 39.645129999760776], [-121.985071999813, 39.64593199988147], [-121.98275899965319, 39.64707300002615], [-121.97598699957818, 39.64863899978505], [-121.97458599963748, 39.64854799986911], [-121.97397700026535, 39.64828700006918], [-121.97108599979717, 39.64786399987512], [-121.9700460004298, 39.647823999706496], [-121.96877799966019, 39.64809400004982], [-121.9681879996563, 39.648348000081505], [-121.96800500025653, 39.6486460002525], [-121.96690800008942, 39.65043700031592], [-121.96662299968408, 39.65244400034078], [-121.9673340000618, 39.65436800029271], [-121.96782899963111, 39.6547820001162], [-121.9680959995948, 39.65550499996597], [-121.96822899966418, 39.65586500007563], [-121.96919299976187, 39.65698399990785], [-121.96985700028392, 39.657753999767394], [-121.9700239997902, 39.657947999821566], [-121.97178399975608, 39.65933199976606], [-121.97272000026469, 39.660068999745725], [-121.97508699995291, 39.661931000061905], [-121.97582300044496, 39.66346099971442], [-121.97765000035801, 39.66424000017404], [-121.97900799974269, 39.66421099983583], [-121.98138600019989, 39.66370499982111], [-121.98182700024084, 39.663331999666966], [-121.98232299963507, 39.6629120001277], [-121.98281899992763, 39.662492000110355], [-121.9837319999717, 39.66126000017889], [-121.98482199956777, 39.660508999847266], [-121.98688299983256, 39.66006999974597], [-121.98824000029063, 39.66004099973249], [-121.98983100020214, 39.66027300019139], [-121.99077100001037, 39.66041099968361], [-121.99422300017012, 39.66188199996835], [-121.99532700000988, 39.6625549999645], [-121.99595499964862, 39.663329999760826], [-121.99649500032207, 39.66386400030561], [-121.99716200031888, 39.66566799988889], [-121.99749299985665, 39.66702500007568], [-121.99734800009169, 39.66848300013827], [-121.99554799994284, 39.67055299977447], [-121.9943429998207, 39.67145799992172], [-121.99386800034289, 39.67155899982393], [-121.99214900038484, 39.671536000180936], [-121.99072699962944, 39.67092999973389], [-121.99025200015161, 39.67103099971658], [-121.9883990002993, 39.67064699999543], [-121.98792300009823, 39.67074799970038], [-121.98674999976315, 39.67034899994374], [-121.98514499960795, 39.67017199972456], [-121.98308300041657, 39.67061000010761], [-121.97990599971816, 39.67219400005046], [-121.97956400030971, 39.672655999847414], [-121.97929200032314, 39.67283200010975], [-121.97902100016148, 39.673007000110616], [-121.97776900018371, 39.673817000187334], [-121.97529500036535, 39.674991000336966], [-121.97479400004994, 39.67548700013243], [-121.9720730003594, 39.6764550002586], [-121.96969400007731, 39.67696100023665], [-121.96628100027563, 39.67651900028023], [-121.96476499980886, 39.67658100002857], [-121.96143499984788, 39.67728900025622], [-121.96019799993871, 39.677877000026264], [-121.95856799966916, 39.67971500017326], [-121.95771800027262, 39.68158199977265], [-121.95734400017878, 39.68659200032084], [-121.95691900003135, 39.68752499973118], [-121.95407100011919, 39.68884399977297], [-121.94962899992248, 39.68978799996961], [-121.94890599984923, 39.689681999832246], [-121.94589200025572, 39.69032199992136], [-121.94491499973924, 39.69091900014608], [-121.94240199956285, 39.6943060003046], [-121.94158300012842, 39.698112999735066], [-121.94184300041941, 39.699743999916414], [-121.94251000041619, 39.70024899984787], [-121.94603500037087, 39.70479999976238], [-121.94702200003476, 39.706530000023285], [-121.94761299986357, 39.70821500002398], [-121.94743799996137, 39.71109700025828], [-121.9488909997806, 39.713632999924975], [-121.95003499980338, 39.71468199969418], [-121.95095100022047, 39.715004000108294], [-121.95077100029542, 39.715304999917194], [-121.95092899958085, 39.71593099968882], [-121.9507910003869, 39.71648599996492], [-121.95090799966447, 39.71856999983791], [-121.95079300003674, 39.71916300028264], [-121.95076500044766, 39.71933999998658], [-121.95041100044531, 39.719863999667666], [-121.94961100037915, 39.7210490003444], [-121.94833599993683, 39.723203999932366], [-121.94681000032266, 39.72493400020122], [-121.94661500032899, 39.7258930002656], [-121.94653199959001, 39.72630399986199], [-121.94658500019175, 39.72677900017966], [-121.94657500014604, 39.72867300024766], [-121.94668099955291, 39.72958100033595], [-121.94693699964594, 39.73065300001685], [-121.94726700025714, 39.731201999909906], [-121.94828499988319, 39.732215999753834], [-121.94867099967259, 39.73250099993936], [-121.94961999970165, 39.73296399993206], [-121.9498680002971, 39.7330010002539], [-121.9501140003444, 39.73296799985581], [-121.95134200003272, 39.73276299966667], [-121.95240700041276, 39.731819999787085], [-121.95321499997652, 39.72997799971691], [-121.95347100006957, 39.729228999919364], [-121.9540379996089, 39.727620999967804], [-121.95420300036365, 39.727204000235474], [-121.9543670003952, 39.72678799977885], [-121.9545020001144, 39.726444000215714], [-121.95463799965853, 39.7261000003181], [-121.9548240003297, 39.72560199987186], [-121.95498499998818, 39.72509299996498], [-121.95504199988957, 39.723995999843076], [-121.95549499962611, 39.72322599986081], [-121.95559300043372, 39.72077499981113], [-121.95723899969848, 39.71908800013051], [-121.95956000025426, 39.71818800023505], [-121.9611610002115, 39.7177620000312], [-121.96252399961905, 39.71774100028882], [-121.96403400023803, 39.7186260000758], [-121.96580400024965, 39.719693000276656], [-121.96700099997585, 39.720796000011575], [-121.96784500042295, 39.72198099987435], [-121.96785999959324, 39.72228399990774], [-121.96786799998917, 39.722397000313656], [-121.96791999986768, 39.723317000212525], [-121.96744299984172, 39.72464299990557], [-121.96712700037254, 39.725287000183954], [-121.96678199969273, 39.72599399999171], [-121.96598099980167, 39.72728000026029], [-121.96499599978756, 39.728390999923015], [-121.9643580001031, 39.728662000117005], [-121.96398099963626, 39.72865900033225], [-121.96345099990683, 39.72885100010865], [-121.96324099984454, 39.728986000278965], [-121.96123200035663, 39.73075200034332], [-121.9606530002234, 39.73257600001048], [-121.96060899984246, 39.733212999922465], [-121.96016799980148, 39.734161000252556], [-121.96044499981095, 39.735147999739205], [-121.96056600018474, 39.73551499983452], [-121.96051799960587, 39.73599900002164], [-121.9604719995751, 39.73639599974457], [-121.96158200016097, 39.738528000322944], [-121.96314999960794, 39.740713000186766], [-121.96379599968832, 39.741398000327905], [-121.96434399985941, 39.741592000252965], [-121.96453600037833, 39.74165899988303], [-121.96458300023401, 39.74167599983033], [-121.96478400007545, 39.74162600017647], [-121.9654279996077, 39.74146699986181], [-121.96551999966918, 39.74142100018022], [-121.96706700009808, 39.74065800014235], [-121.96861299980372, 39.7398960001715], [-121.96891699957736, 39.73974499976169], [-121.9692220000742, 39.73959499994201], [-121.9693629996412, 39.73943899978318], [-121.96936000016646, 39.7393229996664], [-121.97008800026259, 39.737881000006645], [-121.96976600004734, 39.73657100025699], [-121.96928499982339, 39.73509800018483], [-121.96916599999771, 39.734381000182076], [-121.96929999989202, 39.733839000169894], [-121.96972400021454, 39.73312200019675], [-121.9703850003635, 39.732234000294895], [-121.97067599971835, 39.73211399982289], [-121.97241300011802, 39.73158199995826], [-121.97445699976605, 39.731948999696385], [-121.97519400008302, 39.73205000022264], [-121.97706000035413, 39.73284499967731], [-121.97856800042496, 39.73282100008869], [-121.97980699998394, 39.73294800023486], [-121.98217600022029, 39.73390199986893], [-121.98335299985501, 39.734965999750194], [-121.98384599977452, 39.73541299994949], [-121.9851179998438, 39.737760000128524], [-121.98532200005829, 39.73793300012307], [-121.98568600010637, 39.73848099981486], [-121.98603599991071, 39.73902199969734], [-121.98638499989018, 39.739563000168474], [-121.98732100039878, 39.74101300015891], [-121.98746299979068, 39.74120699978629], [-121.98922600012965, 39.743617000004306], [-121.99289599984927, 39.7474060002773], [-121.9951639998033, 39.74988199970252], [-121.99598800015887, 39.75041099967769], [-121.99637899997111, 39.75073900009621], [-121.99671100023217, 39.75103000004243], [-121.99673899982125, 39.75105500026053], [-121.99811399982266, 39.752402999857374], [-121.99856300025957, 39.75264699985658], [-121.9989749999882, 39.752872999701864], [-122.00109099960625, 39.75455699997279], [-122.00873800009049, 39.75923299987913], [-122.0112300003505, 39.75992399988484], [-122.01343399983207, 39.76042300018477], [-122.01519399979799, 39.760815999685875], [-122.01660399995951, 39.76142300012211], [-122.01827799971169, 39.76257299987926], [-122.02020300043236, 39.76440900025215], [-122.02156400019007, 39.76539500025965], [-122.02275400024357, 39.766385000012875], [-122.02325499966067, 39.76678799974778], [-122.02456000024023, 39.76794200032216], [-122.02591900034811, 39.77033799973305], [-122.02730500022021, 39.77161099997384], [-122.02972200013713, 39.77495900002438], [-122.0299999999715, 39.77548300008405], [-122.0302469998437, 39.775947999934665], [-122.03079300036497, 39.77686499977855], [-122.03150300001944, 39.77758600029366], [-122.03241699988843, 39.7787250002851], [-122.03263500034663, 39.77938600012654], [-122.03237500005564, 39.780171000299326], [-122.03156900014169, 39.78037699990183], [-122.03145500033887, 39.78044399977704], [-122.03125600014721, 39.78115400004133], [-122.03098199961254, 39.7815260003103], [-122.0308739996575, 39.781713999963344], [-122.0306340003563, 39.78209899976868], [-122.03028899967649, 39.78251499973893], [-122.02983699976485, 39.783032000300786], [-122.02866299960489, 39.784147999823816], [-122.02756700016103, 39.78501399999323], [-122.02646800034412, 39.786330999697036], [-122.0255939997598, 39.78814800017344], [-122.02513099997753, 39.79024299980002], [-122.02497899964158, 39.791211000116206], [-122.02492400028828, 39.79161199981167], [-122.02468699956353, 39.7932139997825], [-122.02429400010145, 39.79510000032237], [-122.02398600012987, 39.79630700000064], [-122.02382799994612, 39.79767399995492], [-122.02418199994847, 39.798511999910204], [-122.02527999994047, 39.799457000019636], [-122.02649799958306, 39.8001370002405], [-122.02791100011763, 39.800423999691105], [-122.02941199961742, 39.80042100027053], [-122.03140799958489, 39.800042999768074], [-122.0331490001825, 39.79953100029871], [-122.0336200003607, 39.79938799992091], [-122.03581999964436, 39.79845100007853], [-122.03659700014428, 39.7979779998753], [-122.03671199977204, 39.797543000113045], [-122.03678600029018, 39.797248999791286], [-122.03642200024211, 39.79650099986068], [-122.03594600004105, 39.79600399969728], [-122.03595699991169, 39.79531800004636], [-122.03679600033594, 39.79413999985193], [-122.03779800006845, 39.793469999694864], [-122.03820099957628, 39.79324100015252], [-122.03883300031127, 39.7928559998818], [-122.04012600029694, 39.7927479998043], [-122.04177599975964, 39.7935509997815], [-122.04345600025792, 39.79491799998562], [-122.04559000031763, 39.7966700003423], [-122.04647099967633, 39.797648000021965], [-122.04808800042542, 39.79764499979017], [-122.05289799996982, 39.79763799993895], [-122.05359599992875, 39.79763699986153], [-122.05704300006559, 39.7976230001568], [-122.05725599960263, 39.7976230001568], [-122.06448899981007, 39.7976230001568], [-122.06643200007407, 39.79761400014786], [-122.07621199989478, 39.79758600003598], [-122.07626899979618, 39.79758600003598], [-122.07631099962897, 39.79758600003598], [-122.07633499991844, 39.79758499995781], [-122.07635599983482, 39.79758499995781], [-122.07646100031512, 39.79758499995781], [-122.0852390004033, 39.797560000069744], [-122.1027629998943, 39.79751900028881], [-122.10404400018439, 39.7975149999722], [-122.10541199961483, 39.79751099965537], [-122.10543599990429, 39.79751099965537], [-122.12117799968809, 39.797467999685544], [-122.12479300005442, 39.79748100003235], [-122.12481700034388, 39.79748100003235], [-122.12574000043368, 39.79747999995271], [-122.13162500040387, 39.79756699992886], [-122.14092499982559, 39.7976230001568], [-122.14097599987919, 39.7976230001568], [-122.15034099959821, 39.797490000058694], [-122.15086600020307, 39.797491000138194], [-122.15146799990251, 39.79749200021773], [-122.15184299982124, 39.79749200021773], [-122.15206700012723, 39.79749200021773], [-122.15271499985744, 39.79749300029725], [-122.15334400021938, 39.79749399968656], [-122.15548900014974, 39.79749399968656], [-122.15563700028775, 39.79749399968656], [-122.15626400010157, 39.79749399968656], [-122.15651199979867, 39.79749399968656], [-122.15923199966429, 39.797490000058694], [-122.15925500012884, 39.79749300029725], [-122.15932799992376, 39.79750299971115], [-122.15958300019189, 39.79749399968656], [-122.15974899987324, 39.79750200032197], [-122.16002800043081, 39.797518000209664], [-122.16245600021838, 39.79751199973462], [-122.16616899959574, 39.79750399979051], [-122.16910100007179, 39.797494999766045], [-122.169131000209, 39.79750200032197], [-122.17148100017882, 39.797501000242626], [-122.17660200006785, 39.79749800000438], [-122.17827199962204, 39.79749900008381], [-122.17856700007314, 39.79747200000488], [-122.17891799970243, 39.797440000204375], [-122.17951699992713, 39.7973849999085], [-122.1809000003245, 39.797558999991196], [-122.18349499961832, 39.79788800019783], [-122.18465200005987, 39.797934000124364], [-122.18866900010914, 39.79800599982764], [-122.19307399959759, 39.79805299974663], [-122.19482699989081, 39.79804800007984], [-122.19728099961763, 39.798090000306395], [-122.1972980002344, 39.798090000306395], [-122.20064599973875, 39.79810800019841], [-122.20068300044699, 39.79810800019841], [-122.20081800016618, 39.79810900026897], [-122.20094100018983, 39.79811000033953], [-122.20097999964959, 39.79811000033953], [-122.20408899967767, 39.79816399998584], [-122.20622299973736, 39.79817999971952], [-122.21109199973132, 39.79821999972761], [-122.21715300032693, 39.79826999970506], [-122.2200449997217, 39.79829500002522], [-122.22061499963408, 39.79833099969729], [-122.22111299957645, 39.79836299977342], [-122.22998299972615, 39.79844599975049], [-122.23003899980263, 39.798446999816136], [-122.23034900032236, 39.79845000001294], [-122.23496700024614, 39.798506000212065], [-122.24186800019257, 39.798591000143624], [-122.24414700001724, 39.79861899984638], [-122.24506199971113, 39.79863099991271], [-122.24968100035817, 39.79860100008806], [-122.2510990000173, 39.79859200020716], [-122.2510990000173, 39.79871899987489], [-122.2510990000173, 39.79879799987052], [-122.2510990000173, 39.79928900022842], [-122.25184800002982, 39.79928900022842], [-122.2550780004317, 39.79929000028181], [-122.25873899993051, 39.79929199969836], [-122.25881799957322, 39.79929100033518], [-122.25889499956611, 39.79929100033518], [-122.26341799995367, 39.799299000071365], [-122.2650120002382, 39.79929399980499], [-122.26919900016678, 39.7992959999116], [-122.27018199963271, 39.7992959999116], [-122.27214900018618, 39.79929699996489], [-122.27478500038623, 39.79929100033518], [-122.2749810002048, 39.79929100033518], [-122.27635799985606, 39.79929199969836], [-122.27805900027074, 39.79929299975166], [-122.27978699955129, 39.79929399980499], [-122.28630500008137, 39.799299000071365], [-122.28950699999584, 39.79930100017784], [-122.29137900011472, 39.7993030002842], [-122.29279299957592, 39.79930400033738], [-122.29701999968744, 39.799306999806674], [-122.29770500012589, 39.799306999806674], [-122.30704300008072, 39.79931300012511], [-122.3073229995649, 39.799317000337176], [-122.31381099995774, 39.799302000231044], [-122.31804800011503, 39.79929000028181], [-122.31817100013866, 39.79929000028181], [-122.31822600039024, 39.79929000028181], [-122.31825200032954, 39.79929000028181], [-122.31827700044389, 39.79929000028181], [-122.31965499992006, 39.79928399996131], [-122.32043800026777, 39.799287000121645], [-122.32050699986476, 39.79928900022842], [-122.33618000005158, 39.79925699989299], [-122.3516349997802, 39.79925299967747], [-122.35856000001606, 39.79926599968691], [-122.35906700017928, 39.79926500032335], [-122.35949399997652, 39.79926300021583], [-122.35957400034248, 39.79926300021583], [-122.362736000074, 39.79925499978528], [-122.36531799984733, 39.799248000097926], [-122.36565000010836, 39.79924700004393], [-122.36589799980548, 39.79924700004393], [-122.3661100004159, 39.79925000020588], [-122.36637200035673, 39.79925399973139], [-122.36662000005383, 39.79925799994684], [-122.36684099998679, 39.79926100010831], [-122.3668569998803, 39.79926100010831], [-122.36692399982745, 39.79926200016205], [-122.36717099969965, 39.79926500032335], [-122.36970200031772, 39.79927700027691], [-122.37148599967476, 39.79927800033047], [-122.37178100012586, 39.79927899969384], [-122.37200999955641, 39.79927600022338], [-122.37202200015028, 39.79927600022338], [-122.37203600039399, 39.79927600022338], [-122.37205099956428, 39.79927600022338], [-122.37475100023674, 39.799248000097926], [-122.37508900034555, 39.79923500008515], [-122.37611299981938, 39.79905100022421], [-122.37867100020162, 39.79900999995183], [-122.37897699962507, 39.79901899977808], [-122.37910200019684, 39.79902099989265], [-122.38070200032917, 39.79898499989159], [-122.38094400017853, 39.79897600006094], [-122.38118600002784, 39.79896800028718], [-122.38200500036058, 39.79895400016315], [-122.38205200021626, 39.79895300010487], [-122.38207399995756, 39.79895300010487], [-122.38209499987396, 39.79895300010487], [-122.38218699993546, 39.798950999988335], [-122.38222100027065, 39.79894999993002], [-122.38325499979022, 39.798932000258375], [-122.38349099979177, 39.79892800002392], [-122.38352299957883, 39.79892699996531], [-122.38353599999762, 39.79892699996531], [-122.38364999980044, 39.79892499984797], [-122.38443700034613, 39.79890800022868], [-122.38476399968594, 39.79892100030333], [-122.38479700019623, 39.79892199967189], [-122.38483099963311, 39.79892299973056], [-122.38487599983897, 39.79892499984797], [-122.38493799976324, 39.79892800002392], [-122.38504400006843, 39.798932000258375], [-122.38522499981842, 39.79893899997784], [-122.38528400026796, 39.798941000094786], [-122.38574700005022, 39.79894400027004], [-122.38579399990591, 39.79894400027004], [-122.3859780000289, 39.798945000328445], [-122.38616799999973, 39.79894799981339], [-122.38651899962899, 39.798950999988335], [-122.38685599991288, 39.798950999988335], [-122.38687500017946, 39.79895600027966], [-122.39254599988938, 39.799007999836945], [-122.39256900035393, 39.799007999836945], [-122.39258600007238, 39.799007999836945], [-122.39260100014098, 39.799007999836945], [-122.39262100023247, 39.799008999894426], [-122.39264999964647, 39.799008999894426], [-122.39384800009589, 39.7990199998354], [-122.39436799977956, 39.79902800029329], [-122.39579600038277, 39.79904900011052], [-122.39633500033302, 39.79905699987486], [-122.39672199994732, 39.79906300021516], [-122.39686699971227, 39.7990650003285], [-122.39688900035188, 39.7990650003285], [-122.39692000031404, 39.7990650003285], [-122.39698200023832, 39.79906599969496], [-122.39710699991176, 39.79906799980816], [-122.39738499974612, 39.79907200003443], [-122.39756899986914, 39.79907500020401], [-122.39758099956471, 39.79907500020401], [-122.39810600016958, 39.799082999965314], [-122.3981210002382, 39.799082999965314], [-122.39813299993375, 39.799082999965314], [-122.3981649997208, 39.79908400002171], [-122.39817300011671, 39.79908400002171], [-122.39843800043062, 39.799088000247046], [-122.40156199962895, 39.79914700009306], [-122.40167200013212, 39.7991490002039], [-122.40173999990418, 39.79915000025932], [-122.40178199973697, 39.79915100031473], [-122.40181100004932, 39.79915199967994], [-122.40192200037738, 39.79915399979069], [-122.40200500021807, 39.79915599990133], [-122.40287499970613, 39.79917200009441], [-122.40350300024315, 39.79918400006424], [-122.40353500003017, 39.79918400006424], [-122.40357000019031, 39.79918500011911], [-122.40538100020981, 39.799218999906714], [-122.40561700021138, 39.799224000178555], [-122.4078080001725, 39.7992600000545], [-122.41199400027614, 39.79934000017145], [-122.42297300037117, 39.799506999787916], [-122.42772099999131, 39.7995319996584], [-122.42796200001575, 39.79952099979932], [-122.42798399975706, 39.79953299970825], [-122.42825200044398, 39.799545000305216], [-122.42829299955353, 39.79955999966817], [-122.42876499955665, 39.799567000013944], [-122.42880999976249, 39.79956900011257], [-122.42887800043287, 39.799572000260476], [-122.42889900034926, 39.7995730003097], [-122.42911000023646, 39.799582000062266], [-122.4293310001694, 39.799585000209554], [-122.43071500039166, 39.79961699970219], [-122.43075100037666, 39.79961799975081], [-122.4307959996842, 39.799618999799414], [-122.43185000019358, 39.79964300027112], [-122.43250499959647, 39.79965400011068], [-122.43285000027629, 39.79966099975666], [-122.43306799983617, 39.79966599999636], [-122.43398699972803, 39.79968600026133], [-122.43452499985338, 39.79969800014147], [-122.43626300007796, 39.79969800014147], [-122.4363090001087, 39.79969800014147], [-122.4400669996919, 39.79975700015427], [-122.44073600023678, 39.79975900024742], [-122.44085099986452, 39.79975900024742], [-122.44094299992604, 39.79975900024742], [-122.44101800026912, 39.79975900024742], [-122.44108100001829, 39.79975900024742], [-122.44113399972173, 39.79975900024742], [-122.4411799997525, 39.79975900024742], [-122.44121999993546, 39.79975900024742], [-122.44125500009557, 39.79975900024742], [-122.44128600005772, 39.79975900024742], [-122.44131299982187, 39.79975900024742], [-122.44133700011133, 39.79975900024742], [-122.44135899985264, 39.79975900024742], [-122.44137899994412, 39.79975900024742], [-122.44139700038578, 39.79975900024742], [-122.44141300027934, 39.79975900024742], [-122.44142800034791, 39.79975900024742], [-122.44144199969334, 39.79975900024742], [-122.44145500011213, 39.79975900024742], [-122.44171100020515, 39.79975900024742], [-122.44177300012944, 39.79976299974332], [-122.44220800032261, 39.7997649998363], [-122.44521699989325, 39.79976100034046], [-122.44978799996136, 39.79975900024742], [-122.45421500008945, 39.79975700015427], [-122.45440400023533, 39.79975700015427], [-122.45546299986928, 39.799745000284474], [-122.45554400006013, 39.79974400023771], [-122.45555800030384, 39.79974400023771], [-122.45561199983219, 39.79974300019092], [-122.45572300016028, 39.79974200014412], [-122.4559159996058, 39.79974000005052], [-122.46488899968764, 39.79964100017459], [-122.47017799980617, 39.79959099981361], [-122.4703960002644, 39.79958899971563], [-122.47386099994459, 39.799557000209965], [-122.47837900030929, 39.79952800014901], [-122.47847300002059, 39.799523999949265], [-122.47863799987705, 39.79952299989928], [-122.47866499964124, 39.79952299989928], [-122.4787120003952, 39.799521999849325], [-122.4787330003116, 39.799521999849325], [-122.47923600027686, 39.79951899969924], [-122.47934900025476, 39.79951800033936], [-122.4795140001112, 39.799517000289285], [-122.48435499961775, 39.79948700016101], [-122.48436800003654, 39.79948700016101], [-122.48444300037963, 39.799485000059995], [-122.48479599965872, 39.79947600029478], [-122.48481499992529, 39.79947600029478], [-122.48483199964373, 39.79947600029478], [-122.48484699971232, 39.79947600029478], [-122.48487100000179, 39.79947600029478], [-122.48576800015233, 39.799457000019636], [-122.4857880002438, 39.799457000019636], [-122.4883780004131, 39.799442999995215], [-122.49536800004797, 39.79946699983816], [-122.49543900019312, 39.79946699983816], [-122.49551299981293, 39.79946699983816], [-122.49555200017099, 39.79946799988896], [-122.49556499969147, 39.79946799988896], [-122.49561200044548, 39.79946799988896], [-122.49572500042338, 39.79946799988896], [-122.49577599957867, 39.79946799988896], [-122.50114199969009, 39.79948600011054], [-122.50257399959295, 39.799481999908295], [-122.51402700023924, 39.79943999984173], [-122.51404399995765, 39.79943999984173], [-122.51407200044508, 39.79943999984173], [-122.51411799957751, 39.79943999984173], [-122.5150819996752, 39.799438999790524], [-122.5155379997848, 39.799441999944044], [-122.51554700000561, 39.79945199976475], [-122.516918999634, 39.799449000301834], [-122.51893100039331, 39.79949399982404], [-122.51908000035618, 39.79949699997517], [-122.51922900031911, 39.799500000126216], [-122.5193260004035, 39.79950200022679], [-122.52095499994982, 39.79953599985768], [-122.52527599977269, 39.799629000284504], [-122.52531900032872, 39.79963000033294], [-122.52534100007003, 39.79963000033294], [-122.52536199998643, 39.79963000033294], [-122.52539299994856, 39.799630999691196], [-122.52543800015441, 39.79963199973961], [-122.52584900005814, 39.79964100017459], [-122.52624599971817, 39.79964999991821], [-122.52627400020558, 39.799650999966346], [-122.52633699995476, 39.799652000014476], [-122.52683300024732, 39.79966299985259], [-122.52689799964634, 39.79966499994843], [-122.52692000028597, 39.79966499994843], [-122.52705099980722, 39.799668000092154], [-122.52926900043082, 39.7997169996598], [-122.52929700001992, 39.799717999706964], [-122.52931799993632, 39.799717999706964], [-122.52933399982983, 39.799717999706964], [-122.52937099963977, 39.799717999706964], [-122.52949500038665, 39.79971899975412], [-122.53010899978165, 39.79972199989543], [-122.5321330002365, 39.799731999675416], [-122.53467599965182, 39.79975099987457], [-122.53477100008635, 39.79975199992119], [-122.53560700013757, 39.79975700015427], [-122.53563399990173, 39.79975700015427], [-122.535695999826, 39.79975800020085], [-122.5357090002448, 39.79975800020085], [-122.5357309999861, 39.79975800020085], [-122.54025199982554, 39.79978600011866], [-122.54629400015456, 39.79983100011052], [-122.55070700003891, 39.79986699966871], [-122.55886900018395, 39.79981400002501], [-122.55954399967834, 39.79979599988933], [-122.56232399981845, 39.79977400025387], [-122.56364799976622, 39.79974899978119], [-122.56368499957614, 39.79974799973448], [-122.56564700010674, 39.79973599986305], [-122.58769800018327, 39.79966299985259], [-122.58830900010352, 39.799659999708716], [-122.5884399996248, 39.799659999708716], [-122.59415200024094, 39.79963900007805], [-122.61834300022494, 39.79954899981357], [-122.62329400023468, 39.79959099981361], [-122.62347900018258, 39.79959299991159], [-122.62379600037498, 39.7995960000584], [-122.62402900000349, 39.79959800015624], [-122.62404800027008, 39.79959800015624], [-122.6265229999133, 39.79961799975081], [-122.62812200022074, 39.799620999896526], [-122.628364999895, 39.799620999896526], [-122.62937900022138, 39.79962299999363], [-122.62946799990983, 39.79962299999363], [-122.6296119998499, 39.79962299999363], [-122.6296410001622, 39.79962299999363], [-122.62967700014723, 39.79962400004216], [-122.62974099972134, 39.79962400004216], [-122.62982600011013, 39.79962400004216], [-122.63581300018758, 39.79963599993308], [-122.63593200001326, 39.79963599993308], [-122.65005699994629, 39.799661999804634], [-122.65094300022619, 39.79968799966637], [-122.65226499962584, 39.79970399973568], [-122.65253199958954, 39.79971000001952], [-122.65257799962029, 39.799711000066736], [-122.65268700029856, 39.799713000161226], [-122.65300600014079, 39.799719999801255], [-122.65389999991828, 39.79974000005052], [-122.66906000009412, 39.799877000117775], [-122.67030200002615, 39.79988799991986], [-122.67034200020913, 39.79988799991986], [-122.67066000022645, 39.79989100005386], [-122.67076599963335, 39.799892000098495], [-122.67077999987706, 39.799892000098495], [-122.6708180004102, 39.79989300014306], [-122.6709389998857, 39.799894000187656], [-122.67128799986514, 39.799897000321394], [-122.6713120001546, 39.799897000321394], [-122.67260299959212, 39.79990900016467], [-122.67516599999725, 39.79991699982901], [-122.67518100006585, 39.79991699982901], [-122.6820340003317, 39.79993900010885], [-122.68205000022522, 39.79993900010885], [-122.6862730001388, 39.79997000008345], [-122.68639199996451, 39.79997100012693], [-122.69281699970985, 39.80000100004408], [-122.69478300043839, 39.80000899969767], [-122.69501299969386, 39.80000999974059], [-122.69504299983106, 39.80000999974059], [-122.6950939998847, 39.80000999974059], [-122.69513300024276, 39.80000999974059], [-122.69546499960546, 39.80001099978349], [-122.69585299994297, 39.80001299986925], [-122.69630099965663, 39.80001599999773], [-122.69632599977098, 39.80001599999773], [-122.69636699977887, 39.800017000040555], [-122.69641399963456, 39.800017000040555], [-122.70868300024053, 39.800106000341174], [-122.7148639995884, 39.80011399998261], [-122.71494999980212, 39.80011399998261], [-122.71512999972718, 39.80011399998261], [-122.71525600012389, 39.80011399998261], [-122.73057899960803, 39.80017399967903], [-122.73061799996609, 39.80017399967903], [-122.7363220001863, 39.800225999695634], [-122.73637200041503, 39.8002269997354], [-122.73638499993548, 39.8002269997354], [-122.73640400020206, 39.8002269997354], [-122.73643900036217, 39.8002269997354], [-122.73656400003564, 39.800227999775146], [-122.73817199966558, 39.80024200032993], [-122.73859199979016, 39.800238000171724], [-122.73860600003384, 39.800238000171724], [-122.73965700017018, 39.80022899981488], [-122.74248900018881, 39.8002520000343], [-122.75129300021625, 39.80035900002385], [-122.75619700037032, 39.800386999696904], [-122.75621400008876, 39.8003830002373], [-122.76035499998656, 39.800417000122735], [-122.76054699960721, 39.800412999974704], [-122.76059299963792, 39.800411999937644], [-122.7606739998288, 39.80040999986348], [-122.76086799999754, 39.800405999715046], [-122.76089899995968, 39.80040499967788], [-122.76092300024914, 39.80040499967788], [-122.76116400027357, 39.80040000018209], [-122.76169300017808, 39.80038899977173], [-122.76204700018043, 39.8003820001998], [-122.77218100000346, 39.800475000172696], [-122.77222799985911, 39.800475000172696], [-122.7733119996074, 39.80048499984318], [-122.77338600012557, 39.80048499984318], [-122.77390599980924, 39.8004829997712], [-122.77396699990861, 39.8004829997712], [-122.7739800003274, 39.80048399980723], [-122.77465399999687, 39.800494000166516], [-122.77500200015142, 39.80049700027407], [-122.77755100031281, 39.80051600026182], [-122.78756600031018, 39.80056099977599], [-122.79674799973108, 39.80053400020903], [-122.79676299979972, 39.80053400020903], [-122.79678799991406, 39.80053400020903], [-122.79683099957178, 39.80053400020903], [-122.79723200032807, 39.80053500024431], [-122.79768599988952, 39.80053400020903], [-122.80075999975749, 39.80054199980067], [-122.80108799982054, 39.80054199980067], [-122.80267899973202, 39.800543999870946], [-122.80286200003013, 39.800543999870946], [-122.80303000025962, 39.800543999870946], [-122.80374099973902, 39.80054499990608], [-122.80759899977961, 39.80055000008149], [-122.81829500001747, 39.80053500024431], [-122.82409499959881, 39.80052199978466], [-122.82652300028474, 39.8005239998555], [-122.82654000000318, 39.8005239998555], [-122.82657599998818, 39.8005239998555], [-122.82664999960804, 39.8005239998555], [-122.83224800042136, 39.8005300000678], [-122.83315800009237, 39.800532000138475], [-122.833758000142, 39.80053100010315], [-122.84417099962428, 39.80051400019069], [-122.85551600031556, 39.80013800028154], [-122.85617400009147, 39.80011600006532], [-122.85621400027445, 39.80011500002394], [-122.85627799984856, 39.800112999941206], [-122.85639800039746, 39.80010899977548], [-122.85645199992581, 39.80010699969251], [-122.85653200029176, 39.800104000258116], [-122.85655700040613, 39.800103000216616], [-122.85691999973098, 39.80009099971697], [-122.85723600009847, 39.80008099998919], [-122.85793300023246, 39.80005799971257], [-122.8580190004462, 39.80005500027604], [-122.85806100027901, 39.80005400023377], [-122.85817199970874, 39.80005000006463], [-122.85827399981602, 39.80004699993762], [-122.85828600040989, 39.80004699993762], [-122.85830800015121, 39.80004599989525], [-122.86505500011184, 39.79984099987465], [-122.87214600002906, 39.79970299968831], [-122.87236100011421, 39.79969900018891], [-122.87247800029006, 39.79969700009402], [-122.87266400006291, 39.799692999904096], [-122.87617399994896, 39.79962400004216], [-122.87960799966703, 39.799499000075876], [-122.88097699982067, 39.79946300032505], [-122.88701400012683, 39.799319999805846], [-122.88965100015182, 39.79922899975985], [-122.89163200005063, 39.79916699981879], [-122.89170300019575, 39.799164999708424], [-122.89339100019163, 39.79911200021394], [-122.89378899967656, 39.79910000023154], [-122.89802599983383, 39.79914700009306], [-122.89874200023445, 39.799154999845996], [-122.90131999980981, 39.799173000149494], [-122.90547999997423, 39.79927300006256], [-122.90558100025657, 39.79927600022338], [-122.90565599970132, 39.79927800033047], [-122.90969299984206, 39.799397999749466], [-122.90983000010944, 39.799404000060015], [-122.9109620004366, 39.79945099971376], [-122.91114300018656, 39.79945800007058], [-122.9112779999058, 39.79946399968572], [-122.91139599990655, 39.79946899993975], [-122.91179400028982, 39.799485000059995], [-122.91174900008397, 39.798504000082474], [-122.91174900008397, 39.79847300013722], [-122.91174800025908, 39.79844599975049], [-122.91186899973458, 39.798444999684826], [-122.91189999969671, 39.798444999684826], [-122.91576799978306, 39.79840800000623], [-122.9175450003657, 39.79837000024104], [-122.91795899974419, 39.798361000329855], [-122.91833600021106, 39.79835299979437], [-122.91845599986165, 39.79835099966033], [-122.91850299971728, 39.79835000028347], [-122.9186500000304, 39.79834700008231], [-122.92024599996478, 39.79831299986364], [-122.92042099986695, 39.79830900028335], [-122.92067199993713, 39.7983099996608], [-122.9211360004426, 39.79831600006628], [-122.9213249996902, 39.79831800020129], [-122.92168899973825, 39.7983099996608], [-122.92446200020566, 39.79824299992882], [-122.92454699969615, 39.79824099979158], [-122.9248870003531, 39.79823600013846], [-122.92801999977226, 39.79820700021069], [-122.93454099977711, 39.798141999828296], [-122.93765400000312, 39.79815600011758], [-122.93771000007963, 39.79601799973157], [-122.93772799962298, 39.79532600024468], [-122.93773199982093, 39.79517700010748], [-122.93780200014113, 39.79261300033175], [-122.93780200014113, 39.79259999975499], [-122.93780399979096, 39.7925300002177], [-122.93784399997392, 39.791050000031774], [-122.937843000149, 39.791019999661444], [-122.93783899995105, 39.7909019997804], [-122.93777500037694, 39.7889399998362], [-122.93777299982882, 39.78887800028393], [-122.93774799971445, 39.78810099969858], [-122.93773600001889, 39.78773299996677], [-122.937735000194, 39.78770900017096], [-122.93761499964506, 39.784029999891196], [-122.93762700023896, 39.78196700033451], [-122.93762899988879, 39.781632000126415], [-122.9376370002847, 39.78030999996138], [-122.9376370002847, 39.78030000011923], [-122.9376370002847, 39.78027700013158], [-122.93764700033044, 39.77850699975672], [-122.93764700033044, 39.77845899993399], [-122.93766200039904, 39.77572499967674], [-122.93766900007175, 39.7744400001201], [-122.93767300026971, 39.773888000313335], [-122.93767300026971, 39.77381499979862], [-122.93770199968371, 39.76888200015136], [-122.93770199968371, 39.768853000277964], [-122.93770199968371, 39.76883500032661], [-122.93770199968371, 39.76880800004549], [-122.93771099990455, 39.76741700034093], [-122.93764499978228, 39.76468899985354], [-122.93764399995739, 39.764662999884266], [-122.93756199994162, 39.76108999988769], [-122.9375610001167, 39.7610630000221], [-122.93744599959066, 39.7557420002947], [-122.9374320002453, 39.75488800001197], [-122.9374320002453, 39.75486899985456], [-122.93743100042037, 39.754823000142316], [-122.93743100042037, 39.754810000022914], [-122.9374270002224, 39.754600999838075], [-122.93742999969716, 39.75457500020364], [-122.93790400024838, 39.750316000260774], [-122.93791500011903, 39.7502130001052], [-122.93791599994395, 39.75019700026841], [-122.93791799959378, 39.750180999737175], [-122.93795000027914, 39.749882999783324], [-122.93808599982326, 39.74936600026786], [-122.93809300039426, 39.7493400000388], [-122.9380969996939, 39.74932600017703], [-122.93811599996047, 39.74925299986508], [-122.93813400040216, 39.74918299974877], [-122.93816199999124, 39.74907500019938], [-122.93818299990764, 39.748993000159885]]]}, "properties": {"GEOID": "06021", "NAME": "Glenn County"}}]}