{"type": "FeatureCollection", "features": [{"type": "Feature", "geometry": {"type": "Polygon", "coordinates": [[[-119.53626800010528, 36.06527099981453], [-119.5362849998237, 36.06549600008226], [-119.53627300012812, 36.068481000293126], [-119.53627399995305, 36.06895000026608], [-119.53627599960286, 36.06945100009908], [-119.536278000151, 36.06951399970872], [-119.53627899997592, 36.069532999857714], [-119.53627899997592, 36.06956100014536], [-119.5362980002425, 36.06962000025203], [-119.53646700029688, 36.0701699999418], [-119.5365119996044, 36.070372999794294], [-119.53653000004608, 36.07053999973443], [-119.53658699994749, 36.07109900021955], [-119.53650400010683, 36.07690600003517], [-119.53649099968801, 36.07766599996087], [-119.53645499970301, 36.07927600008347], [-119.53645399987809, 36.07930699972448], [-119.5364399996344, 36.07990399998247], [-119.53627899997592, 36.08700199973543], [-119.536278000151, 36.08706800015207], [-119.53627899997592, 36.087204999696105], [-119.536242000166, 36.08726300000344], [-119.53620700000592, 36.0873600002966], [-119.53620100015812, 36.08741300017417], [-119.53626599955713, 36.093384000164285], [-119.53626700028036, 36.09440400001733], [-119.53626899993017, 36.09543700006288], [-119.53627999980084, 36.0961419998976], [-119.53628099962573, 36.096206000140896], [-119.53629200039471, 36.09778700032032], [-119.53630699956503, 36.097928999699676], [-119.53630999993807, 36.09795700003776], [-119.53634500009815, 36.09842499964851], [-119.53638500028113, 36.10127300030696], [-119.53644300000745, 36.10795800029912], [-119.53644100035764, 36.108929000131006], [-119.53644100035764, 36.108955000019016], [-119.53643499961153, 36.11122299972817], [-119.53642100026613, 36.11234500035413], [-119.53641299987024, 36.114094999769684], [-119.53637600006029, 36.1167819996422], [-119.53636799966436, 36.1199319999257], [-119.53636799966436, 36.11998800014523], [-119.53634900029613, 36.120335999836676], [-119.53635000012103, 36.12043200000557], [-119.53635799961863, 36.12050099971434], [-119.53637100003745, 36.12053099985273], [-119.53639100012893, 36.12055900011669], [-119.53641799989309, 36.12058800030181], [-119.53642799993882, 36.120599000269145], [-119.53644899985522, 36.120635999884044], [-119.53646700029688, 36.12074800000458], [-119.53644499965726, 36.12256299981321], [-119.53645100040337, 36.12276400024932], [-119.53644399983237, 36.12298000013351], [-119.5363960001518, 36.12322799977827], [-119.53639699997669, 36.123284999720525], [-119.53641200004532, 36.12331299972785], [-119.53646300009893, 36.12334699982704], [-119.53647300014467, 36.12338999969669], [-119.53648900003819, 36.123708999799426], [-119.53625200021173, 36.12495100019329], [-119.53637100003745, 36.13322599997766], [-119.53637000021253, 36.1376230001376], [-119.53638000025826, 36.13789300011536], [-119.53635299959576, 36.13789300011536], [-119.53617699986867, 36.13789300011536], [-119.5354100003128, 36.137893999826055], [-119.53524000043348, 36.137885000252965], [-119.53507899987667, 36.1378889998215], [-119.53490999982226, 36.13789099996846], [-119.52914100020303, 36.1379139998409], [-119.52911500026376, 36.14182199981336], [-119.52910500021802, 36.1469769997776], [-119.52909400034737, 36.149554999805005], [-119.5291040003931, 36.14998799976487], [-119.529109000416, 36.151599000016304], [-119.52912100011154, 36.15238000007248], [-119.52912799978424, 36.16297700003503], [-119.52912399958629, 36.163252999721784], [-119.529109000416, 36.16408999967228], [-119.52912299976137, 36.16675900031559], [-119.52907300043097, 36.166933000349566], [-119.52907000005791, 36.16713999991186], [-119.5290919997992, 36.16785899994251], [-119.5290819997535, 36.16863700034843], [-119.5290819997535, 36.170696000140076], [-119.52908299957839, 36.172682000086084], [-119.52911100006578, 36.17583099994049], [-119.52911899956342, 36.17750499997894], [-119.52909900037024, 36.17797999977954], [-119.52910299966986, 36.17809000013175], [-119.52912799978424, 36.17821100019581], [-119.5292020003024, 36.17836099993188], [-119.52923400008946, 36.18021799964942], [-119.52924099976214, 36.18175399995863], [-119.5292099998, 36.181883999764686], [-119.52913899965489, 36.182060999912274], [-119.52913000033237, 36.182422000260004], [-119.52913399963202, 36.18320799995847], [-119.52915799992148, 36.18427500004463], [-119.52914200002795, 36.1854060001201], [-119.52915000042387, 36.1861210000261], [-119.52915100024879, 36.186742999980524], [-119.52914399967776, 36.18737500029508], [-119.52914200002795, 36.187513000073146], [-119.52914299985287, 36.18752599968775], [-119.52915100024879, 36.18904600008871], [-119.52915700009656, 36.189136000131796], [-119.52918700023379, 36.18928800025967], [-119.52919300008158, 36.189394999896166], [-119.52920599960203, 36.19072800003775], [-119.52920599960203, 36.19341900012014], [-119.52919300008158, 36.19467300025162], [-119.52920399995224, 36.19613799990219], [-119.52920499977714, 36.196238000311496], [-119.52921300017306, 36.196466999702075], [-119.52921399999795, 36.1969099997781], [-119.52920300012732, 36.19815999969997], [-119.52922800024166, 36.200200000261475], [-119.529217000371, 36.20840099988032], [-119.52923300026454, 36.21074299968758], [-119.5292430003103, 36.21110399972685], [-119.52920700032527, 36.211197999959715], [-119.52919399990648, 36.21126700026698], [-119.52917700018803, 36.21345299974305], [-119.52917600036314, 36.21446299978563], [-119.52915000042387, 36.215841000235415], [-119.52918100038603, 36.21851099963982], [-119.52925699965567, 36.22615699965169], [-119.5292440001352, 36.22634900019381], [-119.52924199958706, 36.2271070003272], [-119.5292730004475, 36.22910300012238], [-119.52926599987651, 36.22965399991718], [-119.52926900024954, 36.23013799987313], [-119.52927699974717, 36.23046800020059], [-119.5292730004475, 36.2307310000638], [-119.5292940003639, 36.23281200018117], [-119.52930400040967, 36.233325999886695], [-119.52930400040967, 36.23336699969512], [-119.52930600005946, 36.23345399967694], [-119.5293079997093, 36.23418099973012], [-119.52932000030317, 36.23489499982869], [-119.52931699993012, 36.23528000020219], [-119.52933199999875, 36.236627000033785], [-119.52932799980077, 36.23726000033041], [-119.5293439996943, 36.23801099985758], [-119.5293439996943, 36.23922400026], [-119.52935200009023, 36.239626000156285], [-119.52935299991515, 36.24078200016848], [-119.52934000039467, 36.240961000146044], [-119.5293439996943, 36.243774000169026], [-119.52935200009023, 36.24610799972171], [-119.5293649996107, 36.24780600026936], [-119.52936299996088, 36.24815399981713], [-119.5293589997629, 36.24833900025108], [-119.52935799993801, 36.24995700005789], [-119.52936600033394, 36.25462600024962], [-119.5293849997022, 36.25531899963969], [-119.52937300000663, 36.25604399986163], [-119.5293780000295, 36.256863999917606], [-119.52937899985442, 36.25941200027101], [-119.52938600042542, 36.25988100012883], [-119.52938300005236, 36.25999999986106], [-119.5293350003718, 36.26020499971725], [-119.5293350003718, 36.26068699965878], [-119.5293350003718, 36.26115500024252], [-119.52935700011312, 36.261424000110644], [-119.52934600024246, 36.26174500035662], [-119.52933199999875, 36.26308199971411], [-119.52931100008233, 36.26443000014914], [-119.52932799980077, 36.265620999935265], [-119.52935399974004, 36.266141999999775], [-119.52933100017383, 36.266748000313505], [-119.5293589997629, 36.26931999970393], [-119.52935799993801, 36.269850000062966], [-119.52920700032527, 36.269844000314066], [-119.52854399962814, 36.26981699998984], [-119.52793100005805, 36.269793000257124], [-119.52673400033186, 36.269742000166815], [-119.52659399969144, 36.26973599968541], [-119.52593199971756, 36.269716000008614], [-119.52512400015378, 36.26970200008691], [-119.52391200035896, 36.26964299976873], [-119.52288299996394, 36.26959299978331], [-119.52126100009029, 36.26953899967621], [-119.51989000028685, 36.26947899975482], [-119.51930699995565, 36.269453999713576], [-119.51625700037714, 36.26931800001552], [-119.51530999999788, 36.26928700013109], [-119.51452500000033, 36.26925099992274], [-119.51344799992472, 36.2692130000067], [-119.51159400024748, 36.269138000327864], [-119.51056999987533, 36.26911099975952], [-119.51032600037618, 36.26911399966213], [-119.5103120001325, 36.26911399966213], [-119.50985299964985, 36.269131999799995], [-119.50929600015627, 36.26913100031548], [-119.50861999993863, 36.2691340002174], [-119.50608099982297, 36.26912499978713], [-119.5027170004251, 36.269082000211654], [-119.50130200024071, 36.269073999984805], [-119.50087200007039, 36.269075999679465], [-119.500294999587, 36.26906199964308], [-119.49862400020785, 36.26905100023349], [-119.49828699992399, 36.26905500034816], [-119.49758700031525, 36.269051999719004], [-119.49688599998328, 36.26905500034816], [-119.49442200021068, 36.26904499969898], [-119.49320299984485, 36.269027000265346], [-119.49254800044196, 36.26902499984514], [-119.49239899958074, 36.26902799975112], [-119.49238400041042, 36.26902799975112], [-119.49187499969909, 36.26903700019261], [-119.4902570000234, 36.269048999813954], [-119.48702999999459, 36.269043000003514], [-119.4859599995917, 36.269051999719004], [-119.48494100014072, 36.269040000098116], [-119.48378100022443, 36.26904199979366], [-119.4824129998957, 36.26902799975112], [-119.48112099973494, 36.26903599998268], [-119.47968499963416, 36.26903000017123], [-119.47771499960596, 36.26902799975112], [-119.4763920003814, 36.269034000286986], [-119.47509199982471, 36.26902600005528], [-119.47483200043204, 36.26903099965697], [-119.47460700030113, 36.26902499984514], [-119.47460599957792, 36.26918200008059], [-119.47461300014892, 36.26927899992525], [-119.47461300014892, 36.2695579999193], [-119.47457999963865, 36.27067699990899], [-119.4745550004226, 36.271990000112545], [-119.47453299978297, 36.27360999996143], [-119.47450900039186, 36.274426999854875], [-119.47451299969148, 36.2750060003487], [-119.47450099999591, 36.2762489999411], [-119.47449799962286, 36.27658400022154], [-119.47446199963785, 36.27798500004738], [-119.47443900007164, 36.27941299998712], [-119.47443700042183, 36.27987899972801], [-119.47440499973645, 36.28114499975364], [-119.4743789997972, 36.28341399993959], [-119.4743579998808, 36.2852670003266], [-119.47437600032245, 36.28755900024999], [-119.47437499959922, 36.28772899975887], [-119.47435399968282, 36.29403800005763], [-119.4743579998808, 36.29705799993445], [-119.47436700010161, 36.297888999759415], [-119.47445900016312, 36.29986100009164], [-119.47455399969937, 36.3005970001701], [-119.47482200038628, 36.305125000337235], [-119.47504300031925, 36.3097650002654], [-119.47506400023563, 36.31023400020436], [-119.47523400011494, 36.313373000013314], [-119.47528599999347, 36.31704399981762], [-119.47529799968902, 36.31845899973389], [-119.47530400043513, 36.32037800019167], [-119.47533299984913, 36.323037000343135], [-119.47533299984913, 36.32361100010629], [-119.47536399981126, 36.327597000146525], [-119.47536399981126, 36.32767300027082], [-119.47536600035941, 36.327957000079216], [-119.47541400004, 36.33405100019733], [-119.4754070003673, 36.334887999968295], [-119.47541400004, 36.335946999943744], [-119.47543900015435, 36.33793899967602], [-119.47545599987279, 36.340376000159786], [-119.47548099998714, 36.34181999973304], [-119.4752869998184, 36.342198999707286], [-119.47528900036652, 36.34443099984518], [-119.4752039999777, 36.34502600032521], [-119.47540200034443, 36.348965000087865], [-119.47540499981916, 36.349085999799875], [-119.47545400022295, 36.35111300009225], [-119.47545400022295, 36.35117900017654], [-119.47535299994063, 36.356078000334314], [-119.475049000167, 36.37079599982902], [-119.47505300036498, 36.37092300025428], [-119.47518700025928, 36.37494099990255], [-119.47515600029715, 36.37814000014292], [-119.47508400032712, 36.38544200026415], [-119.47503900012127, 36.38995600001203], [-119.4750330002735, 36.39047799964161], [-119.47493500036418, 36.40043899996872], [-119.4749079997017, 36.40075999989107], [-119.47489199980818, 36.400953000350334], [-119.48250400013231, 36.401045999808616], [-119.48392699981432, 36.401038000108386], [-119.48481300009419, 36.40103400025796], [-119.4873250004457, 36.40102100001962], [-119.48863799962452, 36.4010069998161], [-119.4926429999782, 36.40096699984053], [-119.49303100031574, 36.400962999986454], [-119.50095800028413, 36.401068999665256], [-119.50127899977618, 36.40107300023693], [-119.50137500003564, 36.40107300023693], [-119.50173499988574, 36.401084999781546], [-119.51073100043213, 36.40120100034552], [-119.51272200037673, 36.40122700003679], [-119.52423000037628, 36.401377999656866], [-119.5246610003715, 36.40137599974041], [-119.52602899980191, 36.40136900003249], [-119.52853600013053, 36.40144299980522], [-119.52879200022358, 36.401465000310324], [-119.52876799993413, 36.40330100033342], [-119.52875100021568, 36.406098000308155], [-119.52873500032219, 36.40733000014172], [-119.52873100012421, 36.40881600014899], [-119.5287319999491, 36.41066299965646], [-119.52871699988052, 36.41191100017268], [-119.52872100007845, 36.41289699978491], [-119.52871799970542, 36.41365299991447], [-119.52869500013921, 36.414549999887235], [-119.52869199976615, 36.416059000340375], [-119.52867900024565, 36.41760900024435], [-119.52866400017707, 36.423311999922184], [-119.52866300035215, 36.42332200029461], [-119.52861700032139, 36.43064800002212], [-119.52861599959814, 36.43066000005776], [-119.52859300003193, 36.43430999984698], [-119.52857700013841, 36.43569599966581], [-119.52856700009266, 36.439469000085026], [-119.52855700004693, 36.44020000004752], [-119.52856700009266, 36.441473999891954], [-119.52856700009266, 36.441498000227156], [-119.52855200002406, 36.44479400007926], [-119.52854399962814, 36.44512499997159], [-119.52854899965101, 36.44528499983682], [-119.52855100019914, 36.44532199976773], [-119.52855000037425, 36.44533499981735], [-119.52854299980322, 36.4457919996783], [-119.5285400003285, 36.44670100023215], [-119.52852100006193, 36.44775099990681], [-119.52849400029774, 36.4503219999592], [-119.52847699968098, 36.45137199975881], [-119.52847699968098, 36.45246700012056], [-119.52845099974171, 36.453835999970714], [-119.52843999987105, 36.455030000017466], [-119.52844200041919, 36.45535399968784], [-119.52843999987105, 36.45560300007354], [-119.5284340000233, 36.455802999934974], [-119.52843900004616, 36.457440999657095], [-119.52841599958163, 36.458918999871145], [-119.5284209996045, 36.45944299977855], [-119.5284130001069, 36.4598749999845], [-119.52841099955873, 36.459934000016474], [-119.52836299987818, 36.46502099990865], [-119.52835399965734, 36.46697299965705], [-119.52836600025124, 36.46999200031438], [-119.52836600025124, 36.47013100014281], [-119.52835799985532, 36.47190599986088], [-119.5283570000304, 36.47201600001776], [-119.528336000114, 36.47436999990976], [-119.5283290004413, 36.47572400007119], [-119.5283150001976, 36.47636999977024], [-119.52830099995388, 36.480122000034086], [-119.52830099995388, 36.48154600004123], [-119.5282880004334, 36.48482400017561], [-119.52828099986242, 36.48563499967573], [-119.52827800038767, 36.48595099966719], [-119.52828400023546, 36.486681999932536], [-119.52828599988528, 36.48754500027915], [-119.52827900021259, 36.48769300013277], [-119.52824900007538, 36.48785599970285], [-119.5282099997173, 36.48797699987974], [-119.52817899975517, 36.4880519997154], [-119.52809199971652, 36.48820800015215], [-119.5280619995793, 36.488254999773076], [-119.52800200020316, 36.48833000006182], [-119.52788300037746, 36.48845400034146], [-119.52782499975282, 36.48850700005095], [-119.52776500037669, 36.48855600004989], [-119.52759100029941, 36.48867399974329], [-119.52750000006283, 36.488728000302025], [-119.5271939997411, 36.488885999928286], [-119.5284270003506, 36.48892299999994], [-119.53312899993998, 36.48887600006207], [-119.53381600002824, 36.48891399969134], [-119.53450200029158, 36.48886100026031], [-119.5387140003345, 36.48892199972493], [-119.53919700020829, 36.48892900020506], [-119.53921899994958, 36.488918000069326], [-119.53932699990462, 36.48890500010392], [-119.53953899961671, 36.48889500024015], [-119.545971999758, 36.48893400013491], [-119.54614599983526, 36.48893499968754], [-119.54800600025858, 36.48896199988061], [-119.54801799995417, 36.48896199988061], [-119.54811300038872, 36.48896199988061], [-119.55654199959913, 36.48895800022707], [-119.55703399969372, 36.488948999922535], [-119.5571669997631, 36.48894700009545], [-119.55717400033413, 36.48892699965523], [-119.55898600017856, 36.48878399993216], [-119.56027400014132, 36.48876299989502], [-119.56399099971665, 36.488780999824044], [-119.56602799969198, 36.48879399981026], [-119.57304499998936, 36.48883400003204], [-119.57319399995224, 36.48883500030813], [-119.57322099971645, 36.488809000347224], [-119.5733100003032, 36.48873300024485], [-119.57334299991517, 36.48871000036069], [-119.57372000038204, 36.48841800032732], [-119.57485400035904, 36.48754399998639], [-119.57523299957741, 36.487253999762025], [-119.57579199961914, 36.48682499992476], [-119.57746899974437, 36.48553999979656], [-119.57802899961104, 36.48511200018115], [-119.57882700002736, 36.48449400032772], [-119.5812230000279, 36.4826420000703], [-119.58186200043558, 36.482150000279944], [-119.58202499974391, 36.48202899966935], [-119.58204200036064, 36.48201599999244], [-119.58207999999549, 36.48198700026085], [-119.58219700017135, 36.48190000027867], [-119.58223599963108, 36.48187200014742], [-119.58236899970046, 36.48177200031832], [-119.58276799990865, 36.48147499972545], [-119.58290199980294, 36.48137599975638], [-119.58351600009628, 36.48091799974157], [-119.58535899990284, 36.47954600013713], [-119.5859740000211, 36.47908899981996], [-119.58632499965036, 36.478827000248174], [-119.58737999998465, 36.47804099982936], [-119.58773200033717, 36.477780000022385], [-119.58841600005238, 36.477269999987975], [-119.59046800009631, 36.47574200014019], [-119.59086200028163, 36.47545000035037], [-119.59114500013884, 36.47522399969344], [-119.59141100027762, 36.47501000022189], [-119.5922120001687, 36.47436999990976], [-119.59247900013239, 36.47415699999041], [-119.59286200044701, 36.47385000018921], [-119.5940080001196, 36.472997999951666], [-119.59863100006628, 36.46956499986455], [-119.60017299957394, 36.46842099993999], [-119.60104499961014, 36.467777000100405], [-119.60366300026683, 36.46584699997004], [-119.60453600012795, 36.46520400027965], [-119.60461200029593, 36.46514699964192], [-119.60484099972646, 36.46497800009041], [-119.60491799971936, 36.464921999871315], [-119.60533100017123, 36.464617000070945], [-119.60657300010328, 36.46370100009469], [-119.60698700038007, 36.46339699970781], [-119.60754200022383, 36.46298700003121], [-119.60920900030331, 36.46175700027518], [-119.60976499997201, 36.46134799978221], [-119.61181100016819, 36.45981200019465], [-119.6179510004065, 36.45520700019914], [-119.61985500031243, 36.45378099965882], [-119.61992800010738, 36.45372700003723], [-119.62000000007738, 36.453672999655495], [-119.62006200000168, 36.45362600001519], [-119.62012499975087, 36.453578000337764], [-119.6221070003729, 36.452067000018566], [-119.62843099983596, 36.44724999967927], [-119.63048100023008, 36.44568899994303], [-119.63053899995637, 36.44564500013371], [-119.63055700039806, 36.445631000024925], [-119.6306109999264, 36.445588999683366], [-119.63062900036809, 36.44557500028711], [-119.63070999966062, 36.44551600017119], [-119.63072100042959, 36.44550699988012], [-119.63079000002655, 36.44545700001041], [-119.63099699971579, 36.445306000092714], [-119.6310899996022, 36.445239000288716], [-119.63166399971256, 36.44482099975223], [-119.63338799969344, 36.44356699980621], [-119.63384600035116, 36.44323500035171], [-119.63390400007748, 36.443192000015934], [-119.63396299962872, 36.44314999979934], [-119.63397199984954, 36.44314200009967], [-119.63399699996391, 36.443118999693766], [-119.6340110002076, 36.44311200013444], [-119.63408400000255, 36.443052000169196], [-119.63415799962239, 36.44299200015748], [-119.63419199995755, 36.44296399970263], [-119.6344199995632, 36.44277799988265], [-119.63565200034782, 36.44178099997671], [-119.63606300025154, 36.44145000027196], [-119.63608199961982, 36.441436000128896], [-119.63614000024447, 36.44139399968447], [-119.63616000033593, 36.44138099969716], [-119.63698399979323, 36.44083199991301], [-119.63945599996175, 36.43918400018743], [-119.64028100014227, 36.43863600023766], [-119.64045600004447, 36.43851599984296], [-119.64098400012405, 36.438158000128475], [-119.64115999985117, 36.438038999926285], [-119.64133300010353, 36.437913000236044], [-119.64170800002223, 36.4376270001914], [-119.64184399956635, 36.43752399973524], [-119.64217599982737, 36.437257000252785], [-119.64331999985014, 36.43634899986535], [-119.64385799997547, 36.43592399965254], [-119.64426899987922, 36.435598000017244], [-119.64461899968357, 36.435312000114166], [-119.64609400014245, 36.434108999964614], [-119.64690900027722, 36.43348299971433], [-119.64764999989383, 36.43291399999278], [-119.64768300040411, 36.43288699979051], [-119.64810199980546, 36.43254700010748], [-119.64820399991271, 36.43246599981241], [-119.64977800010577, 36.43121800002776], [-119.65030399963723, 36.430801999736374], [-119.6511310003659, 36.430236000082566], [-119.65361199985692, 36.428540000152076], [-119.65444000041047, 36.427975000245894], [-119.65449399993885, 36.42793299974453], [-119.65465700014546, 36.42780700027257], [-119.65471200039705, 36.427766000021684], [-119.65702700020672, 36.426004000194645], [-119.65999300011964, 36.4237499998476], [-119.66033799990115, 36.423487999783184], [-119.66068199985774, 36.42322600028034], [-119.66128000025756, 36.42277099990108], [-119.66144099991601, 36.42264799977924], [-119.6616019995745, 36.42252599987143], [-119.66397400018388, 36.42072099990192], [-119.66558799966164, 36.419493999991154], [-119.66593900018921, 36.41922699993605], [-119.6662899998185, 36.418959999685875], [-119.66640000032167, 36.41888000012798], [-119.66642200006298, 36.41886600025107], [-119.66654199971357, 36.41881800003443], [-119.66666599956213, 36.4187759996398], [-119.66675099995095, 36.418753999699376], [-119.66678500028614, 36.41874799984599], [-119.66692000000533, 36.41872800009037], [-119.66694000009684, 36.41874900030348], [-119.66694699976952, 36.41875700034877], [-119.66699000032555, 36.41881899976819], [-119.6670079998689, 36.41884899972598], [-119.66708300021197, 36.41898099983629], [-119.66709300025772, 36.41901599983336], [-119.66711699964885, 36.41915599966404], [-119.66716500022773, 36.41929300005945], [-119.66725200026639, 36.419804000157015], [-119.66730300031999, 36.420103999745514], [-119.66732099986334, 36.42027800021917], [-119.66733699975687, 36.420382999855185], [-119.66735900039647, 36.42059500029175], [-119.66736100004631, 36.420807999857644], [-119.66735699984834, 36.4209500002075], [-119.6673669998941, 36.4213729998737], [-119.66738199996271, 36.42154800009391], [-119.66739799985623, 36.421615999808736], [-119.66742600034364, 36.42182099973672], [-119.66746999982627, 36.42202799995405], [-119.66753199975054, 36.422196999834064], [-119.66757500030657, 36.42233500033583], [-119.66765300012436, 36.4225379997168], [-119.66771699969844, 36.42267000006216], [-119.66774299963774, 36.422715000292904], [-119.66775400040669, 36.42273400006124], [-119.6678170001559, 36.42282700019172], [-119.66783399987432, 36.422859999814875], [-119.66789599979862, 36.42295299979445], [-119.66792299956278, 36.422981000240604], [-119.66810900023395, 36.42322400020351], [-119.66813599999811, 36.4232519998291], [-119.6681829998538, 36.42331300032091], [-119.66833500018976, 36.42344399967462], [-119.6683750003727, 36.42347499968798], [-119.66852599998545, 36.4235930001386], [-119.66859299993261, 36.42363900022893], [-119.66872000015422, 36.42373800018948], [-119.66900300001141, 36.42391100008042], [-119.66911599998934, 36.423969999996864], [-119.66958200014464, 36.424179999984965], [-119.6696630003355, 36.42420899965301], [-119.66978100033629, 36.424257999815254], [-119.67007000004128, 36.42442299980968], [-119.67014600020929, 36.42446000029032], [-119.67042700041667, 36.42462400019646], [-119.67066400024314, 36.4247369998906], [-119.67098599956007, 36.424930999711044], [-119.67117100040633, 36.42503099984653], [-119.6714850002257, 36.425230999731], [-119.67177300010577, 36.42540100023975], [-119.6719580000537, 36.42550200014038], [-119.67205400031315, 36.42557699970245], [-119.67211500041253, 36.42562999975411], [-119.67213399978083, 36.42566199998594], [-119.67218900003238, 36.42571800035995], [-119.67230500038333, 36.42587100009172], [-119.672388000224, 36.42595400004683], [-119.67251799992037, 36.426099000025445], [-119.67258300021767, 36.42619300010119], [-119.67265799966243, 36.42628100006896], [-119.67275599957173, 36.4264420001132], [-119.67283900031072, 36.42660699980315], [-119.67287199992269, 36.426710999922605], [-119.67288500034148, 36.42681699988704], [-119.6728860001664, 36.42692299970679], [-119.67288199996842, 36.42695900008999], [-119.67288399961825, 36.42702900010458], [-119.67287899959538, 36.42709999968328], [-119.67285900040221, 36.4272059998394], [-119.67283299956463, 36.42731100022645], [-119.67274600042431, 36.42747499989289], [-119.6727060002413, 36.42753799992387], [-119.67265799966243, 36.42759800031884], [-119.67241900018615, 36.42785600033245], [-119.672344999668, 36.427943999860865], [-119.67219300023035, 36.42807500007462], [-119.67208600010021, 36.42813899995528], [-119.67201099975715, 36.428178000059894], [-119.67185599994646, 36.42824999964568], [-119.67181499993856, 36.428265000334015], [-119.67157100043941, 36.42837900012185], [-119.67141999992835, 36.428423000324884], [-119.67134200011056, 36.42845700007048], [-119.67130600012555, 36.42847799982086], [-119.67122499993468, 36.42850899999266], [-119.67108000016972, 36.428590999688], [-119.67089100002386, 36.42868500036047], [-119.6707909995664, 36.42875599987024], [-119.6705629999608, 36.42897300003597], [-119.67051000025737, 36.42902999979235], [-119.67047400027234, 36.429094999932694], [-119.67041399999788, 36.42922199980515], [-119.6703739998149, 36.429293000269375], [-119.6703450004009, 36.42936000010833], [-119.6703250003094, 36.42942899980651], [-119.67030900041587, 36.42946200023759], [-119.6702819997534, 36.42960200002668], [-119.67029099997424, 36.42970799965779], [-119.67032100011146, 36.42981199995977], [-119.67040099957909, 36.429976999715166], [-119.67046099985355, 36.43007100015489], [-119.67056100031097, 36.43018899997679], [-119.67058899990005, 36.43021599967196], [-119.67075399975651, 36.43042699969661], [-119.6707820002439, 36.430455999922366], [-119.67081300020604, 36.43048000005117], [-119.67089100002386, 36.430565000025965], [-119.6709780000625, 36.43064199964226], [-119.67104099981167, 36.43069100008102], [-119.67106799957587, 36.430718000324354], [-119.6711899997746, 36.43081899981282], [-119.67141300025567, 36.43098899964974], [-119.6714929997233, 36.43107399978998], [-119.67158300013499, 36.4310689997418], [-119.67171600020437, 36.431049999844866], [-119.67214600037467, 36.4309480003566], [-119.67227699989594, 36.430921999771236], [-119.67236099956152, 36.43089700020085], [-119.67240900014042, 36.43087800026182], [-119.67258800024057, 36.43086499995846], [-119.67325199986428, 36.43077399994244], [-119.6733809997357, 36.430742999952336], [-119.67368600023254, 36.43068099993499], [-119.67373399991313, 36.43067500028041], [-119.6739079999904, 36.43065600028699], [-119.67439800043518, 36.43061100032216], [-119.67452999978134, 36.43058999970327], [-119.67492200031681, 36.430511000146296], [-119.6755619996511, 36.43034600008041], [-119.67572700040584, 36.43029099973958], [-119.6761960000359, 36.4301669996561], [-119.67627800005168, 36.4301390003559], [-119.67640500027329, 36.430101999690564], [-119.67670499984892, 36.43002700016312], [-119.67700899962254, 36.42996299967069], [-119.67718500024796, 36.42993399998354], [-119.67762999958856, 36.42987700016808], [-119.67816400041426, 36.429817999681056], [-119.67829800030856, 36.4298080001453], [-119.67896899960498, 36.42977299995318], [-119.67905800019174, 36.429771000044994], [-119.6797310000363, 36.429804000330634], [-119.68009099988643, 36.429817999681056], [-119.68031500019242, 36.42981599977402], [-119.6804830004219, 36.429806000238024], [-119.6806740002176, 36.429795999977955], [-119.68076299990608, 36.429785999716636], [-119.68098200018918, 36.42974699969699], [-119.68111199988553, 36.429719000245356], [-119.68123800028222, 36.42968099978594], [-119.68131799974987, 36.42964800017074], [-119.68142800025302, 36.42958600000163], [-119.68153100018519, 36.42951699972021], [-119.681785999555, 36.42931599971358], [-119.68226900032707, 36.42889200034812], [-119.68232299985543, 36.42883499976762], [-119.68240900006916, 36.428735999801134], [-119.68252700006992, 36.42859999977269], [-119.6825670002529, 36.428540000152076], [-119.68275300002573, 36.42829599986806], [-119.68293100030098, 36.42804800035762], [-119.68309299978436, 36.42783400007339], [-119.68316999977726, 36.42774599969753], [-119.68333100033404, 36.42757400002188], [-119.68364599997832, 36.427319000112426], [-119.68371399975038, 36.427273000033956], [-119.68378700044362, 36.42723099987562], [-119.6839749998663, 36.42713299965876], [-119.68401400022435, 36.427116000220686], [-119.68408600019438, 36.42707300035], [-119.68419800034738, 36.4270139999003], [-119.68436400002871, 36.42689400032967], [-119.68454200030394, 36.42678500013125], [-119.68495200038278, 36.42650700025194], [-119.68505899961458, 36.4264420001132], [-119.68528299992057, 36.426323999655494], [-119.68544299975413, 36.42625799972558], [-119.68555900010509, 36.42620399974118], [-119.68571100044105, 36.42614799971773], [-119.68583199991656, 36.42610100002821], [-119.68599599994809, 36.42604499993046], [-119.68620699983529, 36.425982000133544], [-119.68624000034556, 36.42597499975143], [-119.68642399957028, 36.42593500034359], [-119.68663500035578, 36.42587399974328], [-119.68680799970984, 36.42583699993643], [-119.68694099977922, 36.42581899984821], [-119.6871650000852, 36.42581099980767], [-119.6874329998738, 36.425808000153665], [-119.68761199997395, 36.42582000021464], [-119.68801500038009, 36.42583800030263], [-119.68936000024429, 36.425879000126066], [-119.69007599974653, 36.42586999972598], [-119.69016600015824, 36.42587199973466], [-119.69047099975677, 36.4258670000742], [-119.69059799997838, 36.42583200027377], [-119.69067900016923, 36.42580299976631], [-119.69095700000356, 36.42568600015118], [-119.69116200004298, 36.42561200034065], [-119.69178499965881, 36.42540700030194], [-119.69221200035439, 36.425296000160806], [-119.69358200033297, 36.42446099995142], [-119.69391500041888, 36.42443900017595], [-119.69442400023192, 36.42441699967146], [-119.69648499959838, 36.42455000009658], [-119.69956500021243, 36.424926999645166], [-119.70197999958124, 36.425569000359744], [-119.70364199963782, 36.4266329996654], [-119.7042149999233, 36.42701700023048], [-119.70482300036883, 36.42718299977011], [-119.70570299990264, 36.42699699971337], [-119.70683299968167, 36.42645600006981], [-119.70769700022024, 36.42581299981787], [-119.70843500036213, 36.42533100020292], [-119.70854099976903, 36.425263000127345], [-119.7087280002651, 36.42512600014504], [-119.70885399976348, 36.42502400010145], [-119.70906600037391, 36.42483900031117], [-119.70918299965145, 36.42473099977664], [-119.70940299975946, 36.42450599986705], [-119.70949999984386, 36.42438499964927], [-119.70960799979888, 36.4242290001655], [-119.70965399982964, 36.42415600007704], [-119.70968999981464, 36.424102000076324], [-119.70974300041641, 36.42400299985703], [-119.70976699980754, 36.42393500006408], [-119.70979699994479, 36.42386700021156], [-119.70982999955673, 36.42380400009307], [-119.70995199975548, 36.42357100011719], [-119.7100170000528, 36.42347699975835], [-119.71004999966478, 36.423411000299645], [-119.71009099967264, 36.42334799981118], [-119.71016600001573, 36.42325800005733], [-119.71025499970418, 36.42313499998408], [-119.71051300034536, 36.422843000164086], [-119.71059600018602, 36.42271699966001], [-119.71062899979799, 36.422649999870956], [-119.71071500001172, 36.42244799974697], [-119.71074500014895, 36.422343999700026], [-119.71077500028616, 36.42213199970131], [-119.7107719999131, 36.422025999846305], [-119.7107419997759, 36.42170699971664], [-119.7107069996158, 36.42156700014778], [-119.71067599965366, 36.42146299964381], [-119.71067300017891, 36.42142700032657], [-119.71067900002672, 36.42135599989736], [-119.71070999998885, 36.42117899983776], [-119.7107789995858, 36.420972999954664], [-119.71086099960156, 36.4207689996652], [-119.7109090001805, 36.42066899982367], [-119.71112900028851, 36.42027800021917], [-119.71116899957316, 36.42021399964157], [-119.71126200035789, 36.42009200024688], [-119.71152500012361, 36.419801999991975], [-119.71164800014725, 36.41969800001566], [-119.7117059998736, 36.41964399980622], [-119.71180899980577, 36.41957399963942], [-119.71199499957856, 36.41947399970476], [-119.71207199957148, 36.41943699973973], [-119.71219399977022, 36.41939100005156], [-119.71227099976312, 36.41935499977378], [-119.7124749999776, 36.419279000257006], [-119.71268400021499, 36.41921199967021], [-119.71285800029227, 36.41917800021342], [-119.71295100017866, 36.41915599966404], [-119.71303200036951, 36.419122999912574], [-119.71336399973222, 36.41901299991686], [-119.71370900041204, 36.418932999690675], [-119.71401499983548, 36.41887400028432], [-119.71428199979918, 36.418842000146434], [-119.71454999958779, 36.41881800003443], [-119.71517800012481, 36.41878200021391], [-119.71535800004985, 36.41878800006467], [-119.71549199994416, 36.41879900003079], [-119.71558099963262, 36.41881099972927], [-119.7156500001279, 36.41882800026274], [-119.71609799984158, 36.41886100013956], [-119.71636499980526, 36.41889199981394], [-119.71649700004974, 36.4189129999827], [-119.71685500025004, 36.41894200017202], [-119.71712499968847, 36.41895199966148], [-119.7173950000252, 36.41894800001047], [-119.71761799960795, 36.41892800030635], [-119.7179730003335, 36.41888000012798], [-119.71801599999122, 36.41887099963944], [-119.71835099972695, 36.41876699986206], [-119.71839099990993, 36.41875099977274], [-119.71842199987209, 36.4187410002574], [-119.71847600029875, 36.41872599989768], [-119.7186710002924, 36.41863899977807], [-119.71883500032393, 36.41857899968865], [-119.71912499985386, 36.41848199985568], [-119.71933599974105, 36.41842000016723], [-119.7194999997726, 36.41836200011079], [-119.7195840003365, 36.41833599964765], [-119.71966499962903, 36.41830400001097], [-119.71983200003362, 36.418253000223935], [-119.71996199972996, 36.418223000035916], [-119.72013300033248, 36.41817800009363], [-119.72021600017317, 36.41815200029173], [-119.72039000025045, 36.41811399995403], [-119.72051699957375, 36.41807799980717], [-119.72104600037655, 36.41799500010773], [-119.72108999985917, 36.417990999684534], [-119.72117799972271, 36.41797500015818], [-119.72122600030161, 36.4179699999893], [-119.7212530000658, 36.41796600028766], [-119.72131199961701, 36.417959999650506], [-119.72133500008157, 36.4179550002035], [-119.72136299967065, 36.417950999778256], [-119.72143499964068, 36.41793899994689], [-119.72151900020458, 36.417964000075344], [-119.72165100044906, 36.41798499977215], [-119.72187499985674, 36.41799800006356], [-119.72200999957593, 36.4180099998858], [-119.7221400001706, 36.418035999735174], [-119.72231699972261, 36.41806300004223], [-119.72249300034802, 36.418094999778205], [-119.7227949995735, 36.41816300034799], [-119.72293600003879, 36.418200999938875], [-119.72300800000882, 36.41822000008877], [-119.72329699971381, 36.41832000019238], [-119.72362999979975, 36.41842699978474], [-119.72375100017358, 36.41847500024311], [-119.72387699967196, 36.41851199994365], [-119.72399499967274, 36.41856300028343], [-119.7241620000773, 36.41861600006253], [-119.72431799971292, 36.41868700010535], [-119.72451600007965, 36.41877100024532], [-119.72490400041717, 36.41895000019745], [-119.72506300042582, 36.41901599983336], [-119.72517999970337, 36.41906999975665], [-119.72521499986345, 36.4190920003304], [-119.72536800002433, 36.419167000300924], [-119.72562800031535, 36.41930800030971], [-119.72596600042414, 36.419483999848595], [-119.7262939995889, 36.419671999999814], [-119.72637399995483, 36.41971899996651], [-119.72679999992718, 36.419969999937585], [-119.72720599980802, 36.42019400026349], [-119.72731999961084, 36.42025099995933], [-119.72743699978672, 36.42030400003212], [-119.72752100035062, 36.42032900012207], [-119.72756099963529, 36.42034700003727], [-119.72785899956112, 36.42042700025256], [-119.72802699979061, 36.42047700034521], [-119.72854200034972, 36.42060699971265], [-119.72875800025979, 36.42065500026928], [-119.72911300008703, 36.42070199964105], [-119.7294260000815, 36.420730000176036], [-119.72955900015087, 36.42074599985761], [-119.72964899966425, 36.420750000138945], [-119.72978299955855, 36.420762999967494], [-119.72991800017606, 36.4207689996652], [-119.73005299989528, 36.42076500010773], [-119.73036500006484, 36.42073399973531], [-119.73054199961682, 36.420707000356906], [-119.73071400004427, 36.42066599997101], [-119.73102899968853, 36.42057500028891], [-119.73105200015308, 36.42056899985335], [-119.73117099997876, 36.42051699967332], [-119.73127700028398, 36.4204509998673], [-119.7314630000568, 36.420351000339146], [-119.7315669998139, 36.42028300023945], [-119.73181799988407, 36.42007799986559], [-119.73187399996054, 36.420021999761026], [-119.73195699980124, 36.419928000165996], [-119.7320039996569, 36.4198669999065], [-119.7320880002208, 36.4197410003564], [-119.7321240002058, 36.419674999890866], [-119.73223200016083, 36.419519000341865], [-119.73228900006227, 36.41942200023726], [-119.73245800011667, 36.41921099994151], [-119.7325259998887, 36.419117999817544], [-119.73260000040686, 36.41902800022115], [-119.73268800027043, 36.41890400022088], [-119.73281899979168, 36.41867699985888], [-119.73284800010398, 36.41860899973915], [-119.73290199963236, 36.41851100020594], [-119.7329619999068, 36.41837600007854], [-119.73301299996045, 36.41823999997521], [-119.73311500006768, 36.417892000348715], [-119.73317199996909, 36.41771900006001], [-119.73320499958106, 36.41757899980756], [-119.7332640000306, 36.417369999792385], [-119.73332900032794, 36.417161999692695], [-119.73341499964334, 36.41695899999321], [-119.73352900034446, 36.41676499977387], [-119.73355399956051, 36.41673499973396], [-119.73372400033813, 36.41656900026745], [-119.73378899973716, 36.41652000031357], [-119.73396399963933, 36.41640799999309], [-119.73415199996032, 36.41630900008523], [-119.73430900031917, 36.416238999804015], [-119.73442999979466, 36.41617600000307], [-119.7345160000084, 36.416094000208474], [-119.73468300041296, 36.41597399966545], [-119.73475399965976, 36.41593000035967], [-119.73483200037587, 36.41589399992331], [-119.7349129996684, 36.41586400026989], [-119.73504400008798, 36.41583799969339], [-119.73517799998228, 36.41582300021874], [-119.73526800039397, 36.41582399999104], [-119.73549199980162, 36.415839000188356], [-119.73557899984029, 36.415856999698455], [-119.73570500023699, 36.415896000188994], [-119.73586000004768, 36.415968000320206], [-119.73593399966752, 36.416009000294814], [-119.73603900014783, 36.41607600003045], [-119.73609900042227, 36.41612999982922], [-119.73614899975267, 36.41618899987438], [-119.73621400005003, 36.416282999657696], [-119.73633299987569, 36.41647500010743], [-119.73636200018801, 36.416542999926975], [-119.7363830001044, 36.416612000172044], [-119.73639200032524, 36.41665800006037], [-119.7364469996785, 36.41671399969912], [-119.73654200011308, 36.41683600006314], [-119.7365939999916, 36.41689399981347], [-119.73673499955858, 36.41707599974594], [-119.73681099972659, 36.41716399992572], [-119.73685599993242, 36.41722599989391], [-119.73687299965086, 36.41725899972859], [-119.73691700003178, 36.41732100034383], [-119.73708899956092, 36.41752999976803], [-119.73717499977464, 36.417612000215094], [-119.7372419997218, 36.41765999973139], [-119.73740199955537, 36.41772499999294], [-119.73748500029436, 36.417753000155535], [-119.73752399975412, 36.41777000019771], [-119.73769799983137, 36.417807999980894], [-119.73774200021232, 36.41781399990689], [-119.73787100008374, 36.417844000252906], [-119.73800400015313, 36.41786200002125], [-119.73826699991885, 36.41791000010592], [-119.738446000019, 36.4179210001964], [-119.73876099966326, 36.417921999941704], [-119.73886199994561, 36.4179109998513], [-119.7390290003502, 36.417895000308526], [-119.73920400025237, 36.417862999767294], [-119.73933200029889, 36.41782799997344], [-119.73975999992106, 36.41763200025811], [-119.73980199975387, 36.417619999654626], [-119.73987799992184, 36.41758100002979], [-119.73995900011272, 36.41754999983217], [-119.74015199955822, 36.41745999986439], [-119.74031300011502, 36.41739599985601], [-119.7403959999557, 36.41736800028755], [-119.74068999968358, 36.41728100009247], [-119.7411209996788, 36.417180000342], [-119.74125200009836, 36.41715400020599], [-119.74134099978681, 36.41714300000687], [-119.74147200020637, 36.417119000092676], [-119.74173199959905, 36.41706300002304], [-119.74182100018585, 36.41705199981103], [-119.74244799999965, 36.417009000150045], [-119.74271699961315, 36.416994999935866], [-119.74307599963836, 36.41698399971423], [-119.7432110002559, 36.41698500019444], [-119.74339000035604, 36.416991999941295], [-119.7434790000445, 36.416991999941295], [-119.74365800014465, 36.41700099992473], [-119.74397100013908, 36.41700699991308], [-119.74408900013985, 36.41701099966411], [-119.74444399996709, 36.41703600009124], [-119.74482599955851, 36.41705300029036], [-119.74489000003095, 36.41705300029036], [-119.74500499965866, 36.41704700030557], [-119.74509699972018, 36.4170459998261], [-119.74541999976037, 36.41701299990097], [-119.74591400040309, 36.416911000043676], [-119.74604499992432, 36.41687500006208], [-119.74617399979577, 36.4168320003031], [-119.7462609998344, 36.416806999810305], [-119.74629900036757, 36.41679400004239], [-119.74646599987382, 36.4167300002081], [-119.74662099968452, 36.416658999821934], [-119.74679800013485, 36.416584000320945], [-119.7468729995796, 36.416545000175894], [-119.74705000002992, 36.4164350001432], [-119.74711699997705, 36.41638699986982], [-119.74760800024674, 36.41598400025995], [-119.74792799991387, 36.415721000244396], [-119.74801800032557, 36.41564100024167], [-119.74807000020412, 36.415587000102924], [-119.74831999955103, 36.41533000030679], [-119.7484369997269, 36.41522099977917], [-119.74856300012361, 36.4150740001651], [-119.74865500018511, 36.41495100014152], [-119.74880400014801, 36.41477300015613], [-119.74890399970715, 36.414613000284206], [-119.74896800017956, 36.41451899992561], [-119.74902599990588, 36.41442200008228], [-119.74905199984514, 36.41435399985159], [-119.74907100011173, 36.41432200002011], [-119.74913700023396, 36.41415100004207], [-119.74914300008176, 36.41412900023738], [-119.74917999989165, 36.41401300017844], [-119.74923500014326, 36.41369399966526], [-119.74927199995315, 36.413533999739386], [-119.74929200004466, 36.41344899991585], [-119.74930499956514, 36.413415000105], [-119.74933100040273, 36.41330999972331], [-119.74948899968815, 36.41286299973239], [-119.74953499971892, 36.41276299983196], [-119.74963000015347, 36.41260099980677], [-119.74978400013924, 36.41238300033744], [-119.74991800003355, 36.41223999968666], [-119.74996499988922, 36.412178999895204], [-119.75001699976777, 36.41212100023868], [-119.7501330001187, 36.412012000268426], [-119.7502589996171, 36.411910000350005], [-119.75047000040261, 36.41172399985639], [-119.75056499993883, 36.41164899992785], [-119.75062400038838, 36.41159499990547], [-119.75081400035917, 36.41144300006951], [-119.75086899971245, 36.41139100028564], [-119.75239100002699, 36.409040000110664], [-119.75147200013514, 36.40708999998803], [-119.75136800037805, 36.40434900017279], [-119.7516739998015, 36.40380200008697], [-119.75223700004119, 36.402792999939], [-119.7522599996074, 36.40275200021922], [-119.75231900005696, 36.40267599964098], [-119.75233199957744, 36.40266600022528], [-119.75237199976041, 36.40263399991741], [-119.75243000038505, 36.40259899976892], [-119.75250900002776, 36.402534999807806], [-119.75257900034795, 36.40247900006972], [-119.75265100031798, 36.40240299994748], [-119.75273400015867, 36.40233200020378], [-119.7529690003353, 36.402059999974256], [-119.75311400010025, 36.401894000238194], [-119.75320500033683, 36.401916999843856], [-119.75353699969955, 36.401978999690016], [-119.75387099961041, 36.402014000117724], [-119.75392900023502, 36.40201500006776], [-119.75421299991717, 36.40202299966741], [-119.75640700025133, 36.402012000217695], [-119.75665599977336, 36.40201100026763], [-119.75723300025676, 36.40201100026763], [-119.75822300029371, 36.40201100026763], [-119.76119599987935, 36.40201100026763], [-119.76209600040293, 36.40201100026763], [-119.76218699974123, 36.402012000217695], [-119.76221900042657, 36.402012000217695], [-119.76231599961267, 36.402013000167685], [-119.76234900012292, 36.402014000117724], [-119.76359100005496, 36.402012000217695], [-119.76731699985108, 36.40200899964447], [-119.7678750000679, 36.40200899964447], [-119.76855999960804, 36.40201000031754], [-119.76910000028153, 36.40201000031754], [-119.76985500014185, 36.40201100026763], [-119.77072200015515, 36.402012000217695], [-119.77126299975524, 36.402013000167685], [-119.77233099960999, 36.402014000117724], [-119.77553800044568, 36.40201699996777], [-119.77660700012534, 36.402018999867686], [-119.77734699991704, 36.402018999867686], [-119.77956600036558, 36.402021999717526], [-119.78030699998219, 36.40202299966741], [-119.78383699995973, 36.40202299966741], [-119.78389100038642, 36.40202299966741], [-119.78863599963347, 36.40202900008968], [-119.79120200041163, 36.40202500029025], [-119.79281099986652, 36.40203099998927], [-119.79464399962734, 36.40202700018996], [-119.79665999968627, 36.40202400034036], [-119.79822899985646, 36.40203399983865], [-119.799314000328, 36.4020530003279], [-119.79976700006449, 36.40205199965538], [-119.80184300039791, 36.40205199965538], [-119.80330299988984, 36.402059999974256], [-119.80374599958063, 36.40205600017639], [-119.80438099979034, 36.402059999974256], [-119.80591999982332, 36.402072000089504], [-119.80599799964111, 36.402072000089504], [-119.80612599968765, 36.402073999988005], [-119.80623500036586, 36.402072000089504], [-119.80631400000861, 36.402072000089504], [-119.80636500006224, 36.40207100014021], [-119.8065170003982, 36.40206800029232], [-119.80656900027672, 36.40206800029232], [-119.80665399976724, 36.40206599967057], [-119.80688200027117, 36.402062999822476], [-119.80691099968517, 36.402062999822476], [-119.80699699989891, 36.402062999822476], [-119.80704100027984, 36.402062999822476], [-119.80710300020411, 36.40206499972119], [-119.80720299976322, 36.40206700034297], [-119.80750400006211, 36.40207300003879], [-119.80760500034444, 36.4020759998865], [-119.8076809996141, 36.402076999835735], [-119.80779100011729, 36.402078999734094], [-119.80791099976788, 36.402082000304624], [-119.80798799976078, 36.40208400020291], [-119.80809400006599, 36.4020860001011], [-119.80825499972445, 36.402082000304624], [-119.80905899998857, 36.40206700034297], [-119.8093269997772, 36.402062999822476], [-119.80938200002878, 36.402061999873055], [-119.81070099995371, 36.40204599995793], [-119.81171799975485, 36.40203399983865], [-119.81482599995802, 36.402040000260016], [-119.81620199978435, 36.40204400005865], [-119.81769499978657, 36.40204400005865], [-119.82217399979316, 36.40204400005865], [-119.82366699979538, 36.40204400005865], [-119.82576200039534, 36.40204300010906], [-119.83204700039862, 36.40204300010906], [-119.83279600041116, 36.40204300010906], [-119.83414299992519, 36.40205800007535], [-119.83417399988733, 36.40205800007535], [-119.83426699977375, 36.40205800007535], [-119.83429799973588, 36.40205800007535], [-119.83580300033196, 36.40205800007535], [-119.83911800022436, 36.402059999974256], [-119.84032099979835, 36.40205099970582], [-119.84182700021933, 36.40204100020971], [-119.84371400040683, 36.402028000139815], [-119.84937599989595, 36.40198799996674], [-119.85126399990838, 36.40197599983851], [-119.85165100042097, 36.40198600006604], [-119.85249900016771, 36.40198400016522], [-119.85449500013515, 36.401979999640446], [-119.85599300016023, 36.40198700001641], [-119.85620700042048, 36.40198700001641], [-119.85692100027293, 36.40198700001641], [-119.85744299960643, 36.40198999986745], [-119.85801000004412, 36.40199299971837], [-119.85828100020574, 36.401995000342], [-119.85945799984046, 36.40198600006604], [-119.85971099956045, 36.40198700001641], [-119.86027799999809, 36.40199199976811], [-119.86207099957596, 36.40198899991711], [-119.86208300016986, 36.40198899991711], [-119.86745299958093, 36.401979999640446], [-119.86895300015415, 36.40197799973953], [-119.86924699988198, 36.40197799973953], [-119.86927000034653, 36.40197799973953], [-119.8693389999435, 36.40197799973953], [-119.86936300023294, 36.40197799973953], [-119.86940300041591, 36.40197799973953], [-119.86952399989146, 36.40197799973953], [-119.86956499989932, 36.401978999690016], [-119.87125399972011, 36.40198300021479], [-119.87484899999497, 36.40199299971837], [-119.8763210000808, 36.40198899991711], [-119.8780109997265, 36.40198500011564], [-119.87805199973437, 36.40198400016522], [-119.87817700030617, 36.40198400016522], [-119.87821900013893, 36.40198400016522], [-119.8784130003077, 36.40198300021479], [-119.87899699956549, 36.401982000264404], [-119.87919199955915, 36.401982000264404], [-119.88068399973645, 36.401978999690016], [-119.88336400031743, 36.40197599983851], [-119.88516299974307, 36.402000000093174], [-119.88665599974529, 36.40201999981765], [-119.88675299982965, 36.40202099976759], [-119.88704699955754, 36.40202500029025], [-119.88714500036514, 36.40202700018996], [-119.88714799983987, 36.401971000085794], [-119.88715899971052, 36.40180400020694], [-119.8871639997334, 36.40174899989552], [-119.88720700028942, 36.40175600029224], [-119.88721999980987, 36.401759000152246], [-119.88733899963559, 36.40175299970913], [-119.88738300001651, 36.40175199975574], [-119.88748400029884, 36.40174799994207], [-119.88780499979089, 36.40175500033888], [-119.88824699965679, 36.401749999848946], [-119.8884180002593, 36.40175299970913], [-119.88847000013783, 36.40175399966251], [-119.89085600009264, 36.401759000152246], [-119.89152399991433, 36.40176000010549], [-119.89255999998205, 36.40176299996534], [-119.89314300031323, 36.4017639999186], [-119.89489499988319, 36.401766999778246], [-119.89547900003929, 36.401768999684585], [-119.89568400007873, 36.40176799973145], [-119.89630199967169, 36.401765999825024], [-119.89650800043431, 36.401765999825024], [-119.89822999986707, 36.40176100005879], [-119.90339599996194, 36.40174500008169], [-119.90511900011795, 36.401741000267656], [-119.90692299956645, 36.40170399980892], [-119.91233600043186, 36.40159299977319], [-119.91414099970528, 36.40155699992301], [-119.91416499999471, 36.40155699992301], [-119.91419799960669, 36.40155599996709], [-119.91598799970981, 36.401527999750314], [-119.92135999966902, 36.4014439997626], [-119.92315099959704, 36.401417000186235], [-119.92343000015462, 36.40141300035532], [-119.92426700003071, 36.4014010001383], [-119.9243930004274, 36.401400000180374], [-119.9244700004203, 36.40139800026448], [-119.92454599968997, 36.4013970003065], [-119.9246240004061, 36.40139600034858], [-119.9247020002239, 36.401394999667545], [-119.92476900017105, 36.40139399970954], [-119.92543799981763, 36.401384000128886], [-119.92566200012362, 36.40138200021263], [-119.9260269999966, 36.40137599974041], [-119.92712199961555, 36.40136099964247], [-119.92714699972991, 36.40136099964247], [-119.92748800021175, 36.40135399993316], [-119.92750999995307, 36.401352999974684], [-119.92757900044838, 36.401352000016125], [-119.92760200001459, 36.401352000016125], [-119.92762799995384, 36.40135100005757], [-119.92770800031977, 36.40134900014047], [-119.92773500008398, 36.40134900014047], [-119.93031600003243, 36.40129800006705], [-119.93743500043706, 36.401158999824716], [-119.93806100042595, 36.401151000136124], [-119.94064400002422, 36.40111899992743], [-119.9407269998649, 36.40111799996586], [-119.94097700011017, 36.40111400011956], [-119.94106099977574, 36.40111400011956], [-119.94108599989012, 36.40111300015794], [-119.9411620000581, 36.401112000196306], [-119.94118799999734, 36.401112000196306], [-119.94157999963453, 36.40110699966495], [-119.94211199991206, 36.40110199985632], [-119.94488399965624, 36.40108099993355], [-119.9458090002942, 36.401075000161185], [-119.94583900043143, 36.40107400019906], [-119.94592899994478, 36.40107400019906], [-119.94595999990692, 36.40107400019906], [-119.94599099986905, 36.40107300023693], [-119.94608399975549, 36.40107300023693], [-119.94611600044085, 36.40107300023693], [-119.94856699979466, 36.401054000231056], [-119.95592200020083, 36.40099900011186], [-119.95837400027789, 36.400981000051246], [-119.95840500024, 36.40098000008791], [-119.95849800012641, 36.40098000008791], [-119.95852999991347, 36.40098000008791], [-119.95866899983066, 36.40097800016126], [-119.9590870003054, 36.4009760002345], [-119.95922700004749, 36.4009750002711], [-119.95924700013897, 36.40087099967054], [-119.95924399976592, 36.40033300015366], [-119.95923299989526, 36.39962900029137], [-119.95923200007036, 36.39953799982424], [-119.95923899974305, 36.39796000010203], [-119.95922399967444, 36.3955889999684], [-119.95922299984952, 36.39536300020533], [-119.9592220000246, 36.39424199993792], [-119.9592220000246, 36.39370999970623], [-119.9592210001997, 36.39301399967401], [-119.9592220000246, 36.3926569999418], [-119.9592289996973, 36.39147699973272], [-119.95923700009322, 36.38808899964586], [-119.9592360002683, 36.38790199985189], [-119.9592289996973, 36.38631800018952], [-119.9593819998582, 36.384879999789504], [-119.95984200016572, 36.380569000260884], [-119.95999600015149, 36.379132000106274], [-119.96000600019725, 36.378296000322344], [-119.96003999963413, 36.375790999991985], [-119.96005100040308, 36.374956000035695], [-119.96000700002216, 36.37257900013262], [-119.95987499977767, 36.365448000098795], [-119.95983200011996, 36.363072000217485], [-119.95984899983841, 36.36310199999415], [-119.95989999989204, 36.36319199997809], [-119.95991699961047, 36.363223000157475], [-119.9598909996712, 36.36276799999578], [-119.95988700037157, 36.36269700022509], [-119.95981600022645, 36.3614060001574], [-119.95979199993701, 36.36095199997812], [-119.95978100006634, 36.36093300029528], [-119.95977600004348, 36.36042299987962], [-119.95976099997488, 36.358894000064346], [-119.9597569997769, 36.35838499982015], [-119.95974599990625, 36.357316000212116], [-119.95974400025642, 36.3570499997616], [-119.9597070004465, 36.35304700010032], [-119.95969499985263, 36.35171300024794], [-119.959687000355, 36.35084700014994], [-119.95966300006558, 36.34824999985862], [-119.95965499966965, 36.34738500024101], [-119.95962700008054, 36.344410999780465], [-119.959543000415, 36.33549000011645], [-119.95951599975248, 36.33251699999534], [-119.95955099991257, 36.332501999642844], [-119.95955099991257, 36.332338000038526], [-119.95955099991257, 36.33184800013488], [-119.95955099991257, 36.33168500000807], [-119.95953900021702, 36.331663000027014], [-119.95950400005691, 36.33159900030993], [-119.95949300018626, 36.331577999712835], [-119.95950499988183, 36.33119500033954], [-119.95951300027775, 36.33095900024736], [-119.95954500006481, 36.330046000330896], [-119.95955900030849, 36.3296640000963], [-119.95954699971462, 36.32928799968085], [-119.95951099972962, 36.328162999654346], [-119.95949999985896, 36.32778800013703], [-119.95947999976745, 36.327153000110094], [-119.95942000039132, 36.32524900031465], [-119.95940000029985, 36.324615000083405], [-119.95932999997966, 36.32240499998586], [-119.9591230002904, 36.3157750000669], [-119.95905399979513, 36.31356600012178], [-119.95905299997021, 36.31355600010916], [-119.95905200014529, 36.313516999685675], [-119.95901100013742, 36.306513999929734], [-119.95899100004593, 36.30650300000667], [-119.95896299955852, 36.30647500032722], [-119.95894400019026, 36.3064400003518], [-119.95892999994655, 36.30635700022312], [-119.95892900012166, 36.30632200019474], [-119.95889300013663, 36.30542400027839], [-119.95888499974073, 36.30438199980511], [-119.95888599956562, 36.303153999662676], [-119.95890200035747, 36.29912900032957], [-119.9589459998401, 36.28460299978476], [-119.9589259997486, 36.28430299967192], [-119.95893900016739, 36.283629000112526], [-119.95893400014452, 36.283411999888074], [-119.95891999990081, 36.28286899992951], [-119.958918000251, 36.27734999994236], [-119.9589170004261, 36.27066000031648], [-119.95889300013663, 36.270383999768256], [-119.95885799997652, 36.270186999945366], [-119.9588539997786, 36.270086999914994], [-119.95884499955775, 36.269330999799855], [-119.95885799997652, 36.26760300029873], [-119.95885499960349, 36.26736300018055], [-119.95884600028097, 36.266754000300274], [-119.95886499964925, 36.2648080002188], [-119.95885999962636, 36.26065900019737], [-119.95885299995368, 36.259423000313845], [-119.95886299999941, 36.258804999919406], [-119.95887899989295, 36.25818600008178], [-119.95890999985508, 36.257936999729175], [-119.95891300022812, 36.25791400031985], [-119.9589170004261, 36.25783499996651], [-119.9589259997486, 36.25767499975798], [-119.9589459998401, 36.25624000021606], [-119.9589459998401, 36.255939999769524], [-119.9589259997486, 36.25553000031449], [-119.95892499992368, 36.255467999729035], [-119.95891099967997, 36.254884999855705], [-119.95888599956562, 36.25389699974182], [-119.95885299995368, 36.251897000265764], [-119.95890700038034, 36.2497030001684], [-119.95889599961139, 36.24831099998645], [-119.95888300009089, 36.2464600001333], [-119.95889200031174, 36.24473300015086], [-119.95890900003018, 36.24338600016376], [-119.95888899993868, 36.24103000028296], [-119.95888200026597, 36.23729299966621], [-119.95889499978647, 36.23611899973329], [-119.95889599961139, 36.23478700015315], [-119.9589049998322, 36.23277899967862], [-119.95887200022023, 36.22922100035381], [-119.95888100044107, 36.22651700028156], [-119.9589170004261, 36.21795499964284], [-119.958918000251, 36.21097299963809], [-119.95890900003018, 36.21067000016383], [-119.95890099963424, 36.21034900033808], [-119.95889899998441, 36.20988099995337], [-119.95890800020526, 36.208897000311836], [-119.95892099972573, 36.20632900016158], [-119.95892099972573, 36.203841999661186], [-119.95891300022812, 36.203361999950666], [-119.95892300027387, 36.19927800021898], [-119.9589459998401, 36.19608300009383], [-119.95895800043397, 36.195435000154454], [-119.95896299955852, 36.19375099964101], [-119.9589890003961, 36.19134200017004], [-119.95899900044185, 36.18974999969602], [-119.95903200005382, 36.18817600014013], [-119.95904200009956, 36.187373999765185], [-119.95904399974937, 36.185784000208244], [-119.9590749997115, 36.1834090001759], [-119.95907899990948, 36.18228599995271], [-119.95905799999309, 36.1817470000968], [-119.9590389997265, 36.181643999675366], [-119.9590239996579, 36.18160500007174], [-119.9589259997486, 36.181443000004634], [-119.95891599970287, 36.1814139998364], [-119.95921000032905, 36.18140299969473], [-119.95968200033215, 36.18105299991901], [-119.96094299963246, 36.18011400022043], [-119.96792700031787, 36.174933999951456], [-119.96975099985787, 36.17357899974949], [-119.97522599974924, 36.16951600003663], [-119.97705100001245, 36.16816299980116], [-119.97725299967881, 36.16801300012319], [-119.97736099963385, 36.1679239997967], [-119.9782720000281, 36.16718399977644], [-119.97857599980172, 36.16693799995307], [-119.98036099988198, 36.165486999962575], [-119.98571699994764, 36.16113700025675], [-119.98750299985282, 36.15968699965886], [-119.98900500007585, 36.158466000046126], [-119.99351099984665, 36.15480600020465], [-119.9950139998946, 36.15358600025218], [-119.99532199986618, 36.15333500008131], [-119.99533500028497, 36.153324999864275], [-119.99630799970517, 36.15266599964917], [-119.99663800031638, 36.15244400017992], [-119.99804400027996, 36.15149100000104], [-120.00096900018498, 36.14950999991329], [-120.0022089995689, 36.14855999979991], [-120.00355900035427, 36.1475289998395], [-120.00542800010012, 36.14609799980966], [-120.01103600006088, 36.141808000210666], [-120.01290599963164, 36.14037799995876], [-120.0135640003059, 36.13987300009776], [-120.01554000018184, 36.13836099971373], [-120.01619899978273, 36.13785800007662], [-120.01727099983543, 36.13703700005797], [-120.02048899964343, 36.134574999724265], [-120.02156200041938, 36.133754999943875], [-120.02244000030336, 36.13308500033655], [-120.02507499978019, 36.13107400004548], [-120.02595400038739, 36.130404999847485], [-120.02778799997313, 36.12899900014573], [-120.0330720000688, 36.12495200006885], [-120.03328499960578, 36.12477400025113], [-120.03506399983826, 36.123297999828814], [-120.03552900016867, 36.12291099970098], [-120.03593699969937, 36.122596000331654], [-120.03860100038683, 36.12054299975978], [-120.03949000014146, 36.11985999989573], [-120.04050100009482, 36.11907999969305], [-120.04353499977978, 36.11674199972224], [-120.04454699955805, 36.115962999739864], [-120.04638500024008, 36.11454600035336], [-120.05190199996423, 36.110294999735466], [-120.05374099957285, 36.10887899976385], [-120.05447799988984, 36.108309999947906], [-120.05668999976736, 36.106606000047165], [-120.05742799990924, 36.10603799984935], [-120.05840700007555, 36.10528299978112], [-120.06134600022428, 36.103019999896766], [-120.0621150003283, 36.10242899979802], [-120.06229899955301, 36.10228699984141], [-120.0623260002155, 36.10226600002023], [-120.06236499967525, 36.1022349999975], [-120.06248900042213, 36.10214000024969], [-120.06439900017587, 36.10067500029064], [-120.07062100042994, 36.09590399991925], [-120.07269600004008, 36.09431400011449], [-120.07319300015757, 36.09393200005712], [-120.07468600015976, 36.09278899976214], [-120.07518400010213, 36.09240799984122], [-120.07603600004686, 36.091753999883224], [-120.07859500025398, 36.089793000347115], [-120.0791750002121, 36.089349000055726], [-120.07944700019868, 36.08913800007628], [-120.07999299982164, 36.088713999922284], [-120.08163399996184, 36.08744400023671], [-120.08218100030804, 36.08702100001506], [-120.08260499973225, 36.086691999720856], [-120.0838769998015, 36.08570500001429], [-120.08430199994895, 36.08537699967359], [-120.08532100029824, 36.084587000167694], [-120.08837900027267, 36.08221699975636], [-120.08939900044686, 36.081428000144626], [-120.0898749997496, 36.08105899973723], [-120.09130300035278, 36.079951000018276], [-120.09178000037876, 36.079582999666506], [-120.09203999977147, 36.079381000082854], [-120.09282099957105, 36.078774999670294], [-120.09308199968694, 36.07857399992892], [-120.09815700044356, 36.074645999907844], [-120.09831499972898, 36.07452199972922], [-120.09845299982125, 36.074415000190896], [-120.09903500032753, 36.073960000216026], [-120.10068099959231, 36.07267799967172], [-120.10072400014832, 36.072644999965185], [-120.10127099959617, 36.072217999983515], [-120.10291500010942, 36.070937999762364], [-120.10346300028051, 36.070511999795286], [-120.10372000019848, 36.070310999991506], [-120.10449400032535, 36.06970900025537], [-120.10475200006822, 36.069508999707], [-120.10501999985681, 36.069299999930266], [-120.10582400012095, 36.068674000038435], [-120.10609299973447, 36.068466000089956], [-120.10616200022976, 36.06841100004652], [-120.10636899991901, 36.06824999989641], [-120.10643900023918, 36.068197000171814], [-120.10656599956248, 36.068096999854305], [-120.10694999970202, 36.06779900007128], [-120.10707799974854, 36.06769999985217], [-120.10833300009939, 36.06672199966201], [-120.10926899970967, 36.0659939997033], [-120.11209800025357, 36.06379099999253], [-120.11335400042931, 36.06281399980068], [-120.11356199994346, 36.06265099993013], [-120.11418899975726, 36.06216500031651], [-120.11439799999462, 36.06200299977818], [-120.1144299997817, 36.06197800028402], [-120.114459000094, 36.061953000055674], [-120.11464099966888, 36.0618029999714], [-120.11470199976823, 36.0617530001218], [-120.11475899966968, 36.06170600010351], [-120.1149379997698, 36.061571000342894], [-120.1156549999953, 36.06103600025101], [-120.11589500019481, 36.06085800012656], [-120.11603099973892, 36.060753000088724], [-120.11643900016793, 36.0604419997424], [-120.11657600043529, 36.06033799984738], [-120.11664300038244, 36.060285999848325], [-120.11684699969862, 36.0601320003198], [-120.11691500036899, 36.060081000159585], [-120.11794999971349, 36.05928999999279], [-120.11925799976777, 36.05829199988067], [-120.12105799991663, 36.056916999715604], [-120.12209399998434, 36.05612599969865], [-120.12243899976585, 36.055859999796105], [-120.12311599980836, 36.05534099993148], [-120.12347599965847, 36.05506299981652], [-120.1238220001632, 36.05479799999448], [-120.12396699992816, 36.05468600028103], [-120.12440499959607, 36.05435200028002], [-120.1245040002286, 36.054277000291485], [-120.1245550002822, 36.05424700027605], [-120.12498700010234, 36.053990000304694], [-120.12597200011645, 36.053407000285176], [-120.12626099982144, 36.05318299964507], [-120.1266600000296, 36.05287600015085], [-120.12669799966444, 36.05284600032763], [-120.12681499984032, 36.052756000063255], [-120.12685400019838, 36.05272700026278], [-120.12693600021412, 36.05266200014525], [-120.12698200024488, 36.0526279999618], [-120.12718499973616, 36.052469999685755], [-120.12726900030006, 36.05240700022728], [-120.1274490002251, 36.05226800019469], [-120.12798800017538, 36.05185400031519], [-120.12816899992534, 36.051716000113586], [-120.1284700002242, 36.0514839997977], [-120.12937499987237, 36.05078799983121], [-120.12967699999616, 36.05055699978129], [-120.12978699960101, 36.0504720002903], [-120.1301160003873, 36.050216999814005], [-120.13022699981707, 36.05013300005725], [-120.13030200016013, 36.0500749999654], [-120.13052899994085, 36.049900000055345], [-120.13060500010883, 36.049842999896896], [-120.13069100032257, 36.0497749999851], [-120.13095099971525, 36.04956999978893], [-120.13103799975386, 36.04950299975076], [-120.13121699985403, 36.049361000066725], [-120.13149999971124, 36.049138999761006], [-120.13176500002513, 36.048949999772915], [-120.13195199962287, 36.048818000272924], [-120.13216099986023, 36.048660000338394], [-120.1326570001528, 36.048287999810114], [-120.13279100004709, 36.048188000336765], [-120.13300299975919, 36.04803300024829], [-120.13313300035387, 36.04793700024194], [-120.13352300034117, 36.04764999965345], [-120.13365399986245, 36.04755500004052], [-120.13421200007926, 36.04712700029382], [-120.13588599983146, 36.045845999907584], [-120.13644499987318, 36.04541899974702], [-120.13684300025645, 36.0451069996521], [-120.13803699960961, 36.04417099993849], [-120.13830100009855, 36.04396500022253], [-120.13843699964266, 36.04386199979924], [-120.13923800043207, 36.04325699979008], [-120.14164000028038, 36.04144299968373], [-120.14244199999638, 36.04083900019265], [-120.14255999999715, 36.04074799978115], [-120.14291700037252, 36.04047600031884], [-120.14303700002313, 36.04038599971306], [-120.14526399996925, 36.03869299973133], [-120.15194599963255, 36.03361700026686], [-120.15417400030192, 36.03192499966403], [-120.15432099971669, 36.03181100015838], [-120.15476299958257, 36.031472000213974], [-120.15491099972058, 36.031358999666146], [-120.1568480001368, 36.02987399966088], [-120.16266100013696, 36.02542100033494], [-120.1645990003781, 36.02393699998806], [-120.1648670001667, 36.023730999654646], [-120.16567100043083, 36.023115999662764], [-120.16594000004433, 36.0229120002568], [-120.16611699959634, 36.022776000359386], [-120.166648000049, 36.022367999985306], [-120.166824999601, 36.02223199987551], [-120.16700799989911, 36.02209199988053], [-120.16755799972, 36.02167400005554], [-120.16774199984302, 36.02153500026039], [-120.16957299995404, 36.0201419997278], [-120.17506799993689, 36.01596399987323], [-120.17689999987282, 36.01457200023783], [-120.17767599964952, 36.013982000184996], [-120.18000399987798, 36.01221199968713], [-120.18078100037793, 36.01162299999896], [-120.18103499992283, 36.01142599969846], [-120.18179800017909, 36.01083699995045], [-120.18205300044721, 36.010640999741895], [-120.183037999563, 36.009880000133435], [-120.1859950001534, 36.007597000104845], [-120.18698099999241, 36.00683700010409], [-120.18715099987172, 36.0067049997856], [-120.18766100040797, 36.00631200020442], [-120.1878320001122, 36.006180999666455], [-120.18933500016014, 36.00502900032969], [-120.19384599995381, 36.001574000157326], [-120.19534999982669, 36.000422999650894], [-120.19546899965235, 36.000330999786335], [-120.19582799967756, 36.00005700029649], [-120.19594800022647, 35.99996600001662], [-120.19596499994489, 35.99995199985244], [-120.19629700020594, 35.999642999956315], [-120.19716699969398, 35.99883599984483], [-120.19729899993845, 35.998723999763946], [-120.19764500044319, 35.998430999916145], [-120.19781199994947, 35.99828799969936], [-120.19814500003537, 35.99800600008743], [-120.19832699961027, 35.99787700036183], [-120.19850700043362, 35.99775099981765], [-120.19882000042807, 35.99752900013416], [-120.19976100006124, 35.99686300024136], [-120.19989400013063, 35.996769999805565], [-120.200067000383, 35.9966319997539], [-120.20106499991755, 35.995852000357814], [-120.2040590003179, 35.99351499977637], [-120.20505799967736, 35.99273600018556], [-120.20555399996991, 35.99234400014185], [-120.20638699964805, 35.991691000139895], [-120.20982299991424, 35.989000000357265], [-120.21038199995598, 35.98856300017172], [-120.21102700021146, 35.98805999994546], [-120.21171199975159, 35.98751900025844], [-120.21510700000991, 35.98485800019829], [-120.21956400027521, 35.981364999663136], [-120.22688000032332, 35.975632999927385], [-120.23098100003818, 35.97241899976899], [-120.23357500040545, 35.970387000115636], [-120.24286099958341, 35.96311000031997], [-120.24312300042256, 35.96290400030476], [-120.2509759998728, 35.95675099994906], [-120.25260500031742, 35.95547699985023], [-120.25421299994737, 35.954220000166586], [-120.25702099967656, 35.95202500007133], [-120.25750199990048, 35.951669999792685], [-120.25916700033012, 35.95044300016446], [-120.25993300006111, 35.94984500032262], [-120.26223199997727, 35.94805299970424], [-120.26299900043146, 35.947455999903426], [-120.26360299978074, 35.94698299966637], [-120.26541499962516, 35.945567000068856], [-120.26601999969768, 35.945095000139766], [-120.26715200002486, 35.94421300001], [-120.26913899977146, 35.94267199975738], [-120.27404299992553, 35.93887199984577], [-120.27603499969504, 35.93732799994971], [-120.27848400029733, 35.935385999895125], [-120.27947599998411, 35.93460099984818], [-120.2815809997315, 35.932934999970925], [-120.28498100001269, 35.930411000020136], [-120.28602999960087, 35.92963399998326], [-120.28810400028445, 35.92801799980322], [-120.294627999764, 35.92295200008605], [-120.29503399964487, 35.92264400019638], [-120.29841499965949, 35.92009400014281], [-120.30175200019153, 35.91752000020228], [-120.3041730003064, 35.91565400021095], [-120.30646300000173, 35.91389299995214], [-120.3100459996827, 35.91112999974106], [-120.31176899983868, 35.909807000039876], [-120.31357999985822, 35.908419000337894], [-120.31506799983755, 35.90718600032678], [-120.31397499986844, 35.90745199979823], [-120.31257399992774, 35.90789399996798], [-120.3117699996636, 35.90801699995964], [-120.31051199983803, 35.907951000147605], [-120.30841999961112, 35.907951000147605], [-120.30628800009954, 35.90800800028615], [-120.30455900009578, 35.907791000088174], [-120.30383199982457, 35.90765000031784], [-120.30317800024658, 35.907611999815565], [-120.301920000421, 35.907534000029436], [-120.30172700007715, 35.90752199966371], [-120.30169600011502, 35.90752000020896], [-120.30135399980826, 35.90755299993778], [-120.30132799986899, 35.90756399984432], [-120.30092700001101, 35.90753199984737], [-120.30049000016801, 35.9076320001588], [-120.29977499959233, 35.90782099980562], [-120.29860600035353, 35.907754999830104], [-120.29758399963121, 35.90785199996254], [-120.29669300022675, 35.90762700007345], [-120.29515699966852, 35.90754299975683], [-120.29438300043996, 35.90720000020635], [-120.29422899955587, 35.90708999983835], [-120.29379699973573, 35.90671699965489], [-120.29377800036744, 35.906701000214376], [-120.29313700030994, 35.906145999746606], [-120.2912049999166, 35.906170999910415], [-120.28950000020228, 35.9061569998488], [-120.2888619996195, 35.90615300014256], [-120.28834899960852, 35.90607699986481], [-120.28811400033021, 35.90593800017328], [-120.28740100030268, 35.905519999881044], [-120.28653500011428, 35.905519000128365], [-120.28632000002914, 35.905519000128365], [-120.2851299999756, 35.90562299980642], [-120.28342199988826, 35.90591699965421], [-120.28268600029453, 35.906306999964556], [-120.2823260004444, 35.906497000333594], [-120.28213099955241, 35.90660100018158], [-120.28197699956664, 35.90677800035719], [-120.2816300001353, 35.90681599980473], [-120.28096499978835, 35.90692400035619], [-120.2802710000274, 35.90695099974339], [-120.27972600022936, 35.906922000158644], [-120.27897200019396, 35.90693199969051], [-120.27881800020816, 35.90690500029682], [-120.27815100021138, 35.90678899964386], [-120.27693400039371, 35.906462999696], [-120.2757600002337, 35.905880999998836], [-120.27489099967228, 35.90470200005109], [-120.27479100011317, 35.90448800027113], [-120.27451599975353, 35.9038929999123], [-120.27407399988766, 35.903643000181795], [-120.2739629995596, 35.90357999969141], [-120.27345700011962, 35.903148000175484], [-120.27340100004311, 35.90305199988195], [-120.27305000041382, 35.902448999854904], [-120.2729419995605, 35.9023789998679], [-120.27249700021986, 35.90208999968181], [-120.27244600016625, 35.90207400003349], [-120.27248100032637, 35.90205200014788], [-120.27248999964887, 35.90202499981687], [-120.27249100037207, 35.9019950000851], [-120.27248600034923, 35.90197000005739], [-120.27246999955739, 35.90194700034512], [-120.27244699999115, 35.901924999696554], [-120.27238599989178, 35.90188700008341], [-120.27206000037688, 35.901778999934294], [-120.2719850000338, 35.90174100025104], [-120.27193800017814, 35.901709999883195], [-120.27188499957637, 35.901643000102865], [-120.27176199955274, 35.901502000293064], [-120.27171899989504, 35.90148000024853], [-120.27147100019792, 35.9014390002814], [-120.27140199970262, 35.90141000013212], [-120.27134099960325, 35.90137600021957], [-120.27120500005911, 35.90128099976583], [-120.27110100030205, 35.90123400012728], [-120.27103199980675, 35.901208000052044], [-120.27092300002683, 35.90117599966787], [-120.27083299961514, 35.90114099984681], [-120.2707249996601, 35.90107599993016], [-120.27063599997165, 35.90099699971329], [-120.27034300006868, 35.900868000129215], [-120.27029399966489, 35.90083899977071], [-120.27019800030372, 35.90079599984688], [-120.26973700017126, 35.900153000009986], [-120.26892000038669, 35.899420000136956], [-120.2681820002448, 35.89884899997298], [-120.26785800037969, 35.89842600013936], [-120.26719600040579, 35.89810599974912], [-120.26641499970789, 35.89781699997003], [-120.26591299956755, 35.89743299988509], [-120.26546900005185, 35.89717099964493], [-120.26406499973811, 35.89673900007717], [-120.26368200032178, 35.89661299969851], [-120.2631759999835, 35.8963279997655], [-120.2626920002848, 35.89609000007192], [-120.26247600037473, 35.89587000031804], [-120.2622899997036, 35.895546000268475], [-120.26069499959414, 35.894110999822196], [-120.26004699986393, 35.89334600012431], [-120.25950700008876, 35.89280099974518], [-120.25936099960056, 35.89243599997068], [-120.25913800001784, 35.89179599968372], [-120.25809399955418, 35.89092299977145], [-120.25740300016629, 35.89057800035864], [-120.25708199977592, 35.88994499998204], [-120.25657299996288, 35.88913299978469], [-120.25653699997785, 35.88905300006036], [-120.25640100043377, 35.888921000047326], [-120.2562499999227, 35.888811999710875], [-120.25586099976029, 35.888611000199155], [-120.25574799978237, 35.88856600024948], [-120.25546999994802, 35.888498000293104], [-120.25529000002298, 35.88846100002477], [-120.25521700022804, 35.8884320002154], [-120.25517700004508, 35.88840900020847], [-120.25512699981635, 35.88837199989854], [-120.255073000288, 35.88831300023404], [-120.25479399973041, 35.88794300027479], [-120.25461600035351, 35.88776200028266], [-120.25447099969023, 35.88766200033874], [-120.25434500019183, 35.887585999772874], [-120.25413000010668, 35.887481999684795], [-120.25389699957988, 35.88739199993219], [-120.2536370001872, 35.88732599966045], [-120.25279100009027, 35.88719800034396], [-120.25274099986156, 35.88719399967969], [-120.25264899980004, 35.88717399999425], [-120.25256500013447, 35.88713999978958], [-120.2524909996163, 35.887091999775436], [-120.25245899982927, 35.88706300019251], [-120.25240600012582, 35.88699900034763], [-120.25238699985924, 35.886964000080766], [-120.25232499993494, 35.88678400002361], [-120.25230800021652, 35.886631000053626], [-120.25228800012502, 35.88655799993049], [-120.25223899972123, 35.88649399967742], [-120.25182500034275, 35.88602300012464], [-120.25001599997304, 35.88486600018433], [-120.24960000004646, 35.88451699978326], [-120.24934800015136, 35.88428599966668], [-120.24927899965608, 35.88413199994242], [-120.24915800018056, 35.88403699990177], [-120.24895700033912, 35.88392700009536], [-120.24886500027762, 35.88384300010064], [-120.24851700012306, 35.88339199998328], [-120.2481320001586, 35.88298499967872], [-120.24793700016494, 35.882669999677425], [-120.24779599969962, 35.882176000311034], [-120.2476540003077, 35.88167100018292], [-120.24713899974859, 35.880777000095755], [-120.246217000382, 35.87974400027572], [-120.24577799999084, 35.87943999993393], [-120.24497899974959, 35.878886999938416], [-120.24395299972765, 35.87824800015184], [-120.24327499986018, 35.87766900004239], [-120.24314699981367, 35.87689100014956], [-120.24341100030264, 35.876432999641075], [-120.24341899980024, 35.875860000131496], [-120.24346800020406, 35.87513299963762], [-120.2435779998089, 35.874961000005655], [-120.24376399958174, 35.874478000011685], [-120.24470099991525, 35.87366599991552], [-120.24512799971252, 35.87334300016243], [-120.24521399992626, 35.87311899989172], [-120.24471299961081, 35.87267500030404], [-120.24436799982934, 35.87233000001325], [-120.24438700009591, 35.87203999988321], [-120.24459399978514, 35.871472000087415], [-120.24427300029309, 35.8703619999492], [-120.24346800020406, 35.869517000335584], [-120.24300299987364, 35.86889600018612], [-120.24236000016633, 35.868263999995804], [-120.24131300022796, 35.86785800008483], [-120.24084200004974, 35.867437999920945], [-120.24056900023827, 35.86699000030151], [-120.24037900026747, 35.86643800027758], [-120.24024600019808, 35.865927999750134], [-120.24081500028555, 35.86548000033035], [-120.24276600004717, 35.864871999666995], [-120.24407800029942, 35.86470299967671], [-120.24598800005315, 35.86413499970471], [-120.24650699991192, 35.86369299984268], [-120.24707599999941, 35.86292299971991], [-120.24792899976902, 35.86225399981052], [-120.24861500003236, 35.86187199970188], [-120.24872399981228, 35.86154399983954], [-120.24864199979655, 35.860720999842854], [-120.24856499980365, 35.860341000272776], [-120.24853999968927, 35.86018699986693], [-120.24857800022244, 35.86017599993052], [-120.2491959998154, 35.859152999898285], [-120.25029200015759, 35.8578550003166], [-120.25097800042093, 35.85728500005547], [-120.25230800021652, 35.856747999853724], [-120.25334000008625, 35.85627300032588], [-120.2542229999931, 35.85591199974236], [-120.25510599989994, 35.85579299968991], [-120.25590900033916, 35.85568200033046], [-120.25625599977047, 35.85542399966432], [-120.25626699964113, 35.85513299989495], [-120.25582200030054, 35.85482600005632], [-120.25496500033296, 35.85332099975737], [-120.25500499961761, 35.8529899996709], [-120.25535299977217, 35.852716000282996], [-120.25564800022325, 35.852572000198506], [-120.25597899976106, 35.852410999941036], [-120.25723900013475, 35.85196200014592], [-120.25749699987762, 35.851872999788945], [-120.25686400021604, 35.851298999913546], [-120.25739200029562, 35.85048399980217], [-120.25780099965121, 35.849580000033484], [-120.25796300003293, 35.84852300013228], [-120.25811399964569, 35.847683000198636], [-120.25809600010231, 35.84706899989401], [-120.25832700008098, 35.84632700012005], [-120.25881400015271, 35.8457219997111], [-120.25918200039877, 35.84528699980864], [-120.25930200004935, 35.84505300028033], [-120.25904500013141, 35.84478599967647], [-120.25873899980965, 35.844429999657635], [-120.25823500001948, 35.84385499998958], [-120.25766199973404, 35.843473999873794], [-120.25609699976182, 35.8431479999788], [-120.2550880003566, 35.84257999994504], [-120.25467699955456, 35.84099599990161], [-120.25410499999234, 35.84000899975093], [-120.25316799965883, 35.83873899985047], [-120.25221399960685, 35.83668500012313], [-120.25156300040192, 35.83561799971375], [-120.25180299970314, 35.83503700004309], [-120.25171499983958, 35.83441500005723], [-120.25136000001235, 35.8341629996655], [-120.25097800042093, 35.83401700026884], [-120.25026000037053, 35.833092999752466], [-120.24997900016312, 35.831348000318], [-120.249836000048, 35.82993599970737], [-120.24866100006312, 35.82801199977082], [-120.24747199983452, 35.8267900002645], [-120.24614899971162, 35.82639400015113], [-120.24536200006425, 35.824933999737745], [-120.244534000409, 35.82398800008575], [-120.24347400005182, 35.823404000298616], [-120.24234500009769, 35.82342299999265], [-120.24096400024848, 35.82434700020942], [-120.24065399972878, 35.8245999997716], [-120.23958900024707, 35.8254020002567], [-120.23891499967925, 35.82575100022946], [-120.23721400016292, 35.825091000256826], [-120.23524199958659, 35.82393400010111], [-120.23452100006146, 35.823260000169704], [-120.23320299996145, 35.82329999974614], [-120.23116599998612, 35.82325199966926], [-120.23036099989706, 35.82273800006169], [-120.23014800036003, 35.82229899984316], [-120.23017000010135, 35.821920999876596], [-120.22982299977173, 35.8210119997333], [-120.22906100023872, 35.82101399991491], [-120.22697900005754, 35.82143299970506], [-120.22542400013106, 35.82117000008654], [-120.22388099990013, 35.8205210002382], [-120.2222310004374, 35.82014299981741], [-120.22066700029008, 35.8195419997493], [-120.22031099973961, 35.81923700004925], [-120.21990599968366, 35.81891500009978], [-120.21955400022948, 35.8181510000884], [-120.21942799983279, 35.817471999910296], [-120.2187669996838, 35.81649299969978], [-120.21860699985022, 35.81530599973922], [-120.21808600034163, 35.81429700034401], [-120.21799699975486, 35.81277300029918], [-120.21788600032507, 35.81160300000861], [-120.21795900012002, 35.81027500009636], [-120.21811499975561, 35.81014300001295], [-120.21850300009316, 35.80967300013092], [-120.21861600007104, 35.80861899965049], [-120.21919600002921, 35.80782499995664], [-120.21951599969631, 35.807097999981686], [-120.21936900028155, 35.8067400000799], [-120.21943200003074, 35.806025000086144], [-120.21902299977681, 35.80550899984154], [-120.2176620000191, 35.80477499991331], [-120.21677499991429, 35.80404099975906], [-120.21655099960832, 35.80364200035122], [-120.21684799970923, 35.80300300029065], [-120.21777400017208, 35.80223099974461], [-120.21785399963971, 35.80219200008136], [-120.21784000029434, 35.80202299986221], [-120.21674200030232, 35.80138900012505], [-120.21633700024637, 35.80044699964541], [-120.21621500004765, 35.79964699988737], [-120.21559800027958, 35.79821800020877], [-120.21591399974876, 35.79732100005701], [-120.21629299986544, 35.796942000279785], [-120.21629799988831, 35.796772999821286], [-120.21580400014392, 35.79613500028691], [-120.21484599989398, 35.79518199996642], [-120.2147539998325, 35.79436699981733], [-120.21485699976463, 35.79361100029125], [-120.21535100040738, 35.79303299979593], [-120.21581400018965, 35.79248600031109], [-120.21611799996326, 35.79195100035766], [-120.21588899963442, 35.791060999769314], [-120.21574300004454, 35.790380999946606], [-120.21578400005241, 35.79005199986303], [-120.21553100033242, 35.78989400026241], [-120.21397899988068, 35.78927599975729], [-120.20626600017253, 35.7892400003084], [-120.20552200018287, 35.78923700029285], [-120.19964499971029, 35.789216999943505], [-120.19436900001054, 35.78936300011904], [-120.18750700042219, 35.789399000240856], [-120.18556699963293, 35.78940600001979], [-120.18010799963507, 35.789439000114186], [-120.17912599999403, 35.789443999641556], [-120.17025599984433, 35.78937599992198], [-120.16138499986974, 35.789283000275695], [-120.15251399989512, 35.789152000048645], [-120.14839499973863, 35.78901399979283], [-120.14366899985981, 35.788854999818824], [-120.13484100044121, 35.78864399985713], [-120.12829399959882, 35.78858999988397], [-120.12791100018248, 35.78858999988397], [-120.12600200025365, 35.78857999999282], [-120.12149300010982, 35.78859200015351], [-120.11990999969592, 35.78859800023314], [-120.11729899961023, 35.78861199993142], [-120.117163999891, 35.78861199993142], [-120.11268999990729, 35.78863600024124], [-120.11212300036793, 35.78864099981907], [-120.1082560001065, 35.78865399974017], [-120.10605400027472, 35.7886729997331], [-120.0993490001469, 35.788694999757624], [-120.09466400027593, 35.78871800027353], [-120.09044999968485, 35.78873499998529], [-120.08155100012118, 35.788773999696005], [-120.08062800003137, 35.7887820000267], [-120.0763139998812, 35.78879899972471], [-120.07617699961384, 35.7887970001891], [-120.07262700044313, 35.78881000008468], [-120.0636850003234, 35.78884299969791], [-120.06359099971377, 35.78888899990875], [-120.05901999964564, 35.78886000011158], [-120.05872199971981, 35.78886699993798], [-120.05835099999904, 35.788863000141355], [-120.05803999965441, 35.788866000170984], [-120.05782999959213, 35.788869999967446], [-120.05722399969471, 35.788863000141355], [-120.0554040003527, 35.78888500011323], [-120.05415700039778, 35.78891199963985], [-120.04845499982737, 35.788885999879994], [-120.04047500015552, 35.78889599973259], [-120.03790099987975, 35.78893100029982], [-120.03695000020087, 35.78893500009301], [-120.03591900015601, 35.78896000007108], [-120.03535500009141, 35.78897599996545], [-120.03400299965621, 35.78898599980671], [-120.03170600028817, 35.78899499988141], [-120.03161800042464, 35.78900099993067], [-120.02803599967025, 35.788966000122926], [-120.02768500004096, 35.788966999888615], [-120.02436400030079, 35.78897899999085], [-120.02272800018346, 35.78898800006634], [-120.01600799998698, 35.789007999744605], [-120.01494799962984, 35.78901500028661], [-120.010185999766, 35.78903100016997], [-120.0030749997573, 35.78906099966925], [-120.0009700000099, 35.78906500018461], [-119.99688500018858, 35.78908300031501], [-119.99476299982443, 35.78908900035763], [-119.99391000005481, 35.78909300014287], [-119.99180000028456, 35.7890999999487], [-119.98752899979209, 35.78910800024657], [-119.98343499974995, 35.78912899965829], [-119.98318399967977, 35.78914200022827], [-119.98312900032647, 35.78914099973607], [-119.98159299976825, 35.78911700030744], [-119.97876699959741, 35.78910299996942], [-119.97801699975997, 35.78911100026695], [-119.97605199975465, 35.789118000071234], [-119.97451899956948, 35.789160000341234], [-119.97216500030007, 35.78916700014121], [-119.96892700040057, 35.789222000213485], [-119.96859799961427, 35.789228000245615], [-119.9653530000421, 35.789164999886154], [-119.96473000042626, 35.78919100028343], [-119.96459800018178, 35.789194000300725], [-119.96443599980006, 35.78919599982635], [-119.9567160004192, 35.78921900019732], [-119.9478439997214, 35.789244999848236], [-119.93892699971605, 35.789271000219394], [-119.92111899964458, 35.789216999943505], [-119.91543200004112, 35.78914900002977], [-119.90328700018202, 35.789003999955085], [-119.89007899959272, 35.78898500004128], [-119.88848699985628, 35.788950000226535], [-119.8884729996126, 35.788950000226535], [-119.88840099964257, 35.78896399986281], [-119.88833299987051, 35.788981000250594], [-119.88627300032894, 35.78897800022532], [-119.88545700036924, 35.78897599996545], [-119.88087500043049, 35.78897699973107], [-119.87689099999318, 35.78897699973107], [-119.87511400030884, 35.78897699973107], [-119.87151700038415, 35.78897699973107], [-119.87107200014522, 35.78897699973107], [-119.87050700025571, 35.78897699973107], [-119.86966700000657, 35.78897699973107], [-119.86949200010437, 35.78897699973107], [-119.86883599997827, 35.78897699973107], [-119.86878599974956, 35.78897699973107], [-119.86758400000046, 35.78897599996545], [-119.84984000040146, 35.7891790002132], [-119.84975099981467, 35.78917999997626], [-119.8489790002359, 35.789189999791866], [-119.8466610000532, 35.789217999706096], [-119.83446400031555, 35.78936300011904], [-119.82612999974305, 35.78934700030253], [-119.82496900000186, 35.78935400008603], [-119.80836699987746, 35.78955400009337], [-119.80565000038487, 35.789587000126375], [-119.79860899979805, 35.78963099966326], [-119.79624999960745, 35.78964400015111], [-119.79037700023113, 35.78962999990592], [-119.78559000025294, 35.789617999901964], [-119.78523600025062, 35.789617000144474], [-119.78259400020279, 35.78960999965548], [-119.78212499967442, 35.78960899989789], [-119.77844699955887, 35.789599000134956], [-119.77462899970125, 35.78959300013089], [-119.76952500042896, 35.789584999881896], [-119.7680929996278, 35.78958199987936], [-119.76059699965461, 35.78956800035195], [-119.76038699959236, 35.78956300010373], [-119.75476199991316, 35.78943300009805], [-119.75416000021373, 35.789418999815695], [-119.75266600038658, 35.7893849999525], [-119.73381499967643, 35.78894700020003], [-119.72504499998415, 35.78900699997942], [-119.71974300034516, 35.78904199976906], [-119.71929100043353, 35.78904499979198], [-119.71844000031375, 35.78905099983741], [-119.7161070000624, 35.78906500018461], [-119.71602599987155, 35.78906599994904], [-119.7158479995963, 35.78906699971346], [-119.69868399995542, 35.78918099973926], [-119.68925399993907, 35.78924300032384], [-119.68897500027981, 35.789244999848236], [-119.688529000216, 35.78924400008604], [-119.68357599965813, 35.78927400023361], [-119.67958200007342, 35.78930599989277], [-119.66418699972093, 35.789403999770684], [-119.66182199968252, 35.789420000304375], [-119.65293700036253, 35.789473999713636], [-119.6523790001457, 35.78947899996744], [-119.64629099978592, 35.789517000282956], [-119.64421799982557, 35.78952700005621], [-119.63545099960804, 35.78956800035195], [-119.62841800031548, 35.789605000138614], [-119.62656000044029, 35.78961499990074], [-119.62293199965512, 35.78963299990658], [-119.61876599964296, 35.789659000150806], [-119.6187050004419, 35.789653999908325], [-119.6185999999616, 35.78965499966536], [-119.61847799976286, 35.78966500014989], [-119.6178390002535, 35.78971699988015], [-119.61772600027562, 35.78972200011867], [-119.61560700028451, 35.789719999877526], [-119.612145000079, 35.78975100032999], [-119.60842000010781, 35.78977800029105], [-119.60448699972416, 35.78973799985964], [-119.59896699962694, 35.78974800033374], [-119.59657099962642, 35.78977200030051], [-119.59437499964241, 35.78978200004162], [-119.59281499969306, 35.78977500029586], [-119.59130699962222, 35.78977800029105], [-119.5900239996823, 35.78976400006947], [-119.58231599999704, 35.78979199978147], [-119.57949800022209, 35.789800999764886], [-119.57939199991688, 35.78980200024877], [-119.57929300018272, 35.78980200024877], [-119.57633300011754, 35.78982000021231], [-119.57440900012011, 35.78982799970901], [-119.5742609999821, 35.789826000199234], [-119.57401699958467, 35.78982399996076], [-119.57368199984889, 35.78982199972217], [-119.57296100032374, 35.78982399996076], [-119.56146500001975, 35.78984499991198], [-119.55548299996518, 35.789857999636126], [-119.54349200009186, 35.78988600004366], [-119.53812000013268, 35.789898000007135], [-119.5380599998582, 35.79705599993764], [-119.53801200017762, 35.80362300029473], [-119.53800799997967, 35.80391400031655], [-119.53799499956088, 35.80445899993791], [-119.53791400026834, 35.81187400018661], [-119.53785900001677, 35.815581000300014], [-119.53785300016898, 35.8159980000483], [-119.53782499968158, 35.81815899964609], [-119.53783200025258, 35.81908899991346], [-119.53781499963581, 35.82407600035961], [-119.53778000037406, 35.838161999959205], [-119.53780200011536, 35.840637000090325], [-119.53780200011536, 35.840651000083035], [-119.53781700018398, 35.84459299968664], [-119.53781499963581, 35.846215999887576], [-119.53780100029044, 35.85138600004261], [-119.53779399971943, 35.85506600002443], [-119.5377989997423, 35.85516000019624], [-119.53779000041979, 35.85893900005512], [-119.53779000041979, 35.85895299972911], [-119.53774900041192, 35.8624819999471], [-119.5377929998945, 35.86463700015559], [-119.53778100019895, 35.866482000177825], [-119.53778500039692, 35.86955200030468], [-119.53783200025258, 35.87109800004915], [-119.53788199958298, 35.874942000281536], [-119.53787099971233, 35.87635800006676], [-119.53786800023758, 35.87689800022102], [-119.53785399999387, 35.8770830000137], [-119.53786300021471, 35.87716599978817], [-119.53781600035906, 35.8803239998462], [-119.53781499963581, 35.88053900023947], [-119.53781499963581, 35.88056499982428], [-119.53781200016108, 35.88123500023508], [-119.53782899987952, 35.88762699963713], [-119.53785499981879, 35.887847999711255], [-119.5378620003898, 35.88789799994545], [-119.53788400013111, 35.89146899990872], [-119.5378899999789, 35.89152099989871], [-119.53787999993317, 35.89178000013788], [-119.53788400013111, 35.8934359996591], [-119.53786499986454, 35.89868299994133], [-119.53777199997813, 35.898683999780374], [-119.53776799978016, 35.898822999841975], [-119.53778299984879, 35.90288200006179], [-119.53773900036616, 35.90580899991129], [-119.53773699981802, 35.90590799974189], [-119.53773500016821, 35.90599900002082], [-119.53771900027468, 35.90630900017759], [-119.5376790000917, 35.92031999978947], [-119.5376790000917, 35.92043300009814], [-119.53765999982512, 35.92728700024291], [-119.53762600038826, 35.92750999982304], [-119.53762600038826, 35.92771199967621], [-119.53768699958931, 35.93400499964613], [-119.53768199956644, 35.93422599968264], [-119.53769099978726, 35.93454199973448], [-119.53769400016033, 35.9347839998592], [-119.53770900022892, 35.93488500001372], [-119.53769800035828, 35.93510900009034], [-119.53769599981015, 35.93528799996488], [-119.53768199956644, 35.935491999786805], [-119.53767999991662, 35.935512000354244], [-119.53763800008383, 35.93566799995174], [-119.53762999968791, 35.938709000329645], [-119.53756000026604, 35.94220900013791], [-119.53742700019663, 35.948928000359814], [-119.53739200003652, 35.95648200027312], [-119.53736000024946, 35.96311700003575], [-119.53737899961773, 35.96334700001154], [-119.53670999997114, 35.96333800009144], [-119.53643399978661, 35.963333999641904], [-119.53643600033475, 35.963413999869005], [-119.53624100034106, 35.96340899967538], [-119.53617500021883, 35.963415000343915], [-119.5361719998458, 35.96381300004582], [-119.53617900041681, 35.96577600007899], [-119.53616500017311, 35.972777000184145], [-119.5361719998458, 35.975505000287455], [-119.53613599986078, 35.978068000312845], [-119.5361800002417, 35.9799530003533], [-119.53620600018098, 35.982141999840756], [-119.53619600013525, 35.984090000331726], [-119.5361850002646, 35.98552799973884], [-119.53619399958711, 35.98609599997281], [-119.53615299957922, 35.98908000001436], [-119.53616299962499, 35.99165400017944], [-119.53614699973143, 35.9926209998499], [-119.5361440002567, 35.9927659996451], [-119.53608800018019, 35.99296600035384], [-119.53608599963206, 35.99363399990328], [-119.53609099965496, 35.99387200034527], [-119.53609800022595, 35.99417399972582], [-119.53609599967783, 35.994395000048804], [-119.53608200033243, 35.99594799988347], [-119.5360660004389, 35.99949399965138], [-119.53607099956348, 35.99996199996994], [-119.53608599963206, 36.00079800022391], [-119.53609099965496, 36.00294400024821], [-119.53606999973853, 36.00560699980216], [-119.5361099999215, 36.006776000325665], [-119.5361080002717, 36.00724999981626], [-119.53610200042391, 36.02174500019086], [-119.53608800018019, 36.02218800015299], [-119.53609700040103, 36.02438299980976], [-119.53607899995937, 36.028724999736035], [-119.5360809996092, 36.02889200015139], [-119.53608399998224, 36.02901400030068], [-119.53608399998224, 36.02906700025902], [-119.53605800004298, 36.03386699993843], [-119.53606499971566, 36.03544300032322], [-119.53606800008872, 36.035496000314424], [-119.5360890000051, 36.03575899989401], [-119.5360949998529, 36.035848999976565], [-119.53604799999724, 36.038581999870104], [-119.53608300015732, 36.04004000020344], [-119.53607899995937, 36.0414080002534], [-119.53613400021098, 36.05036000023125], [-119.53616000015022, 36.050757999938504], [-119.53616099997514, 36.05078199999883], [-119.53619000028746, 36.0514890002187], [-119.53625100038684, 36.05467799993228], [-119.53624499964073, 36.05504799996006], [-119.53623700014312, 36.05586499993904], [-119.53623399977008, 36.05605700010514], [-119.53624700018887, 36.05800200000702], [-119.53623899979294, 36.06215000036136], [-119.53626300008239, 36.063873999768546], [-119.53626499973223, 36.06413900025223], [-119.5362720003032, 36.06505700011175], [-119.53626800010528, 36.06525000026983], [-119.53626800010528, 36.06527099981453]]]}, "properties": {"GEOID": "06031", "NAME": "Kings County"}}]}