{"type": "FeatureCollection", "features": [{"type": "Feature", "geometry": {"type": "Polygon", "coordinates": [[[-118.09705599995765, 33.774375999788056], [-118.09705699978258, 33.774191999924334], [-118.0970579996075, 33.77404900015499], [-118.09706000015562, 33.77372299987207], [-118.09688000023056, 33.77347700018418], [-118.0966159997416, 33.773048000313366], [-118.09646400030395, 33.77280100031841], [-118.0961989999901, 33.772406999880474], [-118.09600999984421, 33.77212500034593], [-118.09565699966679, 33.7715999996536], [-118.09507000003596, 33.77057799968301], [-118.09501999980723, 33.77049200028531], [-118.09473899959983, 33.770002000107866], [-118.09468900026945, 33.76991500023605], [-118.09467699967556, 33.76989300028019], [-118.09464300023869, 33.769836000198666], [-118.09362800008738, 33.768095999783284], [-118.09361100036892, 33.76805300034326], [-118.09352099995726, 33.76779600018346], [-118.09233199972867, 33.76453200025842], [-118.09214900032887, 33.76146699989541], [-118.0921300000623, 33.76110300033853], [-118.0920449996735, 33.75967499978834], [-118.09203700017586, 33.7595630002181], [-118.0920100004117, 33.759147999701256], [-118.09204899987142, 33.75914599965795], [-118.09201999955913, 33.75865500030042], [-118.09199500034308, 33.75866699988172], [-118.09197699990142, 33.758676000126705], [-118.09197000022873, 33.75847200031632], [-118.09375500030896, 33.757509000060146], [-118.09642400012098, 33.756067000074985], [-118.09712899975258, 33.75568200018577], [-118.09772200012952, 33.75535899968601], [-118.09809500039844, 33.75515999979202], [-118.0981220001626, 33.75511699983682], [-118.09815999979745, 33.75505999963713], [-118.0981999999804, 33.755004000216445], [-118.09824199981318, 33.75495000015359], [-118.09828600019411, 33.754896000056746], [-118.0983330000498, 33.754844000069625], [-118.09838199955527, 33.754793000123435], [-118.09843299960892, 33.75474400029303], [-118.09848500038576, 33.75469599976135], [-118.09853999973903, 33.754650000097946], [-118.09859599981553, 33.754604999737644], [-118.09865500026508, 33.75456200025092], [-118.09871499964122, 33.75452100014708], [-118.0987759997406, 33.754481000099744], [-118.09884000021299, 33.754443000186825], [-118.0989039997871, 33.75440699966422], [-118.09953399997397, 33.75406699970864], [-118.0996429997539, 33.754011999720895], [-118.0997549999069, 33.753962000108864], [-118.09987000043294, 33.753917000134344], [-118.09998800043371, 33.753877999888374], [-118.10014200041951, 33.75383000036558], [-118.1002260000851, 33.753802000258084], [-118.10034900010874, 33.7537529998613], [-118.10046600028458, 33.75369500016327], [-118.10087999966309, 33.75347200027643], [-118.10095500000615, 33.75342900022149], [-118.10102699997618, 33.7533829998783], [-118.10109599957313, 33.75333299989945], [-118.10116099987047, 33.75328099971124], [-118.10127600039648, 33.7531829997879], [-118.1013679995597, 33.75310899972581], [-118.10146399981916, 33.75304000006458], [-118.1015650001015, 33.75297499997574], [-118.10166899985857, 33.75291500030958], [-118.10584900011445, 33.750664999699346], [-118.10585800033529, 33.7508649996879], [-118.10585999998511, 33.75090000008607], [-118.10586800038104, 33.75096799985857], [-118.10598800003162, 33.75090000008607], [-118.10626800041412, 33.750751000319255], [-118.10896399999028, 33.74929499978387], [-118.10982000013298, 33.748829999989404], [-118.11012100043185, 33.74867000027221], [-118.11021400031825, 33.74861999978584], [-118.1104989998253, 33.74846599980762], [-118.11064699996331, 33.74838600002021], [-118.11132900002869, 33.748018000335634], [-118.11225499959323, 33.74751999963634], [-118.1128940000009, 33.74717200021195], [-118.1130460003369, 33.74708999963972], [-118.1132370001326, 33.74698499971255], [-118.11405999976498, 33.746137999682276], [-118.11441999961511, 33.745176000009636], [-118.11463499970026, 33.74460599969072], [-118.11474900040139, 33.7443020000134], [-118.11564999985156, 33.742930999824075], [-118.11601399989964, 33.74237700001499], [-118.11780300017787, 33.73965500034833], [-118.11951000044031, 33.73706400028913], [-118.12020400020126, 33.73600999982017], [-118.12444700020633, 33.72956600018821], [-118.12590099985047, 33.72735599970714], [-118.12795700009238, 33.72423199979756], [-118.12857700023348, 33.723288999682445], [-118.14152800000653, 33.70362100024422], [-118.14780600033711, 33.69408299981949], [-118.12590000002555, 33.69715099968782], [-118.12590000002555, 33.697138999723414], [-118.12472099984272, 33.69532299999226], [-118.12118400019249, 33.68987800022904], [-118.12000500000964, 33.6880629996341], [-118.11202199996474, 33.6757730001453], [-118.10747799966079, 33.66877799969732], [-118.09647299962649, 33.65365100018572], [-118.082330999975, 33.64436899980399], [-118.07507400037642, 33.63960600005403], [-118.07034000010171, 33.63596199996459], [-118.06850200031799, 33.63454799989175], [-118.06298999971838, 33.630306000250634], [-118.06115299975959, 33.62889200006949], [-118.06029699961692, 33.628233000063865], [-118.05772999991218, 33.62625799986572], [-118.05687499959441, 33.62559999998767], [-118.05672399998168, 33.6254840002452], [-118.05627100024515, 33.62513600008066], [-118.05612099955901, 33.625019999713444], [-118.04984800014961, 33.62001499976777], [-118.04200800021985, 33.6149040001374], [-118.03361099989819, 33.609353999928864], [-118.02496800042753, 33.604676000193145], [-118.01532300032603, 33.59948700013884], [-118.00499600015915, 33.59462900033619], [-118.00089100024636, 33.59312900028322], [-118.00090200011701, 33.59317000033208], [-118.00087899965246, 33.593165000290654], [-118.00022500007447, 33.59274800015634], [-117.99982400021648, 33.59249699978369], [-117.99862099974419, 33.591744999995505], [-117.99822099971111, 33.59149500017422], [-117.99796499961806, 33.59133500008803], [-117.99719999971201, 33.59085699976517], [-117.9969450003422, 33.590697999729855], [-117.995376000172, 33.589717000146], [-117.99067000038465, 33.58677400031762], [-117.98910200003938, 33.58579300026709], [-117.98902900024446, 33.58574699998256], [-117.98881300033436, 33.58561199986817], [-117.98874100036436, 33.585567000032555], [-117.98261399964652, 33.581736000276344], [-117.97380700014435, 33.57622900029601], [-117.96446599981645, 33.56989100000964], [-117.95848799995984, 33.56583500031141], [-117.94956900030466, 33.559785000113976], [-117.93404599990566, 33.549254000357465], [-117.92185199964274, 33.543294999947484], [-117.91216999973133, 33.538565999988016], [-117.91086099985213, 33.53792600005543], [-117.90693500003947, 33.53600899989535], [-117.90562699998519, 33.53537099975861], [-117.89885200043547, 33.532060999847005], [-117.89075700023758, 33.52810599974431], [-117.87853000036272, 33.522131999706524], [-117.87588699959166, 33.52084099967043], [-117.87369499980564, 33.519770000228675], [-117.871784000227, 33.51876799994867], [-117.87140900030828, 33.51857099969805], [-117.8702860002019, 33.51798199966015], [-117.86991200010812, 33.51778599969916], [-117.86339399957801, 33.514369000236414], [-117.8438420003325, 33.50411800034995], [-117.83732499962731, 33.50070099971466], [-117.83706699988446, 33.50056600002311], [-117.83629399958248, 33.50016099968539], [-117.83603699966454, 33.50002599990079], [-117.83420200025388, 33.49943700021979], [-117.82869899987512, 33.49767000035389], [-117.82686500028937, 33.497081999697315], [-117.8265930003028, 33.4969950001286], [-117.82631600029339, 33.49677999988946], [-117.82480999987239, 33.4956100002575], [-117.82430799973203, 33.495222000050134], [-117.82350400036623, 33.49459800012443], [-117.82284400004215, 33.49425299989529], [-117.81815800034629, 33.491810999667095], [-117.81659699967373, 33.49099700001909], [-117.81635599964929, 33.49087200011882], [-117.81484000008086, 33.487206000061896], [-117.81454999965263, 33.486783999913335], [-117.81127699959305, 33.482019000231354], [-117.80462599989188, 33.47677900024879], [-117.80441800037774, 33.47661600033772], [-117.80063300013207, 33.47421299998246], [-117.8001219997709, 33.47388800028013], [-117.79859000030895, 33.472914999806825], [-117.79855900034681, 33.472895999877515], [-117.79806999972696, 33.47260899972853], [-117.79454399994738, 33.47053600031938], [-117.79326199983234, 33.46978200009054], [-117.79235299998625, 33.46534600000834], [-117.79047800039264, 33.461241000292695], [-117.78936899963166, 33.45989900037342], [-117.78699500027075, 33.457026999818055], [-117.78675699972105, 33.456752999829384], [-117.78355499980658, 33.4530610002452], [-117.78147000015066, 33.4506559999289], [-117.77606200020645, 33.44529100036534], [-117.77377400016096, 33.442182999659565], [-117.7723420002581, 33.440237000187636], [-117.77076700024016, 33.43833399982876], [-117.76721600034621, 33.43404600034972], [-117.76514000001282, 33.4315390001269], [-117.75741100041115, 33.42428299977158], [-117.75520500038141, 33.42248800005144], [-117.75088700003327, 33.41897500024813], [-117.74358000020598, 33.412145999938254], [-117.74140900033635, 33.41011799995612], [-117.7353360000452, 33.40743600015967], [-117.72571900043107, 33.40743600015967], [-117.71501099959937, 33.40861699993923], [-117.71357100019893, 33.40877699991063], [-117.70670000038974, 33.4036879997841], [-117.70363099964634, 33.40141400016207], [-117.69442300028614, 33.39459499972752], [-117.69135500026599, 33.392323000213], [-117.69067099965244, 33.39181599979027], [-117.68862000033171, 33.39029799969071], [-117.68793700044142, 33.389792000016804], [-117.68518700043857, 33.387755000291655], [-117.68421199957191, 33.38710300022509], [-117.68129000003991, 33.38514699993967], [-117.68031599989648, 33.38449599968697], [-117.6780589998131, 33.38298400010953], [-117.67128799956303, 33.37845300010056], [-117.669031000378, 33.37694400033756], [-117.66618099991769, 33.3750310001925], [-117.65974399957845, 33.36957499972985], [-117.65801799994775, 33.36819399974005], [-117.65379500003418, 33.36481799982064], [-117.64986500002354, 33.36400700013418], [-117.64785999983526, 33.363634999657705], [-117.6443979996298, 33.35938400009593], [-117.64117099960096, 33.355740000317674], [-117.6389479998528, 33.35223200021313], [-117.63620100022297, 33.34912800010612], [-117.6346539997941, 33.34813500001132], [-117.63156599968242, 33.346156999852425], [-117.62587999990387, 33.34210899997683], [-117.62291999983871, 33.34048499986526], [-117.61403999964327, 33.33561399988689], [-117.61108100030137, 33.33399199965253], [-117.61103899957024, 33.3341250002273], [-117.6086839995776, 33.34219800024348], [-117.60150399997191, 33.36682100017514], [-117.59911100034445, 33.37502900023387], [-117.5986440003642, 33.37674800023125], [-117.59724599989826, 33.38190899999574], [-117.5967799997429, 33.38362899964908], [-117.59677200024532, 33.383655000287305], [-117.59660499984074, 33.384207999758644], [-117.5965539997871, 33.38437700001718], [-117.59608400033216, 33.38594500020526], [-117.59620300015781, 33.38689500015058], [-117.59608500015707, 33.38747199983952], [-117.5958909999883, 33.38816200037361], [-117.59520499972496, 33.390764999790996], [-117.59510400034094, 33.39114600014085], [-117.5947439995925, 33.39250899967984], [-117.59473299972184, 33.39257100016367], [-117.59463999983544, 33.3928860000396], [-117.59451000013908, 33.39334800014262], [-117.59450000009335, 33.393380000234146], [-117.59440100035913, 33.39376200013565], [-117.59435000030552, 33.39395599986691], [-117.59427300031263, 33.394249999801815], [-117.59424800019825, 33.39434400028035], [-117.59417700005316, 33.394617000319855], [-117.59416500035759, 33.39466300024484], [-117.59415799978659, 33.39468899983298], [-117.59415500031184, 33.39470499963334], [-117.59415899961148, 33.39471500016329], [-117.59416799983232, 33.394779000077996], [-117.59414299971796, 33.39484200019403], [-117.59408699964148, 33.39505999974318], [-117.59393799967854, 33.39563000028775], [-117.59378100021803, 33.39624000001872], [-117.59375500027876, 33.3963490003583], [-117.5936869996084, 33.396605000170965], [-117.59362300003428, 33.39684600030445], [-117.59356600013287, 33.39707200013363], [-117.59352000010215, 33.39724699997589], [-117.59323600041999, 33.39834300010573], [-117.59300999956587, 33.39920000037253], [-117.59239699999576, 33.40149099991836], [-117.59131900009525, 33.405564999945774], [-117.59128499976009, 33.40569999987999], [-117.59107399987286, 33.40651299993078], [-117.59102500036738, 33.40659399963251], [-117.59078400034295, 33.40750800029973], [-117.59056300041003, 33.408337999813675], [-117.59024299984459, 33.40954699963474], [-117.59013499988953, 33.40995300006767], [-117.58954400006076, 33.41219200033149], [-117.58899599988966, 33.41426499964369], [-117.5889499998589, 33.41446800031793], [-117.58879300039838, 33.415030999878624], [-117.58833200026592, 33.41677800011393], [-117.5834160004163, 33.43538299984037], [-117.58062500040558, 33.4459470003408], [-117.57960199985831, 33.44981799979433], [-117.57851300008716, 33.45380599987211], [-117.57420899998272, 33.45325600000137], [-117.57333899959636, 33.45314600005832], [-117.57331699985507, 33.45314199998958], [-117.573172999915, 33.45312300022292], [-117.57305499991423, 33.453107999773], [-117.57210500006025, 33.452986999996185], [-117.5695750001654, 33.45266299998556], [-117.56947300005815, 33.452649999876606], [-117.56880000021361, 33.4525629999044], [-117.56818199972233, 33.45248599971831], [-117.56793200037536, 33.45245399966954], [-117.56727500042433, 33.45237399987072], [-117.56629600025803, 33.452246000188985], [-117.56607699997494, 33.45221800016318], [-117.5647010001486, 33.452039999894666], [-117.56464099987411, 33.45203499993234], [-117.56456600042935, 33.45202300032149], [-117.56094600004013, 33.45155999995176], [-117.56007700037699, 33.45142099997346], [-117.55983999965221, 33.45138799968165], [-117.5597319996972, 33.45140400027895], [-117.55851200040478, 33.451585999744985], [-117.55810499980068, 33.45165100031835], [-117.5577540001714, 33.45170799982392], [-117.55615099966603, 33.451966000273394], [-117.55595599967238, 33.45199900034526], [-117.55577499992239, 33.45202900012712], [-117.55571999967081, 33.45203800020957], [-117.5552030003602, 33.45212199968478], [-117.55449199998246, 33.452237000128136], [-117.54593599965213, 33.4536189999477], [-117.54590399986509, 33.453624999642905], [-117.54316599955779, 33.45406999974019], [-117.54308500026526, 33.45408699966159], [-117.54154299985925, 33.45433199992192], [-117.54120300010062, 33.454385999717914], [-117.53892599992577, 33.45475399998621], [-117.5381740004385, 33.45487600010521], [-117.53629700029674, 33.4558880003601], [-117.52543600020248, 33.46175000028976], [-117.52509300007078, 33.461933999980204], [-117.5168909997428, 33.46635800020173], [-117.51502700001978, 33.46736499999241], [-117.51446600032823, 33.46766600004293], [-117.51441100007666, 33.467694999987565], [-117.51420799968705, 33.46780500020637], [-117.51353200036779, 33.468159000030866], [-117.50960999985476, 33.47021100031456], [-117.509499000425, 33.470268000357436], [-117.50950299972465, 33.470680999640145], [-117.50951399959531, 33.47155799978156], [-117.50951500031852, 33.471633000281415], [-117.50951500031852, 33.471694000100534], [-117.50954399973253, 33.47407899979637], [-117.50951000029562, 33.47614300004125], [-117.50947099993758, 33.47856800036569], [-117.50937999970098, 33.48403000032235], [-117.50938100042423, 33.48409400032135], [-117.50943300030275, 33.48620400033434], [-117.50954100025778, 33.49065399996883], [-117.50960800020495, 33.49416599973124], [-117.50964300036503, 33.49606499987067], [-117.50969600006849, 33.4989119998122], [-117.50971399961182, 33.50002599990079], [-117.5098159997191, 33.50517699980589], [-117.50972200000774, 33.505175999827344], [-117.50972200000774, 33.5053359999889], [-117.50972200000774, 33.506290000196], [-117.50972299983266, 33.506384999877255], [-117.50972299983266, 33.5066079999256], [-117.50972299983266, 33.50709800013279], [-117.5097239996576, 33.50857099965526], [-117.50972500038083, 33.509061999916526], [-117.5071899995648, 33.509012000224814], [-117.5037559998467, 33.508945000113215], [-117.50350499977655, 33.51310800004062], [-117.50347600036253, 33.513592000105135], [-117.50336300038465, 33.5154580003623], [-117.50335800036176, 33.51563900024524], [-117.5033759999051, 33.51564199981803], [-117.5034319999816, 33.51565600006995], [-117.50345100024819, 33.515661000105865], [-117.50344000037752, 33.515672000034094], [-117.50333400007231, 33.51760599964946], [-117.50318099991142, 33.520404999990426], [-117.50618799983225, 33.52052200002413], [-117.50668999997261, 33.520543000339885], [-117.50750400028245, 33.52057599975586], [-117.50812500024847, 33.52060000020825], [-117.50833399958753, 33.520585000207134], [-117.50896399977438, 33.52053899963816], [-117.5091749996616, 33.52052399962645], [-117.50935600030985, 33.52053799983721], [-117.5094509998461, 33.52054599974264], [-117.5095420000827, 33.52054599974264], [-117.50981700044233, 33.52054599974264], [-117.5099089996055, 33.52054599974264], [-117.50992600022226, 33.52099799993768], [-117.50997999975063, 33.52235399983096], [-117.50999800019227, 33.52280799986296], [-117.50999900001719, 33.52287199965276], [-117.51000200039024, 33.523062999714995], [-117.51000400004008, 33.52312900035599], [-117.51006099994146, 33.52617799966904], [-117.5100700001623, 33.526659000055986], [-117.51020999990439, 33.53399899998804], [-117.5083029996254, 33.53663099998834], [-117.50665599963739, 33.53890799998652], [-117.50623800006096, 33.53949600018352], [-117.50565700027792, 33.54020299963443], [-117.50391499985537, 33.54232399997619], [-117.50345299989803, 33.54288799989497], [-117.50333800027028, 33.54303499991434], [-117.50292099962043, 33.54356499978758], [-117.50167200001572, 33.54515999994807], [-117.50125799973893, 33.54569300029346], [-117.50116200037776, 33.545814000082615], [-117.5006860001767, 33.546536999752995], [-117.49900700040165, 33.549096999739284], [-117.49853100020059, 33.54982399973641], [-117.49844900018485, 33.54995299990935], [-117.49809900038045, 33.550484999684606], [-117.49704999989396, 33.552081999753874], [-117.49670099991451, 33.552615000073814], [-117.49590000002343, 33.553634000235164], [-117.49349700035019, 33.556694000113026], [-117.49269700028402, 33.557715000308335], [-117.4918429997912, 33.558830000017544], [-117.48928500030728, 33.5621779998182], [-117.48843400018748, 33.56329499965936], [-117.48765800041078, 33.56431000015934], [-117.4858790001783, 33.566498999804885], [-117.48152700039327, 33.571858999935564], [-117.47813100031004, 33.576040999944546], [-117.47554899963836, 33.57922299994119], [-117.47369800033417, 33.58159500006714], [-117.47089999975242, 33.58518499963462], [-117.46814599955161, 33.588713999915235], [-117.46629600007232, 33.59108700004137], [-117.46539100042418, 33.59224600017725], [-117.46410900030918, 33.59389000027754], [-117.4626759996831, 33.5957259997239], [-117.46177199985988, 33.596886000048485], [-117.46166999975263, 33.59701399983552], [-117.46165899988198, 33.59702600029685], [-117.46132400014622, 33.59744900015299], [-117.4612870003363, 33.59749599984268], [-117.46121199999321, 33.59758999989347], [-117.46114099984813, 33.59768900036948], [-117.4609009996486, 33.59803099971106], [-117.4581130000109, 33.60196500013938], [-117.45793700028379, 33.60218900010484], [-117.45744000016636, 33.6028130001469], [-117.43922299984098, 33.625769000035845], [-117.43815400016129, 33.62711600013776], [-117.43079299990734, 33.636390999958444], [-117.42870099968042, 33.639026999778466], [-117.42810400000384, 33.63977700012699], [-117.42631600044885, 33.64202700011822], [-117.42571999969888, 33.64277799964459], [-117.42483599996713, 33.643897000351636], [-117.42253899970079, 33.64680500031263], [-117.4221870002466, 33.64725900035413], [-117.4213129996623, 33.64838700024194], [-117.42129099992098, 33.648413999765765], [-117.42122599962366, 33.648497999975035], [-117.42120499970724, 33.64852600002657], [-117.42104400004878, 33.64874500030245], [-117.42078999960555, 33.649062000005024], [-117.42017399966242, 33.64985999978006], [-117.42011500011118, 33.64991000019621], [-117.41945200031238, 33.65063999967454], [-117.41866200029195, 33.65161600022432], [-117.41758000019348, 33.65300399986039], [-117.41581500020469, 33.655267999665966], [-117.41559500009667, 33.655548000180076], [-117.41493399994768, 33.65638799999497], [-117.41471499966455, 33.656669000323745], [-117.41457099972452, 33.65685300022548], [-117.41452999971665, 33.65690100013515], [-117.41395599960629, 33.657584000341636], [-117.41389899970487, 33.65765299971072], [-117.41378499990203, 33.65782699969446], [-117.41357900003774, 33.65814000003429], [-117.41298700038404, 33.65904500019685], [-117.41301900017106, 33.65906999998364], [-117.41331399972387, 33.659302000051035], [-117.41398499991861, 33.65982799964026], [-117.4144360000053, 33.660181999751124], [-117.41607200012265, 33.66146699978688], [-117.41786499970053, 33.662739999790105], [-117.41902899981474, 33.66356699987227], [-117.42002999972236, 33.66425699991646], [-117.42303599981827, 33.66632699973998], [-117.4240380004491, 33.667017000075965], [-117.42886200023722, 33.670338999653474], [-117.42901700004792, 33.670445999745155], [-117.43854800034661, 33.67701200035795], [-117.44333600014973, 33.68030900000323], [-117.4452790004137, 33.681647999741315], [-117.44816099976273, 33.683632999978826], [-117.44942000031153, 33.6845000000389], [-117.45208699957541, 33.68633700009115], [-117.45319799998617, 33.68710200018915], [-117.4544580003599, 33.68796999974753], [-117.45474299986692, 33.68816599968844], [-117.45560099965941, 33.68875700010329], [-117.45588699988969, 33.6889539998368], [-117.45594100031636, 33.68899499987638], [-117.45610299979975, 33.689117999877624], [-117.45615800005132, 33.68915999992887], [-117.45649799980994, 33.68937099996486], [-117.4575210003572, 33.690007000194875], [-117.45786199994073, 33.690218999723996], [-117.45788500040528, 33.69023300006229], [-117.45795700037529, 33.69027699972266], [-117.45798099976642, 33.690292000128295], [-117.45834800018756, 33.69057499971704], [-117.45945100020239, 33.69142699980974], [-117.45974099973232, 33.6916520003666], [-117.4598169999003, 33.69171399963922], [-117.46634700012598, 33.697066999901736], [-117.46956699958379, 33.699707000246065], [-117.47457299984511, 33.703811000095264], [-117.48922699968264, 33.70491200000486], [-117.49711799966602, 33.70550600003109], [-117.49764499992071, 33.7055749998094], [-117.5010090002169, 33.70600899967829], [-117.51110600023, 33.70731999998107], [-117.51447499965074, 33.707759999988426], [-117.51496699974537, 33.707822000341565], [-117.51645300007488, 33.70801500022627], [-117.5169490003674, 33.7080809998743], [-117.51729599979872, 33.70812599997896], [-117.51833900043745, 33.70826100015136], [-117.51868699969368, 33.70830700002881], [-117.5191090003664, 33.70836100030835], [-117.52037600041278, 33.70852400006052], [-117.52079900001208, 33.70857900006756], [-117.52343799968688, 33.70893400035265], [-117.53135899980748, 33.70999899987595], [-117.53399900020548, 33.71035500011273], [-117.5340059998782, 33.710421000204335], [-117.5340290003427, 33.710620999855266], [-117.53403699984034, 33.71068800032912], [-117.53404900043421, 33.71079100016373], [-117.5340629997796, 33.71091400034856], [-117.53407299982534, 33.71110600017556], [-117.53408000039634, 33.71121300033655], [-117.53408500041921, 33.711325000271465], [-117.53410399978748, 33.711664000178416], [-117.5341110003585, 33.71177899975243], [-117.53410899981034, 33.71186799997337], [-117.53410299996256, 33.71213800029751], [-117.53410200013764, 33.71222799996783], [-117.5340999995895, 33.71230200017413], [-117.53409499956665, 33.7125269998642], [-117.53409499956665, 33.71254699995757], [-117.53413700029776, 33.712583999931205], [-117.53439900023857, 33.71281900001768], [-117.53439500004062, 33.71293999991315], [-117.53434900000985, 33.71436099988939], [-117.53433499976617, 33.714835000065705], [-117.53443299967545, 33.716410000326654], [-117.53472700030164, 33.721138999972055], [-117.53482699986074, 33.722715999794346], [-117.53489100033316, 33.72377400017276], [-117.53492700031819, 33.72433800035762], [-117.53501299963357, 33.72695200011005], [-117.53503299972506, 33.72754200002147], [-117.5350489996186, 33.72801300023161], [-117.53510200022036, 33.729615999828034], [-117.53511800011388, 33.73008099993964], [-117.53526200005392, 33.734424999744995], [-117.5353159995823, 33.73602900012749], [-117.53538599990249, 33.738129999975925], [-117.53559599996477, 33.74443300003842], [-117.53566299991192, 33.74643399970895], [-117.53566700010988, 33.7465349996357], [-117.5356830000034, 33.746933000156325], [-117.53573099968399, 33.7481289998994], [-117.53574699957751, 33.748527999890314], [-117.53574800030073, 33.74856200035034], [-117.53574900012565, 33.74857100016226], [-117.5357599999963, 33.74885999976311], [-117.53579500015638, 33.74972800032263], [-117.53580699985197, 33.750017999887], [-117.53581199987484, 33.750017999887], [-117.53584299983697, 33.75022600015015], [-117.53593900009645, 33.75085199964305], [-117.53597099988347, 33.751061000239886], [-117.53600000019583, 33.751252999888976], [-117.53607999966343, 33.751777999745265], [-117.5360839998614, 33.75182899999112], [-117.53610300012798, 33.752023000370734], [-117.53620799970997, 33.75312200017533], [-117.53639799968074, 33.75565600006107], [-117.53643200001594, 33.756113999782066], [-117.53644799990948, 33.75766500030549], [-117.53771199958281, 33.7578899998146], [-117.5380699997831, 33.7579499997333], [-117.53914500020889, 33.758133000084946], [-117.53950400023407, 33.758193999866386], [-117.54123200041292, 33.7585779996487], [-117.54226500010759, 33.758800999697385], [-117.5449609996838, 33.75938099995086], [-117.54789200033493, 33.76001299988464], [-117.5483550001172, 33.760112000226194], [-117.54904999970306, 33.760262000163635], [-117.55305199968372, 33.76112400031192], [-117.55574899998312, 33.76170499977521], [-117.55611399985611, 33.76178399984024], [-117.55843399968866, 33.762282999825835], [-117.56649200007662, 33.764018999671116], [-117.5690689998271, 33.764574000013276], [-117.56917500013232, 33.76461000000018], [-117.56996699980259, 33.76487800025693], [-117.57234500025976, 33.765682999678106], [-117.57313799975492, 33.76595200025561], [-117.57462800028237, 33.76645500036356], [-117.57471100012306, 33.76647799964468], [-117.57509199988957, 33.766585000212714], [-117.57690399973401, 33.767039999998644], [-117.57706899959045, 33.76708900026808], [-117.57934699959019, 33.76776800015726], [-117.57950599959887, 33.7678119996609], [-117.58013599978572, 33.76798799968991], [-117.58053900019186, 33.76891000025676], [-117.58072400013977, 33.7693300000657], [-117.58078900043711, 33.76947699984851], [-117.58163600035894, 33.770353999769036], [-117.58195600002607, 33.77068500035864], [-117.58273299962771, 33.77148999974094], [-117.58354000026486, 33.77232500029688], [-117.58505099981042, 33.77392199997696], [-117.58582199956427, 33.774737000198705], [-117.58634399979607, 33.77528900031977], [-117.5879149996161, 33.77695000006564], [-117.58844000022098, 33.77750399972885], [-117.58993300022317, 33.77908200020868], [-117.59441700025266, 33.78382099985499], [-117.59591199990471, 33.78540200031746], [-117.5981780002089, 33.78779700015886], [-117.60122699996249, 33.79102099972952], [-117.60166100033076, 33.79147999970243], [-117.60497600022315, 33.794984000086224], [-117.6054809998382, 33.795516999798316], [-117.60727000011644, 33.797354999631516], [-117.60763900018736, 33.79773099977186], [-117.61100400030847, 33.8014719999275], [-117.61545700037583, 33.80642300002217], [-117.62215999995553, 33.81387200036143], [-117.62447700031335, 33.81644599999798], [-117.62587900007895, 33.818004999904126], [-117.62803300023016, 33.820398000128726], [-117.62967299964713, 33.82222100016363], [-117.63278900024619, 33.825683999663894], [-117.63449499978542, 33.82757999968995], [-117.63664999976153, 33.829974999752714], [-117.637363999614, 33.83076799990489], [-117.63831099999322, 33.83178999996985], [-117.63909400034098, 33.83263600015692], [-117.6433270003003, 33.83720800012632], [-117.64500000022755, 33.83901399971797], [-117.64685200025495, 33.84101400019546], [-117.65171299985299, 33.84626299964904], [-117.65240800033718, 33.8470139998117], [-117.65426100018949, 33.84901500002459], [-117.65431300006803, 33.84907099988617], [-117.65446899970364, 33.849241999889124], [-117.65452200030539, 33.849299000062764], [-117.65477099982743, 33.84956600033041], [-117.65501900042287, 33.849834000218124], [-117.65504199998908, 33.84985899964145], [-117.65604100024689, 33.8509380002769], [-117.65717500022389, 33.85216200012504], [-117.6605980000713, 33.85585799988809], [-117.66211700001278, 33.857499000304884], [-117.66241199956556, 33.85750399989064], [-117.66329700002052, 33.857521000121295], [-117.66359300029654, 33.85752700007021], [-117.66572999983099, 33.85761199967459], [-117.6721439997057, 33.85786999980755], [-117.67428199996338, 33.85795600017595], [-117.67434600043578, 33.85893999980555], [-117.67441300038294, 33.85996700031225], [-117.67451899978984, 33.861587999730425], [-117.67453899988132, 33.861895000232046], [-117.67455499977484, 33.862134000176724], [-117.67460400017863, 33.86288000027679], [-117.67460800037661, 33.862941000012675], [-117.67467899962341, 33.86392599992572], [-117.67468799984422, 33.8640439996908], [-117.67470499956265, 33.86428200004829], [-117.67490700012735, 33.867064000305405], [-117.67498300029536, 33.86811099965603], [-117.67505299971722, 33.868724999637436], [-117.67398599968736, 33.868923000094036], [-117.67357800015667, 33.86906900012151], [-117.67249699988311, 33.86943199976658], [-117.67216399979719, 33.869194999821815], [-117.67213100018522, 33.869171000319476], [-117.67180599959688, 33.86929299970882], [-117.6716080001285, 33.86936800026175], [-117.67184699960478, 33.86962300000798], [-117.67189299963552, 33.86967299994197], [-117.67192799979563, 33.869709999948924], [-117.67198499969703, 33.86977100002611], [-117.67208699980426, 33.86988000017773], [-117.67218600043681, 33.869986999753294], [-117.6722280002696, 33.87003199987631], [-117.67225000001092, 33.870054999664816], [-117.6724390001568, 33.87025800035076], [-117.67256800002822, 33.87039700032888], [-117.67264500002112, 33.87047899990939], [-117.67290699996194, 33.870760000293714], [-117.67313399974266, 33.87100499978366], [-117.67301900011492, 33.87103900008657], [-117.6730450000542, 33.87106699988712], [-117.67314100031366, 33.87116799973063], [-117.67481199969278, 33.87292699995013], [-117.67579400023214, 33.873950000085976], [-117.67598099982989, 33.874146000016644], [-117.67706499957819, 33.875282000309014], [-117.67879199993213, 33.877087999678025], [-117.6793030002933, 33.877621000000104], [-117.6794520002562, 33.87771400001465], [-117.68284900016434, 33.87980099982612], [-117.68788399983968, 33.882896999968224], [-117.69700900025748, 33.88850599995753], [-117.69843500031253, 33.889381999690414], [-117.70455799993411, 33.89313099972444], [-117.70712499963888, 33.89470299992193], [-117.70729399969326, 33.89481200029053], [-117.70790600033678, 33.895204999970474], [-117.71028499972056, 33.896667999872165], [-117.71523499990536, 33.89971100021944], [-117.71549000017349, 33.899867999804115], [-117.71698499982551, 33.900784000170844], [-117.71827899963611, 33.901576999768196], [-117.72079099998759, 33.903115999745154], [-117.7220010001326, 33.90386700007933], [-117.72275900036594, 33.9043369997959], [-117.72338399963162, 33.904724999763665], [-117.72402800006216, 33.905125000118424], [-117.72530799962905, 33.90589399998829], [-117.72675700014862, 33.90678700015717], [-117.7304720000741, 33.90904999969436], [-117.73254500003443, 33.910334000130554], [-117.73256599995084, 33.910346999802634], [-117.73618600034006, 33.91256699965655], [-117.73648099989283, 33.91274800009155], [-117.73808900042111, 33.91373799984172], [-117.73870100016626, 33.91417699990052], [-117.7405189998585, 33.915482999664476], [-117.74495100000945, 33.91866499967595], [-117.74868000017862, 33.92133699976141], [-117.74882800031664, 33.92144600036645], [-117.75218800041485, 33.923858000191565], [-117.75815000037794, 33.92817799969902], [-117.76537600001436, 33.933392999805], [-117.7656739999402, 33.93360699970916], [-117.76600700002615, 33.933858999791454], [-117.7684390000117, 33.93560799967935], [-117.76867500001323, 33.93578100030843], [-117.77331700022647, 33.93920399979088], [-117.77345199994569, 33.939304000023526], [-117.77459400031861, 33.94014099989856], [-117.77466000044086, 33.94019600018093], [-117.77726599960533, 33.942066999938795], [-117.7773040001385, 33.94209500026651], [-117.77752900026938, 33.94225599973671], [-117.77787099967786, 33.94250200037114], [-117.78098899992673, 33.944742000201984], [-117.78125000004265, 33.94492999993795], [-117.78130100009629, 33.94496700008281], [-117.78182300032809, 33.94534299963604], [-117.78188100005441, 33.945384999998325], [-117.78194999965139, 33.945434000146314], [-117.7819870003596, 33.94546100003338], [-117.78215399986587, 33.94558099967603], [-117.78266000020417, 33.94594600018861], [-117.78293899986343, 33.94614699967191], [-117.78293499966546, 33.94615999984093], [-117.78307500030586, 33.946260000099926], [-117.78309399967412, 33.946260000099926], [-117.78314700027589, 33.946260000099926], [-117.78325199985788, 33.94626100016899], [-117.78514400006826, 33.94633900030342], [-117.78959299993765, 33.94652199990834], [-117.7901450003067, 33.94652400004029], [-117.79014399958346, 33.9465439998669], [-117.79153600020166, 33.94660199993371], [-117.79186699973943, 33.94661500003323], [-117.79284199970779, 33.946617000162995], [-117.79403500013434, 33.94661800022785], [-117.79506399963105, 33.946619000292706], [-117.79518500000488, 33.946619000292706], [-117.79664500039512, 33.94662099967717], [-117.80031099991677, 33.946626000001196], [-117.8004940002149, 33.94662700006596], [-117.80392899975786, 33.94665799983225], [-117.8039449996514, 33.94665799983225], [-117.80413299997237, 33.946658999896634], [-117.80863500044354, 33.94670100035476], [-117.81416800006123, 33.9467529999351], [-117.81486799966994, 33.946757000188114], [-117.81726399967046, 33.94677100032701], [-117.81894800036672, 33.9467849997184], [-117.82001299984844, 33.9467849997184], [-117.82438399990001, 33.94678799990704], [-117.83026499967225, 33.94679300022121], [-117.83069599966747, 33.94679300022121], [-117.8353579999722, 33.9468009999781], [-117.83707100008243, 33.946819999677196], [-117.8386390004277, 33.94683699999265], [-117.84163600030278, 33.94687199993005], [-117.84180500035717, 33.946872999991925], [-117.84309099977185, 33.946887000111694], [-117.84335199988776, 33.94688900023512], [-117.84522700037968, 33.94689900010612], [-117.845974999669, 33.94690200029075], [-117.8486519998769, 33.946915999660604], [-117.84961900034766, 33.94692099996724], [-117.85051399995007, 33.94692600027365], [-117.85196900031747, 33.94693299995688], [-117.85345800012168, 33.94684300036615], [-117.85562999981623, 33.946712000311614], [-117.8577530000053, 33.946584000251285], [-117.86027500040252, 33.94643099981598], [-117.86196500004822, 33.94632900036662], [-117.86299699991798, 33.94626599976895], [-117.86591500015032, 33.9460900001114], [-117.86836899987716, 33.94594099982469], [-117.86880200042053, 33.94591500016306], [-117.86956300012865, 33.945868999767704], [-117.87015899998029, 33.94583400016309], [-117.8719530002814, 33.94573099992304], [-117.87278099993664, 33.94574799971078], [-117.87599000042214, 33.9458169996473], [-117.87745199956387, 33.945847999708604], [-117.88010399965746, 33.94590500017639], [-117.88237199961148, 33.94595199987975], [-117.88431900007346, 33.94599399994153], [-117.88694000020486, 33.94604900016855], [-117.88814399960376, 33.946074999789246], [-117.89036399987721, 33.94604499988221], [-117.89376699963314, 33.94606299967864], [-117.89436599985784, 33.94607100024936], [-117.89847699961844, 33.94605900013825], [-117.90054899975388, 33.946052999709416], [-117.9008530004258, 33.946052999709416], [-117.90157300012604, 33.946052999709416], [-117.90244900036015, 33.946054999852386], [-117.90444699997742, 33.94605699999537], [-117.90641700000562, 33.94605900013825], [-117.90745300007333, 33.94606000020967], [-117.90845999982874, 33.94606200035247], [-117.90926499991778, 33.94606000020967], [-117.90950099991932, 33.94606000020967], [-117.91046599984192, 33.946063999750066], [-117.91141499987101, 33.94606800003545], [-117.91189299972189, 33.94607599986048], [-117.91183499999556, 33.946283000195], [-117.91181400007918, 33.946353999833825], [-117.9133010002336, 33.94663100032487], [-117.91359499996149, 33.946688000268374], [-117.9138929998873, 33.94675199987183], [-117.91485399961195, 33.94696100017445], [-117.91558699973095, 33.947002999738345], [-117.91561600004329, 33.94700499985899], [-117.91562899956374, 33.94700599991929], [-117.91562500026411, 33.94686600030375], [-117.91573200039424, 33.946887000111694], [-117.91597099987052, 33.946934000018025], [-117.91619199980346, 33.9469769996559], [-117.9164189995842, 33.94702100007738], [-117.91664500043831, 33.94706499973089], [-117.91686499964801, 33.947108000047784], [-117.91731200043507, 33.94719499992927], [-117.91766800008723, 33.94726500024046], [-117.9177710000194, 33.947284999893], [-117.91795400031751, 33.9473209997028], [-117.91849599974248, 33.94742699967531], [-117.91857000026064, 33.94744099970401], [-117.9187369997669, 33.94747400002862], [-117.91929199961069, 33.947581999917716], [-117.91956000029761, 33.947635999810856], [-117.91956000029761, 33.94759599992087], [-117.91956000029761, 33.94756699985851], [-117.91956000029761, 33.947300000001874], [-117.91956000029761, 33.94707100008838], [-117.91956000029761, 33.94687800030108], [-117.91956000029761, 33.94667600024424], [-117.91956000029761, 33.94642300002432], [-117.91955899957439, 33.94608100021647], [-117.91972699980388, 33.94608100021647], [-117.91998999956961, 33.94608100021647], [-117.9204480002273, 33.94608100021647], [-117.92106800036842, 33.94608100021647], [-117.92160999979342, 33.94608100021647], [-117.92245599989032, 33.94608200028769], [-117.9231780001387, 33.94608200028769], [-117.92323800041316, 33.94608200028769], [-117.92345299959999, 33.94608200028769], [-117.92394399986969, 33.94608200028769], [-117.92436300016932, 33.94608200028769], [-117.9248400001953, 33.94608200028769], [-117.92485400043901, 33.94608200028769], [-117.92537300029777, 33.94608200028769], [-117.92573300014787, 33.946080000145294], [-117.92581500016367, 33.94607900007411], [-117.92622299969433, 33.946080000145294], [-117.92666000043565, 33.94608100021647], [-117.92705100024791, 33.94608200028769], [-117.92741600012089, 33.94608200028769], [-117.92847599957973, 33.946080000145294], [-117.92872300035025, 33.94607900007411], [-117.92914799959938, 33.94608200028769], [-117.9295700002721, 33.94608200028769], [-117.92968099970187, 33.94608100021647], [-117.92987200039589, 33.94608200028769], [-117.93015600007801, 33.94608200028769], [-117.93080700018126, 33.94608100021647], [-117.93096600018994, 33.94608100021647], [-117.93141200025376, 33.94608100021647], [-117.93148400022379, 33.94608100021647], [-117.93162300014096, 33.946080000145294], [-117.93168000004236, 33.94608100021647], [-117.93176799990589, 33.94608100021647], [-117.93186599981522, 33.94608100021647], [-117.93223900008411, 33.94608100021647], [-117.93304599982295, 33.94608699989811], [-117.93309500022676, 33.94608100021647], [-117.93390399961544, 33.94608100021647], [-117.93393799995063, 33.94608100021647], [-117.93421900015801, 33.94608100021647], [-117.93427799970925, 33.94608100021647], [-117.93437700034177, 33.94608100021647], [-117.9350359999426, 33.94608200028769], [-117.93669899982415, 33.94608100021647], [-117.93743600014112, 33.94608100021647], [-117.93748100034696, 33.94608100021647], [-117.9375049997381, 33.94608100021647], [-117.93791700036505, 33.94608100021647], [-117.93896000010547, 33.946080000145294], [-117.93969200039957, 33.946080000145294], [-117.9401679997023, 33.946080000145294], [-117.9402720003577, 33.946080000145294], [-117.94071300039867, 33.946080000145294], [-117.94083399987419, 33.946080000145294], [-117.9408840001029, 33.946080000145294], [-117.94125700037179, 33.946080000145294], [-117.94146400006102, 33.946080000145294], [-117.94178399972817, 33.946080000145294], [-117.94184700037567, 33.946080000145294], [-117.94191900034568, 33.946080000145294], [-117.94255200000728, 33.94607900007411], [-117.94315899972959, 33.94607800000291], [-117.94327500008055, 33.94607800000291], [-117.94359300009786, 33.94607800000291], [-117.94415499961434, 33.94607800000291], [-117.94433899973735, 33.94607800000291], [-117.94531100023099, 33.9460769999317], [-117.94574499970093, 33.94607599986048], [-117.94587899959524, 33.94607599986048], [-117.94597700040285, 33.94607599986048], [-117.94610000042648, 33.94607599986048], [-117.94663500017876, 33.94607599986048], [-117.94669999957779, 33.94607599986048], [-117.94698300033332, 33.946074999789246], [-117.94762699986555, 33.94607599986048], [-117.94773900001856, 33.94607599986048], [-117.94782500023227, 33.9460769999317], [-117.94879600000266, 33.946073999717996], [-117.94942000034173, 33.946072999646745], [-117.95002000039135, 33.946072999646745], [-117.95045600040946, 33.94607200032064], [-117.9505430004481, 33.94607200032064], [-117.95128499988962, 33.94607200032064], [-117.95200100029018, 33.94607100024936], [-117.95208099975784, 33.94607100024936], [-117.95213600000943, 33.94607100024936], [-117.95271400031773, 33.94607000017807], [-117.95301600044152, 33.94607000017807], [-117.95314399958974, 33.94607000017807], [-117.95319999966621, 33.94607000017807], [-117.95428900033569, 33.94606900010676], [-117.95436499960537, 33.94607100024936], [-117.95652299995452, 33.94606800003545], [-117.95808700010184, 33.946066999964124], [-117.95921799970581, 33.94606599989278], [-117.96019100002434, 33.94606299967864], [-117.96116299961963, 33.94606100028108], [-117.96477700016109, 33.94605399978091], [-117.9655320000214, 33.946054999852386], [-117.96645500011118, 33.94605699999537], [-117.96664900027996, 33.946058000066806], [-117.96669100011275, 33.946058000066806], [-117.96679900006778, 33.94605699999537], [-117.96686299964189, 33.94605699999537], [-117.96695700025154, 33.94605599992391], [-117.96718599968207, 33.94605599992391], [-117.96729299981219, 33.94605599992391], [-117.96757599966942, 33.94605599992391], [-117.9676519998374, 33.94605599992391], [-117.96770100024122, 33.94605599992391], [-117.9678500002041, 33.94605599992391], [-117.96790000043283, 33.94605599992391], [-117.96798999994621, 33.94605100031161], [-117.9698200002323, 33.94604599995381], [-117.97061399955236, 33.946042999739014], [-117.9707140000098, 33.94604199966739], [-117.97105899979128, 33.94604100034099], [-117.97273199971856, 33.94604399981062], [-117.97441100039192, 33.94604700002538], [-117.97564900012598, 33.94604900016855], [-117.97649799969766, 33.94605000024009], [-117.97650100007068, 33.945910999870435], [-117.97650100007068, 33.94563700024629], [-117.97650500026866, 33.94424500027187], [-117.97650100007068, 33.944000000298615], [-117.9765019998956, 33.9439489998779], [-117.97650100007068, 33.9438290001702], [-117.97649500022291, 33.943694000296766], [-117.97650299972052, 33.943431999981264], [-117.97650299972052, 33.94337500009311], [-117.97650299972052, 33.94320699976924], [-117.97650400044373, 33.94315199994162], [-117.97650400044373, 33.94303899985905], [-117.97650400044373, 33.942700000201896], [-117.97650500026866, 33.94258799963154], [-117.97650500026866, 33.942537999968124], [-117.97650500026866, 33.942386999941874], [-117.97650600009358, 33.94233800027561], [-117.97650600009358, 33.94225900008498], [-117.97650600009358, 33.94202099969973], [-117.97650699991847, 33.941943000079974], [-117.97650699991847, 33.94187399998418], [-117.97650699991847, 33.94166599998342], [-117.97650799974339, 33.94159799978696], [-117.97650799974339, 33.94152200002913], [-117.97650799974339, 33.941295999858234], [-117.97650899956831, 33.94122099995906], [-117.97650899956831, 33.94119500034631], [-117.97650899956831, 33.94111699996974], [-117.97651000029153, 33.94109199970975], [-117.97651000029153, 33.94104900008003], [-117.97651000029153, 33.94092299996538], [-117.97651100011645, 33.940880999637365], [-117.97651100011645, 33.94080899977202], [-117.97651100011645, 33.94059299981065], [-117.97651199994134, 33.94052199983822], [-117.97651199994134, 33.94045199994389], [-117.97651199994134, 33.94024400019514], [-117.97651299976626, 33.94017500021279], [-117.97651299976626, 33.94016199987507], [-117.97651299976626, 33.94012300034039], [-117.97651299976626, 33.94011100013599], [-117.97651299976626, 33.94002200018214], [-117.97651399959118, 33.939985000123706], [-117.97651399959118, 33.939918000218626], [-117.97651399959118, 33.939843999995276], [-117.97651399959118, 33.93959699973074], [-117.97651399959118, 33.9395229999736], [-117.97651399959118, 33.939304000023526], [-117.9765150003144, 33.93923100016337], [-117.9765150003144, 33.93918600003467], [-117.9765150003144, 33.93916399966498], [-117.9765150003144, 33.939098000012294], [-117.9765150003144, 33.93907699977333], [-117.9765150003144, 33.939032999717206], [-117.9765150003144, 33.938901000157635], [-117.97651600013931, 33.938858000166526], [-117.97651600013931, 33.93880200035362], [-117.97651600013931, 33.93871399993433], [-117.97651600013931, 33.938659000185076], [-117.97651600013931, 33.93806400001657], [-117.97651699996423, 33.93794000028956], [-117.97651799978912, 33.93786000032182], [-117.97651799978912, 33.937774000011764], [-117.97651799978912, 33.93751700022275], [-117.97651899961404, 33.937431999739076], [-117.97651899961404, 33.93738700015009], [-117.97651899961404, 33.93725199974986], [-117.97651899961404, 33.937208000241135], [-117.97651899961404, 33.93718200014813], [-117.97651899961404, 33.93710399982142], [-117.97652000033726, 33.93707899987356], [-117.97652000033726, 33.9369989998421], [-117.97652000033726, 33.93676199983871], [-117.97652000033726, 33.936682999690994], [-117.97652000033726, 33.93660400021527], [-117.97652000033726, 33.936369999668244], [-117.97652100016218, 33.9362920000883], [-117.97652100016218, 33.93617799965643], [-117.97652100016218, 33.93583800006392], [-117.9765219999871, 33.935724999962325], [-117.9765219999871, 33.935557000193675], [-117.9765219999871, 33.9350550000456], [-117.9765219999871, 33.93488799990306], [-117.9765219999871, 33.93482300012048], [-117.9765219999871, 33.934627999729855], [-117.97652299981199, 33.93456399995534], [-117.97652299981199, 33.934472000288345], [-117.97652299981199, 33.9341959999457], [-117.97652299981199, 33.93410399988112], [-117.97652299981199, 33.93404200013801], [-117.97652299981199, 33.933858999791454], [-117.97652399963691, 33.93379900030089], [-117.97652399963691, 33.93373600011952], [-117.97652399963691, 33.933547000041045], [-117.97652399963691, 33.9334849998924], [-117.97652399963691, 33.93345600024012], [-117.97652399963691, 33.93337100017443], [-117.97652500036016, 33.93334299995883], [-117.97652500036016, 33.933277999742316], [-117.97652500036016, 33.93316099982375], [-117.97652500036016, 33.93308300028564], [-117.97652600018505, 33.9330190000953], [-117.97652600018505, 33.93291700022819], [-117.97652700000997, 33.93261399983664], [-117.97652799983489, 33.93251299971501], [-117.97652799983489, 33.93243100014802], [-117.97652799983489, 33.93240500008706], [-117.97653000038302, 33.9321869999515], [-117.97653100020791, 33.93210600030595], [-117.97653100020791, 33.93209000026568], [-117.97653100020791, 33.93204500008959], [-117.97653100020791, 33.93203000027409], [-117.97653200003282, 33.93195100020821], [-117.97653200003282, 33.93192699973027], [-117.97653299985774, 33.93187800000677], [-117.97653299985774, 33.93186600013102], [-117.97652799983489, 33.931820000343215], [-117.97652799983489, 33.93070100016866], [-117.97652399963691, 33.93030099985882], [-117.97652000033726, 33.929896000090785], [-117.97652100016218, 33.92970600017083], [-117.97652700000997, 33.92962700018528], [-117.97652100016218, 33.929560000328806], [-117.9765219999871, 33.929269000162584], [-117.97652299981199, 33.92899600017085], [-117.97652299981199, 33.928922000145164], [-117.97652299981199, 33.92883099987442], [-117.97652399963691, 33.92866499972798], [-117.97652500036016, 33.9285139996954], [-117.97652500036016, 33.92836399967447], [-117.97653100020791, 33.928254999722085], [-117.97653600023081, 33.928166000047334], [-117.97653000038302, 33.92803400004014], [-117.97653100020791, 33.927633000333564], [-117.97654100025368, 33.92527300008594], [-117.97655299994923, 33.92467199986263], [-117.97654299990347, 33.92448200021586], [-117.97654999957618, 33.92288900000647], [-117.97655399977413, 33.92162800019058], [-117.97655499959905, 33.921431999790464], [-117.97655899979702, 33.91919899998031], [-117.97655999962193, 33.91904899995641], [-117.97655999962193, 33.91885300033235], [-117.97656100034516, 33.918555999985735], [-117.97656100034516, 33.918385999848475], [-117.97656100034516, 33.91821800016902], [-117.97656200017005, 33.91804499964704], [-117.97656200017005, 33.917866000085894], [-117.97656200017005, 33.91770799969863], [-117.97656299999497, 33.91750599976751], [-117.97656299999497, 33.9174179997068], [-117.97656299999497, 33.91736899983692], [-117.97656299999497, 33.917357999816645], [-117.97656299999497, 33.91734400005983], [-117.97656299999497, 33.91733300003627], [-117.97656299999497, 33.91731300005766], [-117.97656299999497, 33.9172790003068], [-117.97656299999497, 33.91725700024153], [-117.97656299999497, 33.917231999686116], [-117.97656299999497, 33.917213000094016], [-117.97656299999497, 33.91703900010112], [-117.97656399981989, 33.91698399977241], [-117.97656399981989, 33.91691199983061], [-117.97656399981989, 33.91685099991512], [-117.97656399981989, 33.91682800007009], [-117.97656399981989, 33.916746999982976], [-117.97656399981989, 33.916542999919415], [-117.9765649996448, 33.91637500033354], [-117.9765649996448, 33.91634499965377], [-117.9765649996448, 33.91632199967216], [-117.9765649996448, 33.91625699988501], [-117.9765649996448, 33.916134999818105], [-117.9765649996448, 33.91607499976997], [-117.9765649996448, 33.9159259998902], [-117.97656600036802, 33.91569899994784], [-117.97656600036802, 33.915623000186656], [-117.97656600036802, 33.91553499967229], [-117.97656700019294, 33.91536000029389], [-117.97656700019294, 33.915229000259885], [-117.97656800001783, 33.914939999723074], [-117.97656800001783, 33.914883999838445], [-117.97656800001783, 33.91486199990029], [-117.97656899984277, 33.914466000043014], [-117.97656899984277, 33.91408699998104], [-117.97656999966769, 33.91369199995598], [-117.97656999966769, 33.9132749999887], [-117.97656999966769, 33.913204000352344], [-117.97657100039089, 33.913189000201136], [-117.97657100039089, 33.91303399997471], [-117.97657100039089, 33.9128509999698], [-117.97657200021581, 33.912753000168124], [-117.97657100039089, 33.912150999872814], [-117.97657100039089, 33.91196899993463], [-117.97657100039089, 33.91169400021243], [-117.97657100039089, 33.91142399975738], [-117.97657100039089, 33.911204999870066], [-117.97657300004072, 33.91008300028075], [-117.97658100043664, 33.90976199992154], [-117.97656999966769, 33.909479000253384], [-117.97657100039089, 33.90875499974975], [-117.97657399986564, 33.90669099966941], [-117.97657499969053, 33.906405999914355], [-117.97657600041376, 33.90591999993924], [-117.97655499959905, 33.90538800028147], [-117.97659300013218, 33.90280999973437], [-117.97961099992366, 33.90279099990949], [-117.98108600038252, 33.90278299974651], [-117.98113099969007, 33.90278299974651], [-117.98253900020178, 33.902775000328376], [-117.98263999958579, 33.902775000328376], [-117.98276500015758, 33.90277399974867], [-117.98286200024195, 33.90277399974867], [-117.98294199970957, 33.90277399974867], [-117.98300799983181, 33.90277399974867], [-117.98334000009284, 33.902771000246226], [-117.98379700002731, 33.902767999998076], [-117.98389900013456, 33.902767000163834], [-117.98434900039638, 33.90276399991561], [-117.98452000010057, 33.90276399991561], [-117.98455699991051, 33.90276399991561], [-117.98521899988442, 33.902764999749834], [-117.98539299996172, 33.902766000329635], [-117.98540499965728, 33.902766000329635], [-117.98540300000744, 33.902586000155964], [-117.98540200018253, 33.90251800007427], [-117.98538899976373, 33.90138600022165], [-117.98538999958865, 33.901126999801754], [-117.98538000044122, 33.900259000315415], [-117.98535600015177, 33.89929299983014], [-117.9853579998016, 33.89905899969153], [-117.98536000034974, 33.89897899974538], [-117.9853579998016, 33.89835699989645], [-117.98534000025825, 33.89672600034998], [-117.98534000025825, 33.89671599980758], [-117.98532699983946, 33.89571400021102], [-117.98532699983946, 33.89560299966754], [-117.98532600001454, 33.895543999998324], [-117.98532699983946, 33.895508999846705], [-117.9865899996879, 33.89550099974607], [-117.98770000027376, 33.895494000309895], [-117.98791000033606, 33.89549299964475], [-117.98847000020271, 33.895489999886166], [-117.98851399968532, 33.895489999886166], [-117.98863199968612, 33.895488999966645], [-117.98909100016873, 33.89548700012748], [-117.9891599997657, 33.89548600020792], [-117.98944000014818, 33.8954840003687], [-117.9895949999589, 33.895489999886166], [-117.98968299982243, 33.895494000309895], [-117.99009499955106, 33.895508999846705], [-117.99020500005426, 33.895504000249936], [-117.99031399983419, 33.89550700000802], [-117.99042900036025, 33.895510999685285], [-117.99089600034047, 33.89551300026954], [-117.99131700028994, 33.89550600008868], [-117.99144199996343, 33.89550500016928], [-117.99154499989557, 33.89550500016928], [-117.99217599990735, 33.895499999826676], [-117.99222299976302, 33.89550799992733], [-117.99384800000968, 33.89550500016928], [-117.99413599988978, 33.89551300026954], [-117.99413000004199, 33.89454799963666], [-117.99412900021707, 33.89344399977488], [-117.99411900017135, 33.89249800022368], [-117.99411199960034, 33.892312000258414], [-117.99409499988191, 33.89179999995863], [-117.99407499979041, 33.891444999746554], [-117.99406399991977, 33.89119000033133], [-117.9940680001177, 33.89115599985454], [-117.99406999976753, 33.89109000029403], [-117.99406899994261, 33.8906010003323], [-117.99405600042215, 33.890239999717686], [-117.99404899985115, 33.8900219998316], [-117.99404700020132, 33.88995900009251], [-117.99404399982828, 33.889861000074525], [-117.99404200017845, 33.88977199982367], [-117.99404100035353, 33.88970899989992], [-117.99404300000336, 33.88946900036799], [-117.99404399982828, 33.8893789997169], [-117.99405700024707, 33.88841999979164], [-117.99405700024707, 33.888287000110054], [-117.99405700024707, 33.88821799980672], [-117.99484300006952, 33.88820499974332], [-117.99496699991808, 33.88820499974332], [-117.99519500042202, 33.88820299973338], [-117.99575500028868, 33.88819999971839], [-117.99592500016799, 33.8881909996728], [-117.9963629998359, 33.8881969997033], [-117.99652400039271, 33.8881969997033], [-117.9965650004006, 33.888197999708325], [-117.99790199986887, 33.8881879996574], [-117.9979179997624, 33.8881879996574], [-117.99819700031998, 33.88818499964189], [-117.99830699992482, 33.888181000366785], [-117.99834999958253, 33.8881879996574], [-117.99850299974341, 33.8881879996574], [-117.99866900032309, 33.888188999662525], [-117.99899300018816, 33.888185999647106], [-117.99911700003672, 33.88818499964189], [-117.9992340002126, 33.888182000372], [-117.99939300022127, 33.88817500033516], [-117.99953100031351, 33.88817900035627], [-118.00008100013443, 33.88817500033516], [-118.00053100039622, 33.88817500033516], [-118.00068299983388, 33.888174000329805], [-118.0007129999711, 33.888174000329805], [-118.00085000023846, 33.88817200031919], [-118.00147600022734, 33.88816600028694], [-118.00157800033459, 33.88816600028694], [-118.00161900034246, 33.88816700029232], [-118.00171999972649, 33.88816600028694], [-118.00175800025966, 33.88816600028694], [-118.00269700024299, 33.888162000265154], [-118.0028319999622, 33.88816100025971], [-118.00285500042673, 33.88816100025971], [-118.00285000040387, 33.88794000025618], [-118.00282500028952, 33.885785999698065], [-118.00282399956629, 33.88553800002548], [-118.00281400041887, 33.88491100036814], [-118.00280100000008, 33.88388799963047], [-118.00280199982497, 33.8837099999959], [-118.00279400032736, 33.88329799986122], [-118.0027959999772, 33.883196000139705], [-118.00279000012941, 33.88286700018502], [-118.00279299960415, 33.88266499972931], [-118.00277099986283, 33.88124300035507], [-118.002769000213, 33.881117999884204], [-118.0027549999693, 33.88091599976243], [-118.0027540001444, 33.88089400000831], [-118.0034599996009, 33.88089199982696], [-118.00396199974126, 33.88088700011921], [-118.00634299967317, 33.88087300033934], [-118.00886599989532, 33.88085799972034], [-118.0089699996524, 33.88085699962928], [-118.00910000024703, 33.88085699962928], [-118.00988799971933, 33.880853000010596], [-118.01034700020196, 33.880849999737144], [-118.0106610000213, 33.88084800030056], [-118.01135300013243, 33.88084399993572], [-118.0113990001632, 33.88084399993572], [-118.01147399960794, 33.88084600011819], [-118.01147299978304, 33.88081199999325], [-118.01147199995812, 33.88071399990823], [-118.01146799976014, 33.880431000035514], [-118.0114639995622, 33.880151000268135], [-118.0114550002397, 33.87952700012326], [-118.01145100004173, 33.87919100016314], [-118.0114490003919, 33.878975999976156], [-118.01144600001886, 33.87879000035905], [-118.01144299964581, 33.8785640001023], [-118.01143699979802, 33.8780840003037], [-118.01143699979802, 33.87800099970116], [-118.01143599997312, 33.87792899965222], [-118.0114350001482, 33.87789900035971], [-118.0114350001482, 33.87785700028835], [-118.01143400032328, 33.877785000117925], [-118.01143400032328, 33.877768000193065], [-118.01143400032328, 33.8777309999502], [-118.01143299960006, 33.87765100013617], [-118.01143099995025, 33.87736799980055], [-118.01142699975227, 33.87695799989491], [-118.01144000017106, 33.8765079998048], [-118.01142400027757, 33.875999999964286], [-118.01142199972941, 33.87594200030987], [-118.0114150000567, 33.8757639997614], [-118.01141699970654, 33.8753209996882], [-118.01140800038401, 33.875228000049155], [-118.01139599979012, 33.87505099966225], [-118.01138099972154, 33.87484400003351], [-118.01137999989662, 33.87480999975462], [-118.01138499991949, 33.87476499991314], [-118.01138800029254, 33.87473199976562], [-118.01139300031541, 33.874686999882975], [-118.01139699961504, 33.874641999976596], [-118.01139800033827, 33.87453699985419], [-118.01139800033827, 33.87449699995116], [-118.01139800033827, 33.87392000014059], [-118.01139099976727, 33.87389000018468], [-118.01138400009457, 33.87356699971767], [-118.01138099972154, 33.87353200024479], [-118.0113780002468, 33.87348799990692], [-118.01138099972154, 33.8734619997644], [-118.01138300026967, 33.8734310002152], [-118.01142299955433, 33.8734310002152], [-118.01175599964024, 33.87342899985894], [-118.01202500015208, 33.87342499989216], [-118.01211700021359, 33.87342399971393], [-118.012350999667, 33.87341999974692], [-118.01348399981909, 33.87341400016896], [-118.01517500018802, 33.87340799984465], [-118.01518900043173, 33.8734050000553], [-118.01719200007189, 33.873393000150976], [-118.01813400042826, 33.873386999825215], [-118.01834399959223, 33.873384000035124], [-118.01857600029412, 33.873385999646594], [-118.01874899964818, 33.87338100024493], [-118.01882800018922, 33.873381999677804], [-118.01890699983193, 33.873382999856474], [-118.02007099994617, 33.87337600009711], [-118.0204950002687, 33.87337399973955], [-118.02168000029931, 33.87337300030664], [-118.02313300011858, 33.87335699968195], [-118.02417500003405, 33.87335100009956], [-118.02521500029972, 33.87334499977083], [-118.0287820000872, 33.87332200012302], [-118.02877399969128, 33.872505000309864], [-118.0287619999957, 33.87119200016326], [-118.0287619999957, 33.87109300001334], [-118.0287619999957, 33.87098500012564], [-118.02875799979775, 33.87077499970425], [-118.02874500027725, 33.86949199981812], [-118.02873699988136, 33.86866899998246], [-118.02872500018577, 33.86737000026176], [-118.02871699978988, 33.86639299965007], [-118.02871699978988, 33.86624199970164], [-118.02871599996496, 33.86604600026928], [-118.02879299995786, 33.86604500000464], [-118.02892299965418, 33.86604600026928], [-118.03318800029889, 33.86602999976298], [-118.03351800001175, 33.86603100002779], [-118.03370700015763, 33.866035999859946], [-118.03407899970335, 33.86602100036262], [-118.03427100022226, 33.866012999734544], [-118.03428399974274, 33.866012999734544], [-118.03436499993359, 33.866012999734544], [-118.03463100007237, 33.86601399999955], [-118.03478400023324, 33.86601399999955], [-118.03490899990673, 33.86601399999955], [-118.03502899955734, 33.86601399999955], [-118.0352379997947, 33.86601399999955], [-118.0353010004422, 33.86601399999955], [-118.03759799981022, 33.866012999734544], [-118.03759799981022, 33.865953000221424], [-118.03759799981022, 33.865715000046514], [-118.03758199991668, 33.86511599970708], [-118.03758199991668, 33.8650930000797], [-118.03758199991668, 33.86495999984293], [-118.03758199991668, 33.86492999972163], [-118.03756699984808, 33.86391799984726], [-118.03756000017536, 33.863586000032065], [-118.03756000017536, 33.86353499996855], [-118.03755799962724, 33.863460999807614], [-118.03755699980233, 33.86338299989105], [-118.0375540003276, 33.86324899967685], [-118.03754900030471, 33.86305199978722], [-118.03754400028187, 33.862853999886944], [-118.03753699971084, 33.86264400034996], [-118.03753699971084, 33.86251400020017], [-118.03753599988592, 33.862472000017696], [-118.03753599988592, 33.862368999713546], [-118.03810900017137, 33.862346999654164], [-118.03880299993233, 33.86235699974969], [-118.03922499970673, 33.86235400031789], [-118.0393500002785, 33.86235300001001], [-118.03957399968617, 33.862351999702106], [-118.03978200009864, 33.86234999983217], [-118.03996299984863, 33.86234799996218], [-118.04012799970505, 33.862346999654164], [-118.04030900035333, 33.862344999784156], [-118.04047400020978, 33.862344000222066], [-118.04065499995976, 33.862342000351944], [-118.04081999981618, 33.86234100004392], [-118.04100099956615, 33.862339999735816], [-118.0411660003209, 33.86233799986565], [-118.04152199997306, 33.86233499968723], [-118.04155499958503, 33.86233499968723], [-118.04158800009529, 33.86233499968723], [-118.04166699973801, 33.86233400012507], [-118.04188400037128, 33.86233200025471], [-118.04188199982316, 33.86218299971136], [-118.04188099999826, 33.861950999854585], [-118.04187900034842, 33.861696999886696], [-118.04187900034842, 33.86168299994284], [-118.0418769998003, 33.86145300011049], [-118.04187500015047, 33.861287000047646], [-118.04187400032555, 33.861150999629814], [-118.04187299960233, 33.861012999840135], [-118.04187199977741, 33.86087600015263], [-118.04186900030271, 33.860537999961714], [-118.04186299955657, 33.85973700033365], [-118.04186000008184, 33.859495000115444], [-118.04185699970881, 33.85915099984567], [-118.04185300040915, 33.85871500030562], [-118.04238800016145, 33.858711999999954], [-118.04282300035464, 33.85870899969419], [-118.04311399970946, 33.85870699973893], [-118.04450600032766, 33.8586980003127], [-118.04618799957741, 33.858687999788714], [-118.04618799957741, 33.85861999977513], [-118.04618099990473, 33.85810099995046], [-118.04617599988184, 33.85790400011966], [-118.04617300040712, 33.85779999991212], [-118.0461499999426, 33.85692999972778], [-118.0461499999426, 33.85674100018546], [-118.04615099976749, 33.856689999763596], [-118.0461499999426, 33.856659000092066], [-118.04614300026991, 33.85654400020144], [-118.04614300026991, 33.856528999782675], [-118.04614300026991, 33.85642599976999], [-118.04613499987397, 33.856277000111334], [-118.04613400004905, 33.85612499979613], [-118.04611499978249, 33.85545999980567], [-118.04608999966813, 33.85488100034034], [-118.04609700023914, 33.85446499969154], [-118.0460939998661, 33.85431999971189], [-118.04608899984322, 33.85412199970746], [-118.04608200017054, 33.853840000106835], [-118.04608200017054, 33.85372199966962], [-118.04608200017054, 33.853698000294116], [-118.04608200017054, 33.85367600023896], [-118.04608200017054, 33.853656000251725], [-118.04608200017054, 33.85361099970381], [-118.0461580003385, 33.85361099970381], [-118.04832900020816, 33.853570000029485], [-118.0485729997073, 33.85357699992068], [-118.04872900024124, 33.853576000255956], [-118.04910099978692, 33.85357200010504], [-118.049608999775, 33.85356799995389], [-118.04998299986883, 33.853565000213436], [-118.05021800004548, 33.85356300013772], [-118.05040200016849, 33.853538999971505], [-118.05039999962035, 33.85328600001625], [-118.05039299994768, 33.85236000019682], [-118.05038000042717, 33.85070000003123], [-118.05037500040433, 33.84996700013978], [-118.05037500040433, 33.84987200032347], [-118.0507040002923, 33.849870000161275], [-118.05254899974867, 33.8498579999332], [-118.05340499989134, 33.84985200019157], [-118.05472299999136, 33.84982100027638], [-118.05471600031868, 33.84911599984161], [-118.05470299989987, 33.8491029997906], [-118.05471799996849, 33.84883100022089], [-118.05471799996849, 33.848800999655765], [-118.05471799996849, 33.84833099987178], [-118.05470999957257, 33.84800000036748], [-118.05470999957257, 33.8479730001936], [-118.05470399972478, 33.84768199985002], [-118.05470299989987, 33.84734099970903], [-118.05470200007495, 33.84729499982654], [-118.05469500040228, 33.84691599972188], [-118.05469500040228, 33.84663400020672], [-118.05469500040228, 33.84661100007827], [-118.05468700000635, 33.846217999683034], [-118.05488600019797, 33.846217999683034], [-118.05543299964586, 33.84621499968442], [-118.05581900033354, 33.8462130001827], [-118.05600699975619, 33.8462139999336], [-118.05625199997857, 33.8462139999336], [-118.05628899978849, 33.84621699993219], [-118.05639599991864, 33.8462139999336], [-118.05664199996592, 33.84620599968806], [-118.05790099961641, 33.846198999938956], [-118.05845299998545, 33.84619500018864], [-118.05883299992705, 33.84619500018864], [-118.05891999996567, 33.84619599993968], [-118.05903999961627, 33.84619500018864], [-118.05903999961627, 33.8461099996678], [-118.05903799996646, 33.845633999963574], [-118.05903799996646, 33.8455900001705], [-118.05903700014154, 33.84542799965188], [-118.05903700014154, 33.845379999964244], [-118.05903499959338, 33.844947000304195], [-118.05903200011868, 33.84454500029067], [-118.05903200011868, 33.84442100032056], [-118.05903899979135, 33.84409500021463], [-118.05902500044596, 33.84347799987071], [-118.05902200007293, 33.84275299976636], [-118.05902000042312, 33.84205000029607], [-118.05901600022514, 33.84137100012595], [-118.05901299985209, 33.840683999767066], [-118.05901000037738, 33.839993999637294], [-118.0590070000043, 33.83930399990553], [-118.0590070000043, 33.839205999926534], [-118.05900500035449, 33.83885200016255], [-118.05900500035449, 33.838727000300274], [-118.05900399963124, 33.8384300000077], [-118.05898799973775, 33.83520700024132], [-118.05914900029455, 33.83507000020486], [-118.05932199964859, 33.83492400025648], [-118.05937600007525, 33.834919999978396], [-118.0594289997787, 33.83491399993402], [-118.0594849998552, 33.834908999772374], [-118.05953900028189, 33.834902999727184], [-118.05959299981023, 33.83489599979837], [-118.0596470002369, 33.83488799998559], [-118.05969999994035, 33.83487900028857], [-118.05975400036704, 33.834868999960854], [-118.05980700007049, 33.83485899963196], [-118.05985999977393, 33.834848000164236], [-118.05991199965244, 33.83483600006495], [-118.05996500025424, 33.83482300007984], [-118.06001700013275, 33.834810000092745], [-118.0600690000113, 33.83479600021926], [-118.06012000006491, 33.83478099971265], [-118.06017199994346, 33.83476500006483], [-118.06022299999707, 33.83474899966781], [-118.06026599965479, 33.83473499978434], [-118.0603729997849, 33.83469499989138], [-118.06052000009801, 33.834635000016874], [-118.06068999997731, 33.834555000118655], [-118.06083100044265, 33.834130999855944], [-118.06091000008533, 33.83388699968756], [-118.0609500002683, 33.833792999797694], [-118.0610769995916, 33.833445000147215], [-118.06122999975248, 33.83331399968226], [-118.06172000019725, 33.83289999979259], [-118.06204999991013, 33.83261900019765], [-118.06212400042828, 33.832556999790896], [-118.06241399995821, 33.83231099977977], [-118.06308400032802, 33.83174300000422], [-118.06317200019157, 33.83166799998954], [-118.06329299966708, 33.83156499985226], [-118.06332199997941, 33.831541000222636], [-118.06332199997941, 33.831525999891035], [-118.06335999961422, 33.83088899974705], [-118.06331399958349, 33.82990200030905], [-118.06331100010874, 33.829226999689155], [-118.06330899956062, 33.828884999828304], [-118.0633079997357, 33.82867600031774], [-118.06330500026095, 33.82802199970545], [-118.06325000000938, 33.82703999987911], [-118.06325500003224, 33.82695399973258], [-118.06325500003224, 33.82691599988324], [-118.06325599985716, 33.82684799995361], [-118.06325500003224, 33.826815999924136], [-118.06325500003224, 33.82671399989009], [-118.06326300042817, 33.82634400015009], [-118.06327099992576, 33.826241000314695], [-118.06327099992576, 33.82619000034303], [-118.0632669997278, 33.825694000319835], [-118.0632659999029, 33.82556099993273], [-118.06327199975068, 33.82508599995316], [-118.06327199975068, 33.82493700011817], [-118.06326900027595, 33.82437699990911], [-118.06326799955272, 33.82422000026638], [-118.06326799955272, 33.82410700001712], [-118.06327199975068, 33.82393499970775], [-118.06327799959845, 33.82368100014546], [-118.06327799959845, 33.82281100031043], [-118.06327799959845, 33.82275000027902], [-118.06328599999438, 33.822033000000395], [-118.06329299966708, 33.82194099983338], [-118.06327799959845, 33.82163199971613], [-118.06327799959845, 33.82149899972771], [-118.06327799959845, 33.821464999854605], [-118.06327099992576, 33.821453000115646], [-118.06327099992576, 33.82142999992718], [-118.06327099992576, 33.82141900022425], [-118.06326300042817, 33.82138100015404], [-118.06326300042817, 33.82133899989963], [-118.06325699968208, 33.8210489999613], [-118.06325000000938, 33.820764000028845], [-118.06324900018447, 33.82070600017766], [-118.06324800035955, 33.82064800028715], [-118.06324800035955, 33.82040000023438], [-118.06316999964345, 33.819681000280795], [-118.06332899965209, 33.81959999976076], [-118.06367699980665, 33.81942599995996], [-118.06400999989256, 33.819259000268524], [-118.06432100023719, 33.819104000321296], [-118.06461900016302, 33.81895699990473], [-118.06514200021975, 33.81869199968319], [-118.06532700016768, 33.81860099972748], [-118.06546699990977, 33.818529000350075], [-118.06601000005797, 33.81825799982806], [-118.06611399981506, 33.81820700031959], [-118.06621000007453, 33.81815700011338], [-118.06655400003112, 33.81798499977794], [-118.06671899988754, 33.81790199972665], [-118.06678800038284, 33.81786799991616], [-118.0668560001549, 33.81783400009221], [-118.0670389995547, 33.81774199988603], [-118.06722699987566, 33.81764800015732], [-118.0674469999837, 33.81753799969254], [-118.06758300042614, 33.81746999976865], [-118.0683480003322, 33.81747300002986], [-118.06842100012712, 33.81747300002986], [-118.0686739998471, 33.8174179997026], [-118.06875800041104, 33.817361999998006], [-118.0687700001066, 33.81734900034119], [-118.06881600013733, 33.81729700020156], [-118.06894300035894, 33.81715600020928], [-118.06909599962151, 33.81698500019262], [-118.06916900031476, 33.8169050001984], [-118.06929700036126, 33.816762000115574], [-118.06941500036206, 33.816630000113946], [-118.06952599979181, 33.81650299965437], [-118.06955400027923, 33.816488999768474], [-118.06964600034075, 33.81644299970075], [-118.06982899974054, 33.81635200033762], [-118.07000899966557, 33.816262000232555], [-118.07049300026256, 33.81602100013167], [-118.0711019996347, 33.81571700006104], [-118.07165599965356, 33.81544199988883], [-118.0717269997987, 33.81540699973561], [-118.07181399983732, 33.81536300005581], [-118.07183899995168, 33.815351000207066], [-118.0719119997466, 33.81531399979212], [-118.0719259999903, 33.815306999752146], [-118.07223099958884, 33.81515499970262], [-118.07236500038145, 33.81508900035318], [-118.07283300018659, 33.81485600012797], [-118.07396600033869, 33.81371500009264], [-118.07437499969429, 33.81330300036554], [-118.07446799958072, 33.81321300003786], [-118.07458800012962, 33.8130929999513], [-118.07478599959803, 33.81289399982232], [-118.07499999985825, 33.81267899992784], [-118.07517599958537, 33.812502999938324], [-118.07526799964685, 33.81241099996932], [-118.07533600031725, 33.81234200030085], [-118.0768669999543, 33.810807999832726], [-118.07692300003079, 33.81075299969831], [-118.07714899998659, 33.8105249997004], [-118.07720300041328, 33.810471999721855], [-118.07722799962932, 33.81044599980488], [-118.07727299983516, 33.81040000021947], [-118.0772899995536, 33.810382000147804], [-118.07742799964585, 33.810240999953066], [-118.07746100015612, 33.81020800025508], [-118.07755400004255, 33.81011499988417], [-118.0777969997168, 33.809873000202906], [-118.07785000031856, 33.809818999643916], [-118.07787999955747, 33.80978900031386], [-118.07796199957326, 33.80970699995166], [-118.07801599999992, 33.80965400021279], [-118.07807000042658, 33.80960099969469], [-118.07808600032011, 33.80958399963423], [-118.07813099962765, 33.80953899976515], [-118.07816599978774, 33.80950500036258], [-118.07827600029091, 33.809394999875906], [-118.07831099955271, 33.80936000023418], [-118.07832700034453, 33.80934400030796], [-118.07835099973566, 33.80931900023053], [-118.07836499997937, 33.80930600009788], [-118.07839699976643, 33.80927400022212], [-118.07846100023885, 33.80920599970007], [-118.07901899955736, 33.80865000025325], [-118.08077900042157, 33.806896999688924], [-118.0811540003403, 33.806520000041694], [-118.08126700031819, 33.80640600007672], [-118.08152500006108, 33.806144999918835], [-118.08247400009014, 33.805185000296554], [-118.08423999990383, 33.80341600011519], [-118.08465400018059, 33.80300700008057], [-118.08474399969397, 33.80290999981114], [-118.08475600028784, 33.8028590001102], [-118.08486599989271, 33.80242199975813], [-118.08493299983988, 33.80215199998316], [-118.08496399980201, 33.802016000254994], [-118.08500499980988, 33.80184999969011], [-118.08512799983352, 33.801356999680344], [-118.0853449995685, 33.80047000008525], [-118.08565699973803, 33.799208999893715], [-118.08601999996121, 33.79772800031135], [-118.08622800037368, 33.7968790002059], [-118.08682300040043, 33.79593499985715], [-118.08726299971815, 33.79524299999528], [-118.08765899955326, 33.79461799963384], [-118.08778300030013, 33.79442200015971], [-118.0879049996006, 33.79422800020777], [-118.08854200035843, 33.793221999932825], [-118.09056300044026, 33.790063000003904], [-118.09126700024694, 33.78892400020055], [-118.09143600030133, 33.78865000020047], [-118.09146700026348, 33.78860299967368], [-118.09161700005131, 33.78836200006181], [-118.09200899968847, 33.78773900035688], [-118.09217699991795, 33.78747300006671], [-118.09232300040615, 33.787240999745265], [-118.09247800021684, 33.786995000056514], [-118.09258699999677, 33.786819000252216], [-118.09302899986265, 33.78612100013867], [-118.09312500012213, 33.785973999798095], [-118.0932299997041, 33.785805000349214], [-118.09327699955978, 33.78572800020256], [-118.09335299972776, 33.7856099998241], [-118.09345599965992, 33.785444000294426], [-118.09427499999266, 33.78418400023757], [-118.09639200033392, 33.779842000033554], [-118.09656100038833, 33.7794670002603], [-118.09670500032838, 33.779085000322425], [-118.09679300019192, 33.778797999914794], [-118.09682400015406, 33.77869699991986], [-118.09691700004049, 33.77830400026263], [-118.09698499981255, 33.77790700033802], [-118.09702599982042, 33.777507999705314], [-118.09704199971394, 33.777107999642006], [-118.09705400030784, 33.77478599980005], [-118.09705500013273, 33.774560000003376], [-118.09705599995765, 33.774375999788056]]]}, "properties": {"GEOID": "06059", "NAME": "Orange County"}}]}