{"type": "FeatureCollection", "features": [{"type": "Feature", "geometry": {"type": "Polygon", "coordinates": [[[-114.72651900031599, 32.71827399994687], [-114.72620799997135, 32.71829500024683], [-114.72282899960655, 32.71851499974494], [-114.72178699969106, 32.71858399987769], [-114.72169200015482, 32.718590999953854], [-114.72042400028351, 32.71867699987355], [-114.71964099993579, 32.71872700024569], [-114.71949699999573, 32.718738999816864], [-114.71931899972051, 32.71916300000521], [-114.71919099967397, 32.71942600035146], [-114.71897700031207, 32.71986899969264], [-114.71868699988383, 32.72030400003152], [-114.71844300038468, 32.72062400002084], [-114.71818399991858, 32.720914000294606], [-114.71795499958972, 32.721141999884125], [-114.71787799959682, 32.721372000145706], [-114.71769500019705, 32.72154700019371], [-114.71766500005981, 32.72165399979482], [-114.71754299986107, 32.72218000013403], [-114.71743599973098, 32.72267600015186], [-114.71729900036192, 32.72314200034872], [-114.71711600006383, 32.723638000305655], [-114.71696299990295, 32.72392000034605], [-114.71682599963559, 32.72424799967844], [-114.71674899964269, 32.724530000056795], [-114.71661200027366, 32.724949999835225], [-114.71649000007491, 32.72528500021941], [-114.7163829999448, 32.725667000132255], [-114.71627599981468, 32.72606999990026], [-114.71615399961594, 32.72649800000713], [-114.71601700024691, 32.72697900003414], [-114.71591000011679, 32.72737600033574], [-114.71578799991804, 32.72775800035808], [-114.71565099965069, 32.7281159998626], [-114.71561999968856, 32.72820799994635], [-114.71533000015864, 32.72881700000401], [-114.71526700040945, 32.72894500000821], [-114.71507099969254, 32.72935199995745], [-114.71498600020206, 32.729517000142835], [-114.71481100029986, 32.72985500007729], [-114.71452199969656, 32.73038999984687], [-114.7141860001359, 32.730832000115825], [-114.7138349996083, 32.731282000056424], [-114.71353000000977, 32.731655999648794], [-114.71337699984889, 32.73190000032316], [-114.71320899961941, 32.73209799968578], [-114.71290400002088, 32.73241099991824], [-114.71262899966126, 32.73267800021839], [-114.71221699993262, 32.732976000025026], [-114.71188200019687, 32.73322699979152], [-114.71142400043749, 32.733502999802724], [-114.71108799997849, 32.733693000003655], [-114.71087500044148, 32.73380000014141], [-114.71061500015048, 32.73393599990508], [-114.71030999965362, 32.73420399989888], [-114.7100960002917, 32.73441699984922], [-114.7098069996884, 32.73466200024478], [-114.70956200036433, 32.734882999884995], [-114.7093790000662, 32.735111999740994], [-114.70919599976811, 32.735334000247455], [-114.70907399956937, 32.7354560001678], [-114.70886100003236, 32.735852000034406], [-114.7086469997721, 32.736149999808], [-114.70838700037942, 32.73663099989392], [-114.70812799991334, 32.73712500022077], [-114.70789899958449, 32.737568000029725], [-114.70754799995521, 32.738270000327645], [-114.70739599961925, 32.73882699988876], [-114.70706000005859, 32.73948300023721], [-114.70674000039146, 32.739947999811285], [-114.70641900000106, 32.74041399963947], [-114.70611400040255, 32.74098600022199], [-114.7057169998442, 32.741579999904864], [-114.70538200010844, 32.74191699978846], [-114.70501499968734, 32.74234399972741], [-114.70446599969132, 32.74302299965239], [-114.70403899989405, 32.74348100001015], [-114.70367300019616, 32.74386200014871], [-114.70330599977505, 32.74428200026384], [-114.70301600024514, 32.74463900027832], [-114.70294000007716, 32.74479299988741], [-114.70283299994702, 32.74488399977169], [-114.70260399961819, 32.7451060001124], [-114.70222299985166, 32.7454099997972], [-114.70191800025316, 32.74554799993319], [-114.70158199979416, 32.74563200033836], [-114.7011549999969, 32.745663000009145], [-114.70074300026826, 32.74561700029878], [-114.70028499961055, 32.745434000066155], [-114.69987299988188, 32.74531200020595], [-114.69950700018401, 32.7452199996435], [-114.69924699989299, 32.74509800024583], [-114.69914099958777, 32.74502999984018], [-114.6987899999585, 32.744846000304605], [-114.69837800022988, 32.74455699967139], [-114.69793499964076, 32.744259000055116], [-114.69740099971337, 32.7438309998513], [-114.69695899984751, 32.74344299994462], [-114.69656200018746, 32.743144999624676], [-114.69619599959127, 32.742877000072944], [-114.69579899993121, 32.74255800025772], [-114.69538700020259, 32.74224399975532], [-114.69488300041242, 32.741931999695375], [-114.69440999968609, 32.74167999986656], [-114.69396799982022, 32.74141300008885], [-114.69352500012941, 32.74114600026673], [-114.69305200030144, 32.74087199980708], [-114.69253400026756, 32.74056599968221], [-114.6921369997092, 32.74034400011917], [-114.69180100014853, 32.74014699984632], [-114.69151099972032, 32.73989399983904], [-114.69116000009103, 32.73966599984731], [-114.69096199972434, 32.73946000030093], [-114.69092200043967, 32.73942100036257], [-114.69071700040024, 32.73922400031601], [-114.69048800007141, 32.738987000032026], [-114.69024399967391, 32.738756999877445], [-114.68987799997602, 32.73846099986938], [-114.68961799968503, 32.738171000000555], [-114.68928200012435, 32.73792699986974], [-114.6890379997269, 32.73778900002027], [-114.68877900015913, 32.737675000049165], [-114.68851999969306, 32.73759099969874], [-114.68823000016313, 32.73752999970945], [-114.68786299974201, 32.73746099988187], [-114.68752800000624, 32.737408000361306], [-114.68728399960878, 32.73739200000086], [-114.68698700040618, 32.73734599979861], [-114.68671299987147, 32.73737400025308], [-114.6854890003811, 32.73745599991417], [-114.68416399971005, 32.73751999978156], [-114.68329199967386, 32.737325999900364], [-114.68290199968654, 32.737249999792866], [-114.68274000020313, 32.737320999925146], [-114.68261399980646, 32.73734799993934], [-114.68172900024977, 32.73715599982876], [-114.6807380003879, 32.736981000194085], [-114.68013900016321, 32.7368810002486], [-114.6800970003304, 32.736874000097046], [-114.67934900014275, 32.736696999753406], [-114.67887600031474, 32.73661399969317], [-114.67863199991729, 32.73661399969317], [-114.67794499982902, 32.736445999935604], [-114.67709100023448, 32.73621800018978], [-114.67648000031423, 32.73603300012981], [-114.67570199998936, 32.735781999953204], [-114.67478700029547, 32.73554600005158], [-114.6739930000771, 32.73541600027426], [-114.67336799991311, 32.73522500025168], [-114.67271099996208, 32.73509599972399], [-114.67202499969875, 32.734950999722145], [-114.67133799961049, 32.734882000164774], [-114.67059000032117, 32.734806000240056], [-114.66995000008856, 32.734676000139046], [-114.66927800006891, 32.7345379997895], [-114.66874400014153, 32.73441699984922], [-114.66819500014554, 32.734325000128266], [-114.66772200031751, 32.734256999813454], [-114.66768700015743, 32.734250999938766], [-114.66749299998865, 32.73422599995279], [-114.6666229996023, 32.734134999763214], [-114.66592100034374, 32.73402800002762], [-114.66549399964816, 32.733997000087314], [-114.66508199991951, 32.73398999970923], [-114.66434999962543, 32.73393599990508], [-114.66355600030536, 32.733958999755714], [-114.66271699988111, 32.73395200013038], [-114.66193899955627, 32.73385999992938], [-114.66128300032847, 32.733958999755714], [-114.66065700033957, 32.733882999799626], [-114.66018399961325, 32.73382899993064], [-114.65952800038544, 32.73382899993064], [-114.65917600003291, 32.73381400017113], [-114.65883999957394, 32.73382899993064], [-114.65851999990682, 32.73378999979501], [-114.65825999961582, 32.733797999921066], [-114.65755800035724, 32.73373800009136], [-114.6566889997958, 32.73366199994683], [-114.65577300027698, 32.73360700020943], [-114.65488799982202, 32.733601000290996], [-114.65483500011857, 32.73359800033162], [-114.65424699976452, 32.73357000020217], [-114.65351500036871, 32.73343999980974], [-114.65262999991376, 32.733316999659074], [-114.65186699965751, 32.73317300028077], [-114.6510280001316, 32.73306699988653], [-114.65055799977831, 32.733031999892695], [-114.65035799976177, 32.733017999740134], [-114.6502950000126, 32.73301300027886], [-114.64950199961913, 32.73286100019995], [-114.64893699972959, 32.73276100016573], [-114.6483879997336, 32.73262400037505], [-114.64800600014217, 32.73252499982162], [-114.6461139999318, 32.7322939998658], [-114.64601000017474, 32.73228199985175], [-114.6453530002237, 32.732139000063675], [-114.6441570003224, 32.732038999975146], [-114.6426579995741, 32.73199900005944], [-114.640438000199, 32.731854000309085], [-114.63970599990489, 32.7317999999665], [-114.63876000024885, 32.73173800003666], [-114.63805800009197, 32.73168599989164], [-114.63714199967485, 32.73157099991358], [-114.63631800021756, 32.73151000033813], [-114.63564700002283, 32.73143399980529], [-114.63549300003706, 32.7314189996427], [-114.63500599996533, 32.73137200037651], [-114.63459400023667, 32.731304000075916], [-114.63427399967122, 32.731219999766296], [-114.63416400006638, 32.73120099976628], [-114.63396700042287, 32.73116700031291], [-114.63332700019029, 32.731051999665326], [-114.63268600013276, 32.73084599985604], [-114.63207400038758, 32.730642999629595], [-114.63141900008637, 32.73042599989261], [-114.63053399963141, 32.730220999920505], [-114.63039499971421, 32.73018799986623], [-114.62995500039649, 32.73008300023044], [-114.62929900027034, 32.72990800031078], [-114.62871900031222, 32.72983899987232], [-114.62830699968526, 32.72978499982048], [-114.62791099985013, 32.729716999820674], [-114.62729900010495, 32.729626000317616], [-114.62681100020835, 32.72955699966088], [-114.6267190001468, 32.72954899990983], [-114.62627700028094, 32.729510999949085], [-114.62464399963832, 32.729341999867735], [-114.62458300043728, 32.729335999662204], [-114.62453499985838, 32.72933099999442], [-114.62450200024644, 32.72932700010887], [-114.6242479998032, 32.72929800036631], [-114.62375900008168, 32.72919899989744], [-114.62314899998631, 32.72907599994031], [-114.62250799992879, 32.72906899993146], [-114.62185199980267, 32.728923999949295], [-114.62128699991315, 32.72883100006065], [-114.6210159997515, 32.728787000307086], [-114.62096700024603, 32.72877899973123], [-114.62067699981779, 32.728726000337936], [-114.62038499973974, 32.728656999740316], [-114.62038499973974, 32.72864400020219], [-114.620234000127, 32.72862600019917], [-114.62003599976028, 32.728602999728196], [-114.61979200026111, 32.72855800007096], [-114.61960899996303, 32.72850399999887], [-114.61941700034238, 32.72847999970445], [-114.61837299987876, 32.72835300033742], [-114.61739500043568, 32.72825699971399], [-114.6171860001983, 32.728291000277224], [-114.61672199969281, 32.72835800006006], [-114.61631599981195, 32.72841200022058], [-114.61597600005332, 32.72848900009902], [-114.61570499989166, 32.72845799974373], [-114.61566999973155, 32.72845399981903], [-114.61567399992953, 32.72851800010467], [-114.61566700025685, 32.72862799977986], [-114.61566600043193, 32.728662000201616], [-114.61565399983803, 32.72885100035368], [-114.61564899981519, 32.72893799998915], [-114.61563899976942, 32.729033999879185], [-114.61563999959432, 32.7290969999634], [-114.61564100031755, 32.72912400020182], [-114.61564899981519, 32.7291509996763], [-114.61566499970868, 32.729199999681335], [-114.61567700030258, 32.729216999784754], [-114.61570999991456, 32.72926199986505], [-114.61572599980806, 32.729283999627356], [-114.61572300033332, 32.72929500026213], [-114.61571900013537, 32.72930799970533], [-114.61571599976233, 32.72933899976502], [-114.61571999996028, 32.72941300025396], [-114.6158699997481, 32.72957999988572], [-114.6158699997481, 32.729633000282654], [-114.6158699997481, 32.729716999820674], [-114.61579399958015, 32.72989200011527], [-114.61571800031045, 32.73003000010103], [-114.61565399983803, 32.73003399995509], [-114.61557699984516, 32.730039000339104], [-114.61550099967718, 32.730043999967194], [-114.61551699957067, 32.73030300011709], [-114.6154399995778, 32.73038600000879], [-114.61543799992799, 32.73056999993027], [-114.61546600041535, 32.73070699985511], [-114.61547999976078, 32.73089900025596], [-114.61550700042325, 32.73119000012235], [-114.61550400005022, 32.73144899996531], [-114.61543000043038, 32.73158399978057], [-114.61539600009517, 32.73164800008617], [-114.61529099961487, 32.73189899981385], [-114.61528099956914, 32.73198199973087], [-114.61527600044458, 32.732030999691155], [-114.61518400038308, 32.73220099971461], [-114.61511700043592, 32.732290999862435], [-114.61497099994774, 32.73247000013832], [-114.61492400009209, 32.73252499982162], [-114.61484799992411, 32.73266999999181], [-114.6148329998555, 32.73276100016573], [-114.61478599999981, 32.73284600027754], [-114.61478299962675, 32.73304999976172], [-114.61474699964178, 32.73335800023193], [-114.61477500012916, 32.73371299996149], [-114.61477299958102, 32.73394199980096], [-114.61478699982473, 32.734075999889576], [-114.61500399955972, 32.734339999801776], [-114.61511200041305, 32.734515000088265], [-114.61448399987603, 32.73451299988397], [-114.61400699985005, 32.73451700029248], [-114.6134970002121, 32.73452300014926], [-114.61310899987458, 32.734515000088265], [-114.61269700014594, 32.734515000088265], [-114.61265500031315, 32.73451599981255], [-114.5868840002883, 32.73484599965176], [-114.58576299983177, 32.73486800030286], [-114.58465700034216, 32.73489000019288], [-114.58316599998979, 32.73491899962746], [-114.58310300024058, 32.73492000010285], [-114.58180299968392, 32.73494600036928], [-114.58178400031566, 32.73494600036928], [-114.581765999874, 32.73660700027635], [-114.581765999874, 32.74020000000476], [-114.58173599973676, 32.74232000013722], [-114.57885199983961, 32.742351000204835], [-114.57340399971244, 32.742312999657365], [-114.57313900029686, 32.74230900035442], [-114.57299700000665, 32.74230599993257], [-114.56463200037035, 32.74227400021207], [-114.56450799962347, 32.74227400021207], [-114.5644470004224, 32.74955399977463], [-114.55211300041742, 32.74964599963897], [-114.55151400019271, 32.74965000012365], [-114.55023499955243, 32.74966000020129], [-114.5482829999659, 32.749645000084385], [-114.53922399967031, 32.749812000336306], [-114.53913199960881, 32.750045000069605], [-114.53904600029341, 32.75090400004356], [-114.5390670002098, 32.75359099996215], [-114.53909200032416, 32.756949000335744], [-114.53895300040698, 32.75694999980831], [-114.53878799965224, 32.756952000264356], [-114.53865700013098, 32.75695399996494], [-114.53844299987074, 32.75695599966547], [-114.53748899981878, 32.75696699990609], [-114.53640900026845, 32.75697999984541], [-114.53412000039803, 32.757008000173094], [-114.53393999957467, 32.75700999987236], [-114.53100299997406, 32.7570450002688], [-114.52752300022522, 32.75708599974441], [-114.52709899990272, 32.75709100012138], [-114.52685600022848, 32.757094000045264], [-114.52726999960693, 32.760415999775], [-114.52760799971573, 32.76311399999652], [-114.52834000000983, 32.766645999811296], [-114.528442999942, 32.76727600011371], [-114.52926399992455, 32.76948400031257], [-114.53052500012316, 32.77157100004176], [-114.5318309996293, 32.77426399965188], [-114.53243200040217, 32.77692199997799], [-114.53242599965608, 32.778644000189374], [-114.53185099972079, 32.78190600022467], [-114.53174600013882, 32.78250300019627], [-114.53158700013016, 32.78725999986333], [-114.53166900014592, 32.79118500019681], [-114.53075500027694, 32.793483999987], [-114.52963299999551, 32.79547699979853], [-114.52884899982286, 32.79630700028111], [-114.52527399963948, 32.79884099969652], [-114.52203099971712, 32.80167499980799], [-114.52038499955403, 32.80357600035362], [-114.52036299981273, 32.80438500034939], [-114.51975799974022, 32.805676000309816], [-114.51850400011261, 32.807060000229875], [-114.51664500041252, 32.809528000257586], [-114.51633800026585, 32.810075999761445], [-114.51538900023678, 32.81143899964123], [-114.51450899980466, 32.812356999866665], [-114.51327400044364, 32.813757999753726], [-114.5128340002276, 32.81418199984044], [-114.51202999996347, 32.81483299965381], [-114.51188600002341, 32.81496099982604], [-114.51032699989896, 32.81648799978645], [-114.5102790002184, 32.81651600026209], [-114.50782899979119, 32.8173659998766], [-114.5072730001225, 32.81758900016438], [-114.5064139996068, 32.817932000188144], [-114.50161599975795, 32.82002899981985], [-114.50078100042998, 32.8203929998655], [-114.49854400043812, 32.82130200036665], [-114.49826999990341, 32.82143399980054], [-114.49682700012993, 32.82211900028966], [-114.49628399998171, 32.82232500028527], [-114.49558799967262, 32.82262800018025], [-114.49419299957971, 32.82323399988921], [-114.49411599958681, 32.82328699964225], [-114.4933339999623, 32.82396600031783], [-114.49326799984007, 32.82402200032087], [-114.49159300026297, 32.82544899995667], [-114.49145099997276, 32.825569999961125], [-114.49095499968021, 32.82600000002184], [-114.49069799976226, 32.826218999710775], [-114.49009100003995, 32.82673799998171], [-114.49006199972762, 32.826762999652054], [-114.48979700031207, 32.82698999977869], [-114.48956399978525, 32.827187999764604], [-114.48932299976084, 32.82739400008197], [-114.48924800031608, 32.82745800020055], [-114.48856299987764, 32.828044999702975], [-114.48820700022549, 32.82834399974552], [-114.48779499959853, 32.82869099970935], [-114.4827800000147, 32.83290400023678], [-114.48254599966297, 32.83310000037035], [-114.47589199958875, 32.83869299973565], [-114.46902499997752, 32.845102999746324], [-114.46897099955083, 32.84515500004095], [-114.46603099957719, 32.87060499989911], [-114.46571099991006, 32.873681000312956], [-114.46567800029808, 32.874074999674455], [-114.46561999967346, 32.8747909997764], [-114.46560399977992, 32.87504499975904], [-114.46558799988641, 32.8752949996551], [-114.4655240003123, 32.87675300033352], [-114.46550400022083, 32.87796299968984], [-114.46549900019795, 32.87812799962542], [-114.4654759997334, 32.87922899975533], [-114.46545999983988, 32.879427999737175], [-114.46537699999922, 32.881692000366016], [-114.46536100010567, 32.8823119996983], [-114.46531199970187, 32.883082999791974], [-114.46517199995978, 32.885294999723136], [-114.46480000041412, 32.888097999623646], [-114.46472300042122, 32.888429999682586], [-114.46471400020039, 32.88846400012739], [-114.46450999998589, 32.88948500010565], [-114.46428400003008, 32.890833000079155], [-114.4641719998771, 32.892454000095995], [-114.46377600004197, 32.89549399996688], [-114.46330700041192, 32.89911600035106], [-114.46330200038904, 32.899226000231856], [-114.46325800000811, 32.900148999745994], [-114.46312699958854, 32.90188399976757], [-114.4629829996485, 32.904166999820596], [-114.46288999976207, 32.90579699998076], [-114.46292900012014, 32.90794399981124], [-114.46318199984012, 32.909210999883626], [-114.46346399987245, 32.91040600004767], [-114.46364999964527, 32.91168200028482], [-114.46397199986053, 32.912440999835226], [-114.4644480000616, 32.91312799974017], [-114.46551599991638, 32.91409100011291], [-114.46679399983344, 32.9151850000711], [-114.46785300036568, 32.9160580003769], [-114.4693899998505, 32.91711900009884], [-114.47199500008843, 32.9192409998444], [-114.47371300022152, 32.92059400033361], [-114.47544899989796, 32.92217899997025], [-114.4766399997764, 32.92362800019358], [-114.47795200002862, 32.925706000376046], [-114.4784929996287, 32.927013999787945], [-114.47900499981478, 32.92829100017427], [-114.47957100042753, 32.930236999982206], [-114.47989299974448, 32.931174000252334], [-114.48034800002915, 32.932353000238976], [-114.48078300022235, 32.9336780003556], [-114.48091999959138, 32.935252000054774], [-114.48092499961425, 32.93627600026564], [-114.48073999966631, 32.93702700005322], [-114.48021999998262, 32.93792800033717], [-114.47936200019015, 32.93921699995632], [-114.47845599981878, 32.94055499998925], [-114.47731099997112, 32.9419800000864], [-114.47598399965027, 32.94334800019589], [-114.47490699957466, 32.944362000118865], [-114.47404200010949, 32.94514999998098], [-114.47326200013482, 32.94614000002065], [-114.47257800041959, 32.94708200015061], [-114.4716920001397, 32.948129000026384], [-114.47076800022498, 32.94942399986775], [-114.47008199996162, 32.95077800036078], [-114.46921300029851, 32.952454999766395], [-114.46853600025597, 32.95392200036917], [-114.46806099987984, 32.95526000022881], [-114.46762400003682, 32.956662999985184], [-114.46739899990592, 32.957912000089394], [-114.46733699998165, 32.95895400025742], [-114.46727400023245, 32.96017200021503], [-114.46726800038466, 32.96159100030989], [-114.46731000021747, 32.96293900031212], [-114.46731500024033, 32.96406000031783], [-114.46736700011888, 32.96538399995972], [-114.46769500018193, 32.96701499993963], [-114.46810899956041, 32.96887999996746], [-114.46837899989714, 32.97074499980908], [-114.46860499985296, 32.97164900029341], [-114.46899499984028, 32.97223899994463], [-114.46949000030793, 32.972877999945524], [-114.46994800006732, 32.97346899972647], [-114.47051100030704, 32.9738580001708], [-114.47176699958446, 32.97435899965795], [-114.47276400019244, 32.9746870000331], [-114.47436199977663, 32.97500500037333], [-114.47538899962352, 32.975156999899205], [-114.47626300020785, 32.97504800025086], [-114.47676299980003, 32.97490500008641], [-114.4778509997463, 32.9745480001883], [-114.47881400001907, 32.97417399964433], [-114.47992000040698, 32.97360300027447], [-114.48075800010798, 32.972979000322184], [-114.48116999983664, 32.97241899993499], [-114.48131499960161, 32.972063999916394], [-114.4818719999935, 32.9718709998276], [-114.48248600028683, 32.97175300002246], [-114.4834639997299, 32.97156999996813], [-114.48480600011938, 32.97133899976584], [-114.48621700010582, 32.97089200024263], [-114.48778999957565, 32.97022500003392], [-114.48862499980191, 32.96994600031015], [-114.48952600015042, 32.96981900012777], [-114.49012899967477, 32.969884000000626], [-114.490932000114, 32.970235000145465], [-114.49218400009178, 32.97102099979102], [-114.49293800012717, 32.97178099969671], [-114.49371800010188, 32.97312299989088], [-114.49421199984629, 32.974262000269434], [-114.4944670001144, 32.975157999929955], [-114.49475900019243, 32.976311999951115], [-114.49503299982884, 32.977426999776505], [-114.49542899966396, 32.97893699972056], [-114.4957120004195, 32.98007499973922], [-114.4959459998729, 32.98147299973228], [-114.49613300036897, 32.98278800033623], [-114.49649999989178, 32.984508000061524], [-114.4967979998176, 32.98653400007433], [-114.49693400026004, 32.988649000033014], [-114.49705200026082, 32.990205999657015], [-114.49731500002655, 32.99147299964316], [-114.49755100002811, 32.99254800000814], [-114.49803200025204, 32.994446000088196], [-114.49851099992786, 32.99698000026517], [-114.49940999972821, 33.00003999980348], [-114.49964300025503, 33.002088000370215], [-114.49979700024082, 33.003904999980726], [-114.5007820002549, 33.00631800035875], [-114.5012259997706, 33.00755600023589], [-114.50287000028385, 33.011153999691736], [-114.50465199999107, 33.014502000167276], [-114.5046820001283, 33.01455199973892], [-114.504696000372, 33.014578000228035], [-114.50491599958171, 33.014949000317756], [-114.50498099987902, 33.01506000031735], [-114.50612300025197, 33.016998000023946], [-114.50613800032059, 33.017006000243065], [-114.50636199972824, 33.01740300031846], [-114.50781700009563, 33.019508000201895], [-114.50792400022576, 33.01966199971973], [-114.50795600001281, 33.019707999768094], [-114.5113429998752, 33.02345499974607], [-114.51489999961693, 33.02652399996546], [-114.51619900034869, 33.02743700023938], [-114.5164539997185, 33.027616999871825], [-114.51663899966643, 33.0277460001104], [-114.516842000056, 33.02788599995128], [-114.51698799964588, 33.027986999886615], [-114.51789400001725, 33.028611999701546], [-114.52013000018422, 33.02998399992462], [-114.523578000146, 33.03096000027991], [-114.52755500001227, 33.03173099996881], [-114.53108300034, 33.03239300008222], [-114.53845899976426, 33.03342199990037], [-114.54313100011474, 33.03376000033663], [-114.54993300032696, 33.033823000323615], [-114.55318899976979, 33.03397400008511], [-114.55759699963131, 33.034899999875954], [-114.5608499995994, 33.03528500022024], [-114.56479999970152, 33.03507699976586], [-114.56919599986745, 33.036155999990115], [-114.57165299996734, 33.03662399986211], [-114.5751610002036, 33.03654100011762], [-114.57744900024909, 33.03564899983376], [-114.57760499988468, 33.03559800007986], [-114.57828699995008, 33.03537500035148], [-114.57905400040427, 33.034799999687365], [-114.57936999987346, 33.03456300015781], [-114.58140400037406, 33.03254500016841], [-114.58302899972244, 33.030149000230764], [-114.5847650002972, 33.028230000121965], [-114.58559799997532, 33.027747000298326], [-114.58579299996899, 33.027634000077555], [-114.5869820001976, 33.02694400012523], [-114.58807799964146, 33.02666300004087], [-114.58820300021324, 33.02663099965278], [-114.58977800023119, 33.0262279999847], [-114.59472500004296, 33.02584800028244], [-114.59588599978417, 33.02568799975914], [-114.59610900026522, 33.0256569999819], [-114.59809299963881, 33.02538399977229], [-114.5988249999329, 33.02539000030741], [-114.59887099996365, 33.02539099976889], [-114.6010140002442, 33.025410000079745], [-114.60122799960614, 33.025419999964186], [-114.60165500030169, 33.02543900026874], [-114.60198800038764, 33.025457000355345], [-114.60211700025907, 33.025464000346155], [-114.60254400005631, 33.025488999663295], [-114.60271300011071, 33.02549900029196], [-114.60334999997029, 33.02553599989678], [-114.60336900023687, 33.02554599976692], [-114.60628200044631, 33.025702999914685], [-114.61158400008534, 33.02622100005457], [-114.61878799998044, 33.02720200012409], [-114.62387000040977, 33.02872000004343], [-114.6257869998362, 33.02943500010535], [-114.6274160002808, 33.0303819997033], [-114.62829400016477, 33.03105000031002], [-114.62973199991539, 33.03254600030193], [-114.63134299991839, 33.03501999980188], [-114.63369700008613, 33.03823499981993], [-114.63383000015551, 33.03844599979594], [-114.63388700005694, 33.03853499964502], [-114.63419000000565, 33.039024000189926], [-114.63425699995278, 33.039106999854354], [-114.6358069998564, 33.041014999884354], [-114.63644299989105, 33.04179599997862], [-114.63781700006754, 33.04311999986039], [-114.63801399971105, 33.043309999949756], [-114.63871599986793, 33.04426000027319], [-114.63880799992943, 33.04438400024739], [-114.63955199991909, 33.04529000003269], [-114.64162099968148, 33.046893999843796], [-114.64482000012123, 33.04864400026406], [-114.64597900021258, 33.04890199997234], [-114.64704899971719, 33.04841599991026], [-114.64900100020202, 33.046761999862085], [-114.6509989998193, 33.044131000114724], [-114.65268400034044, 33.041148000231445], [-114.65270299970868, 33.0411139997598], [-114.65281099966371, 33.040771000225824], [-114.6531970003514, 33.040105000365934], [-114.65335600036006, 33.0398319997316], [-114.65503799960985, 33.03710599989934], [-114.6578269999708, 33.03382399968945], [-114.65983200015907, 33.03266400015696], [-114.66231699984803, 33.03267000019643], [-114.66506000017822, 33.03390600036919], [-114.66820900038923, 33.03600300001413], [-114.67080299985818, 33.03798300017147], [-114.67222399989036, 33.040172999815816], [-114.67365900016625, 33.041895999756754], [-114.67476200018113, 33.04530099990882], [-114.67482999995319, 33.04550700034736], [-114.67487199978598, 33.04581600010179], [-114.67504099984039, 33.04706499991959], [-114.67510299976465, 33.04752999992626], [-114.67511100016057, 33.04863799980654], [-114.67443400011805, 33.0542040002565], [-114.67429500020089, 33.057169000250255], [-114.6753029997812, 33.058443999752335], [-114.67651600029923, 33.059259999710775], [-114.67911399996613, 33.061965999950175], [-114.68075699975617, 33.06401900012995], [-114.6808990000464, 33.06418399992158], [-114.68124700020094, 33.06459099969125], [-114.6820969995975, 33.06554499982297], [-114.68234799966766, 33.065823000076186], [-114.68699099970581, 33.07096800007293], [-114.68911999974264, 33.076120999705886], [-114.68930700023874, 33.07917899988378], [-114.6885969996859, 33.08286900001683], [-114.68902000018353, 33.08403500008699], [-114.69254799961293, 33.085785999994194], [-114.69462800014429, 33.086226000037726], [-114.69713200009987, 33.08639399965143], [-114.70116500004264, 33.08636800003687], [-114.70473000018029, 33.087050999924365], [-114.70648799959805, 33.088160000058586], [-114.70781900011686, 33.091102000148005], [-114.70813299993623, 33.0940220000208], [-114.70789600010976, 33.097430999680995], [-114.70702800027154, 33.10178399991838], [-114.7061749996036, 33.10533399969524], [-114.703682000417, 33.11376800007516], [-114.69929600029678, 33.12503700032051], [-114.69782800040895, 33.12864999991008], [-114.69691399964164, 33.131119000202254], [-114.69485800029807, 33.13345999993842], [-114.69024600022205, 33.13772399976018], [-114.6874049999826, 33.14198300031675], [-114.68490699987481, 33.14782300023396], [-114.68275899957139, 33.15480800024763], [-114.67994499999443, 33.15905900017594], [-114.67934999996767, 33.16243299965893], [-114.68060799979324, 33.16715699984018], [-114.68088999982555, 33.16907400015203], [-114.68023700007248, 33.16963700029545], [-114.67984899973497, 33.171498999635745], [-114.67911499979105, 33.17460799998732], [-114.67908499965381, 33.1746510001622], [-114.67903299977529, 33.17473699969671], [-114.67785600014057, 33.17680300004425], [-114.67583000003586, 33.18151999986729], [-114.67535899985769, 33.185488000051045], [-114.67518899997837, 33.18817799989818], [-114.67567600005009, 33.190370000291715], [-114.67649100018488, 33.19335899998506], [-114.67666699991197, 33.194000999772456], [-114.67804899958611, 33.19907299998969], [-114.67816300028721, 33.19948799965686], [-114.67817699963261, 33.199577000331], [-114.67874900009316, 33.203448000124006], [-114.67767700004042, 33.20698499967707], [-114.67607199988522, 33.210835000314816], [-114.67542599980483, 33.21377899998155], [-114.67371500024277, 33.21924500001249], [-114.67362599965597, 33.22312099980958], [-114.6744790003239, 33.2255040001456], [-114.67809700016498, 33.23030000029297], [-114.68156600004315, 33.233758000121476], [-114.68273099998231, 33.23491799985164], [-114.68423999987806, 33.23747899983515], [-114.68748100015058, 33.24198100007385], [-114.68938300040669, 33.24518599968341], [-114.68942100004153, 33.245249999802574], [-114.68954099969213, 33.24642800022418], [-114.68820500004877, 33.24796499981286], [-114.68541499986293, 33.24905599970607], [-114.68325300021414, 33.25003399980436], [-114.68076000012923, 33.2522120001236], [-114.67766000032199, 33.25442599976648], [-114.67449100001947, 33.255597000014276], [-114.67292400039742, 33.257041999634545], [-114.67208800034625, 33.25849900017514], [-114.6724010003407, 33.2604689997352], [-114.67459499977656, 33.26545300010089], [-114.67703199978496, 33.270169000230624], [-114.68050700040921, 33.27357600017514], [-114.6843629999017, 33.276023000360375], [-114.68859900023406, 33.27786100018376], [-114.69444900004414, 33.27978500030904], [-114.69717499975755, 33.28047499971796], [-114.70287300013003, 33.281916000346385], [-114.71119699975844, 33.28334099972153], [-114.71787500012209, 33.28515600017681], [-114.72167000041352, 33.28698200006509], [-114.72325899977687, 33.28807899984858], [-114.72499899965129, 33.29109700028511], [-114.72820200028897, 33.296663999897305], [-114.73041699964124, 33.30071099968211], [-114.73122299955519, 33.302433000220375], [-114.73122199973027, 33.3040390000272], [-114.72990399963022, 33.30574499978524], [-114.72648400015588, 33.30827300005663], [-114.72466499974045, 33.310096999637395], [-114.72362299982495, 33.312109000176626], [-114.72275400016181, 33.312735999741705], [-114.72101500011229, 33.314068000105834], [-114.71860999989093, 33.31576100000329], [-114.71705599978935, 33.31666399995994], [-114.71302299984657, 33.31887999983184], [-114.71067899972459, 33.320454999946506], [-114.71062699984603, 33.3205000001964], [-114.70980099984062, 33.3211389998868], [-114.70787000017046, 33.32331600024141], [-114.70518600028987, 33.327709000070605], [-114.70248099959451, 33.33346600031625], [-114.7024429999597, 33.33354800021914], [-114.70236400031699, 33.3337110000898], [-114.70170900001578, 33.33522499973537], [-114.70136300040936, 33.336027999986314], [-114.70093800026193, 33.337014000141494], [-114.70010300003567, 33.341045000167526], [-114.69934999982516, 33.345692000257024], [-114.69912399986936, 33.349258000002585], [-114.6980350000982, 33.35244200036962], [-114.69816999981741, 33.35657499986104], [-114.6990560000973, 33.3611479996339], [-114.69987200005698, 33.362752999929384], [-114.70035599975566, 33.36370499984865], [-114.70195900026103, 33.36713400017026], [-114.70420100027577, 33.37123799972077], [-114.70557200007924, 33.37326100005031], [-114.70672199994978, 33.37503000021319], [-114.7069970003094, 33.375691999758146], [-114.70703499994421, 33.37578400010747], [-114.70734799993866, 33.37662699978815], [-114.70753700008457, 33.37756100031827], [-114.70748500020602, 33.37837500024746], [-114.70740300019027, 33.37859700033797], [-114.70735100031172, 33.378737999776746], [-114.70731699997653, 33.3788299999045], [-114.7070690002794, 33.37950600027143], [-114.70700900000496, 33.38063300017882], [-114.70702300024864, 33.381373999971785], [-114.70721300021947, 33.3821460000297], [-114.7073089995806, 33.382540000007964], [-114.7084069995726, 33.384141999812606], [-114.70892899980441, 33.384538000237505], [-114.70910299988168, 33.384670000228375], [-114.70920099979098, 33.384744000215115], [-114.71005000026094, 33.38538400014872], [-114.71034399998882, 33.38560499973938], [-114.71086700004555, 33.38603399990025], [-114.71088100028926, 33.38604599963301], [-114.71096699960466, 33.386115999791414], [-114.71103100007709, 33.386165999869995], [-114.71109499965118, 33.386215000069186], [-114.71222500032854, 33.38712700014394], [-114.71274400018731, 33.38755499970975], [-114.71319199990099, 33.387895000050115], [-114.71352199961385, 33.38818400034404], [-114.7136019999798, 33.388255999935524], [-114.7141729997171, 33.38895299973219], [-114.71561899986364, 33.39071800025421], [-114.71777700021282, 33.393094999801065], [-114.7180729995905, 33.39339600027547], [-114.71899800022845, 33.39455900031452], [-114.71918300017637, 33.39479100010357], [-114.71927500023787, 33.394909000017336], [-114.72046299974325, 33.396125000372365], [-114.72071100033867, 33.39637899987732], [-114.72123199984728, 33.39691099987748], [-114.72175699955382, 33.397503999864014], [-114.7219940002786, 33.39777399982372], [-114.72287299998747, 33.39877599997376], [-114.72424999963874, 33.40042000018151], [-114.72482999959688, 33.40153299975669], [-114.72514699978927, 33.402140999963116], [-114.72529199955423, 33.40234099997928], [-114.72553500012681, 33.404055000189544], [-114.7252820004068, 33.40504800019626], [-114.72382899968926, 33.406530999787684], [-114.72220099996782, 33.407384000354604], [-114.72202500024073, 33.40741999970378], [-114.72191200026283, 33.40744700033073], [-114.720837999662, 33.40770499964902], [-114.72064600004137, 33.407751000144565], [-114.7200650002583, 33.40789099993785], [-114.71769799967178, 33.40790500035469], [-114.7158189998802, 33.407690999949786], [-114.71340000031344, 33.40727099967598], [-114.7108779999162, 33.40725400033094], [-114.70852200009864, 33.407558000070274], [-114.70593600012732, 33.40791900001938], [-114.70448099975995, 33.40800300020993], [-114.70425499980415, 33.40802299970771], [-114.70283799996992, 33.40814700024043], [-114.70243999958664, 33.40824400022538], [-114.70178799965849, 33.408376999804474], [-114.70075900016178, 33.40891099976299], [-114.6996419999032, 33.40951199999985], [-114.69822400024408, 33.410445999648964], [-114.69770799986004, 33.41094199963003], [-114.69733999961402, 33.41141000008102], [-114.69723099983406, 33.41154699979843], [-114.69693299990821, 33.41192400004529], [-114.69686900033413, 33.412004999950355], [-114.69680499986171, 33.41208700008288], [-114.69667400034047, 33.412678000128814], [-114.69654299992088, 33.41380899997828], [-114.69650699993588, 33.41406300027477], [-114.69565800036423, 33.4151279996741], [-114.69337100014364, 33.41611400027463], [-114.69098699983869, 33.4168739999597], [-114.68794999978064, 33.417933999699045], [-114.6870529996301, 33.417917999677485], [-114.68481700036143, 33.41800499989969], [-114.67751899985667, 33.41874299980415], [-114.67686199990565, 33.41881599979418], [-114.67682599992062, 33.41882299987216], [-114.67549199992708, 33.41904900026584], [-114.67479200031836, 33.4191409997135], [-114.6736909999533, 33.41915700025952], [-114.67306999998726, 33.41887500032671], [-114.6697690003386, 33.41763099977434], [-114.66923000038832, 33.417433999694104], [-114.668536999554, 33.41718099975387], [-114.66743000023949, 33.41677699986505], [-114.66687700004553, 33.416541000040276], [-114.66661000008182, 33.41640399995261], [-114.66634300011812, 33.416266000143864], [-114.66614200027668, 33.41616400033988], [-114.66574100041868, 33.415960000372536], [-114.66506299965295, 33.41561600006255], [-114.66351100009949, 33.41513500004939], [-114.66220800006808, 33.41474700024879], [-114.66030900018502, 33.414012000218754], [-114.65906200023012, 33.41337100010735], [-114.65825399976804, 33.413020999786816], [-114.65780600005436, 33.41295800010424], [-114.65673499982655, 33.41281300025645], [-114.65426199983314, 33.41289900005055], [-114.65282800028048, 33.4129230003441], [-114.64954000015226, 33.413633000216834], [-114.64330200000465, 33.41674599964192], [-114.64101200030933, 33.418432000114315], [-114.63518300041564, 33.42272499963825], [-114.63326199989295, 33.42502400000799], [-114.63090299970233, 33.426754000087584], [-114.6296399998539, 33.428136999650036], [-114.62747900003, 33.43230700029062], [-114.62716699986048, 33.43343599998033], [-114.62712500002766, 33.43355399987502], [-114.6272110002414, 33.433552999819405], [-114.62746999980918, 33.43355099970814], [-114.62755699984781, 33.43355099970814], [-114.62779100019955, 33.43354900034651], [-114.62849599983115, 33.433546000179454], [-114.6287310000078, 33.43354500012374], [-114.62887599977276, 33.43354500012374], [-114.62931299961576, 33.43354500012374], [-114.62945900010395, 33.43354500012374], [-114.62948500004319, 33.43354500012374], [-114.62956399968591, 33.43354500012374], [-114.62959100034841, 33.43354500012374], [-114.62963400000612, 33.43354500012374], [-114.62976500042569, 33.43354500012374], [-114.62980899990829, 33.43354500012374], [-114.62994700000057, 33.43354500012374], [-114.63856100005722, 33.43352599981283], [-114.64720100005314, 33.43365099996688], [-114.64746299999395, 33.43356699984725], [-114.65606899965469, 33.43360000017165], [-114.65659400025957, 33.43360599975225], [-114.66647199998958, 33.43371100021676], [-114.66709899980336, 33.43371899989707], [-114.66717800034439, 33.43371899989707], [-114.6673909998814, 33.43371899989707], [-114.66936699975737, 33.433719999950775], [-114.67593600034108, 33.43372600027275], [-114.67812599957901, 33.43372899968391], [-114.68052099975463, 33.433730999791074], [-114.68770799993129, 33.43373900021921], [-114.69010399993185, 33.43374199962992], [-114.69018900032064, 33.43374199962992], [-114.69044500041369, 33.43374199962992], [-114.69053099972909, 33.43374299968336], [-114.69057099991207, 33.43374299968336], [-114.69064899972987, 33.43374299968336], [-114.69069200028589, 33.43374299968336], [-114.69073300029376, 33.43374299968336], [-114.69080000024093, 33.43374299968336], [-114.69091499986865, 33.43374199962992], [-114.69128200028977, 33.43374100032615], [-114.69146399986464, 33.43374000027269], [-114.69164799998765, 33.43374100032615], [-114.69421499969242, 33.43372600027275], [-114.70191599970501, 33.433686999672], [-114.70448400013298, 33.43367499977192], [-114.7055200002007, 33.433669000196154], [-114.70862800040386, 33.43365300007584], [-114.7096650002965, 33.433647999803355], [-114.7099630002223, 33.43363100037414], [-114.71085699999982, 33.43358199992813], [-114.71115599975055, 33.43356599979179], [-114.7123700000935, 33.43357300017975], [-114.71601499969877, 33.433593999841015], [-114.71703400004806, 33.43360000017165], [-114.71722999986665, 33.43360100022673], [-114.71733100014897, 33.43360100022673], [-114.71747000006614, 33.43360200028179], [-114.71748299958661, 33.43360200028179], [-114.71761099963315, 33.433603000336845], [-114.71763699957242, 33.43360200028179], [-114.71773899967965, 33.43360399964221], [-114.71784300033504, 33.43360799986225], [-114.71820599965987, 33.43360699980726], [-114.7202910002141, 33.433618999716685], [-114.72794799984577, 33.43366299987023], [-114.73050100020514, 33.43367799993452], [-114.73071999958995, 33.43367799993452], [-114.73137700043928, 33.433683000205285], [-114.73144299966322, 33.4336840002594], [-114.73151999965611, 33.4336840002594], [-114.73159699964901, 33.433683000205285], [-114.73167700001494, 33.433683000205285], [-114.73175700038087, 33.43368200015115], [-114.73177300027442, 33.43368100009701], [-114.73230300000382, 33.433686999672], [-114.73247999955584, 33.43368999983413], [-114.73265700000614, 33.433690999888164], [-114.73310300006999, 33.43369400005022], [-114.73336699966065, 33.43369500010421], [-114.73376000002104, 33.43369600015819], [-114.73407100036565, 33.43369700021215], [-114.73424799991767, 33.433698000266105], [-114.73516699980951, 33.43370000037393], [-114.73792400038337, 33.43370700000147], [-114.73884300027522, 33.433710000162954], [-114.73887000003941, 33.43370900010913], [-114.73895100023026, 33.43370900010913], [-114.73897899981937, 33.433710000162954], [-114.73901999982724, 33.43370900010913], [-114.73914299985087, 33.43370900010913], [-114.73918499968367, 33.43371100021676], [-114.73921399999598, 33.43370900010913], [-114.73930199985955, 33.43370900010913], [-114.73933199999676, 33.433710000162954], [-114.73982099971832, 33.43371100021676], [-114.74128799978125, 33.43371699978964], [-114.74177700040111, 33.43371899989707], [-114.74292800009654, 33.433722000058154], [-114.74330399984018, 33.433724000165476], [-114.74638299973104, 33.43378799982695], [-114.7475350001497, 33.43381399969936], [-114.74886999996814, 33.43378699977404], [-114.75079300014067, 33.43375000005705], [-114.75287699997166, 33.43374799995033], [-114.75421299961505, 33.43374799995033], [-114.75475599976325, 33.43374799995033], [-114.75508899984916, 33.433745999843545], [-114.75731900016837, 33.43374699989694], [-114.75771699965331, 33.433745999843545], [-114.75846599966584, 33.433745999843545], [-114.75859399971235, 33.433745999843545], [-114.76017499957813, 33.43374299968336], [-114.76201599973486, 33.43374299968336], [-114.76276200027267, 33.43374299968336], [-114.76491999972352, 33.43374000027269], [-114.7665020003125, 33.43374100032615], [-114.76695699969885, 33.43374000027269], [-114.76832099982964, 33.43373900021921], [-114.76877699993919, 33.43373900021921], [-114.77001700022142, 33.43373800016573], [-114.77044999986644, 33.43373800016573], [-114.7737890000483, 33.433735000005214], [-114.77471399978792, 33.433735000005214], [-114.77817599999341, 33.433733999951684], [-114.77959500037578, 33.43373299989813], [-114.78064399996398, 33.43373199984458], [-114.78342999995185, 33.433730999791074], [-114.7868639996699, 33.43372899968391], [-114.78882600020047, 33.433727999630314], [-114.78914599986763, 33.433727999630314], [-114.78979799979578, 33.43372700032637], [-114.79143800011109, 33.43372600027275], [-114.7938390001345, 33.43372500021912], [-114.79542300037329, 33.43372300011182], [-114.80017699984123, 33.433722000058154], [-114.80176199990494, 33.433722000058154], [-114.8039510002162, 33.433721000004475], [-114.80450400041019, 33.433719999950775], [-114.81273099995421, 33.4337149996822], [-114.8154740002844, 33.4337149996822], [-114.82260700003441, 33.43371100021676], [-114.82833499964578, 33.43370900010913], [-114.83086899973857, 33.43370800005531], [-114.8308650004389, 33.43331699986684], [-114.83085600021809, 33.43234499994268], [-114.83083299975354, 33.430094000142425], [-114.83280600015479, 33.430093000046945], [-114.83344600038738, 33.43009199995144], [-114.83554000026412, 33.43009099985594], [-114.83807699983164, 33.43008899966489], [-114.84035900002937, 33.4300870002235], [-114.84749299960427, 33.43008199974555], [-114.84781200034483, 33.43008099964998], [-114.84877200024455, 33.43008099964998], [-114.8490919999117, 33.43008099964998], [-114.84932600026343, 33.43008299984116], [-114.85068100017338, 33.430093000046945], [-114.86175300015485, 33.430175999686014], [-114.86531099972147, 33.43020199989086], [-114.87146400037858, 33.43024899980881], [-114.87579699989702, 33.43028099980219], [-114.87717100007352, 33.43026800008745], [-114.88291100027878, 33.4302140002711], [-114.88381699975182, 33.430205000173466], [-114.88714699971283, 33.43018399969222], [-114.89304000007894, 33.4301490001283], [-114.89762500039078, 33.43012099971725], [-114.89775400026221, 33.430120000371794], [-114.89906499979122, 33.430112000359735], [-114.90297499971035, 33.43008899966489], [-114.90392000043978, 33.43008199974555], [-114.91568199998424, 33.43000100020972], [-114.9252869999028, 33.4299349998101], [-114.92978400035106, 33.42990399978677], [-114.92995300040548, 33.42990200034112], [-114.93184600044077, 33.42988799972206], [-114.93482999989702, 33.42986499971761], [-114.95052999984803, 33.42976099994716], [-114.95414699986421, 33.42973599970986], [-114.96462100034418, 33.42966299990531], [-114.97695500034916, 33.429579999775626], [-114.97803599972443, 33.4295719997138], [-115.00080099965338, 33.42941999989788], [-115.00080099965338, 33.42940200028672], [-115.01825899992046, 33.42892499986085], [-115.03005499980009, 33.428605999757266], [-115.03167099982595, 33.42859299979167], [-115.03494300006064, 33.42858699986453], [-115.04475899986635, 33.42857299978307], [-115.04681199973521, 33.42857000019373], [-115.04803199992595, 33.428567999967626], [-115.04851700034786, 33.428584999638815], [-115.04869499972476, 33.428584999638815], [-115.04903399965848, 33.428584999638815], [-115.04958500020261, 33.4286119996831], [-115.05068400001952, 33.42861800035817], [-115.05134799964324, 33.428623000170745], [-115.05262499973539, 33.42860699986989], [-115.05562900018145, 33.42857399989607], [-115.0563370001861, 33.42857399989607], [-115.0564569998367, 33.428584999638815], [-115.05680900018922, 33.42861800035817], [-115.05773300010395, 33.4286290000954], [-115.05882500024816, 33.428523000116265], [-115.06210400015553, 33.42820699963673], [-115.06319700012466, 33.42810300012885], [-115.06386900014432, 33.42810500036567], [-115.06523099972692, 33.42811199969473], [-115.06588500020322, 33.42811399993133], [-115.0665580000478, 33.42811799965463], [-115.07160799979172, 33.428140000004085], [-115.08675700009691, 33.42820699963673], [-115.09180799966572, 33.428230000080575], [-115.0937350000362, 33.42823800026609], [-115.09951600024934, 33.42826400030176], [-115.10144400044472, 33.42827299985094], [-115.10166200000462, 33.42827399996739], [-115.10666300024305, 33.428433000343624], [-115.12231999963802, 33.42893400009116], [-115.12580600013297, 33.42904600021385], [-115.12754000015957, 33.42903599988749], [-115.1277460000239, 33.42903499977981], [-115.13342500012979, 33.428989000062366], [-115.1407069998427, 33.42894900022307], [-115.14548499960009, 33.42892200028367], [-115.14671499983655, 33.4289150002702], [-115.15106400014683, 33.42889099989854], [-115.16411299982916, 33.42882000035337], [-115.16825299990207, 33.42879800017627], [-115.16846299996436, 33.428797000065856], [-115.17110199963913, 33.42878199990768], [-115.17902100010993, 33.42873899963976], [-115.18166099960962, 33.42872500033254], [-115.18181600031863, 33.42872400022129], [-115.18228099975072, 33.42872099988743], [-115.18243700028465, 33.42872099988743], [-115.18353299972851, 33.42871399985783], [-115.18682199968163, 33.42869600010026], [-115.1879189998487, 33.42869100029195], [-115.19816700037288, 33.42863600013186], [-115.20489800044, 33.4286119996831], [-115.22248100038054, 33.42847600001341], [-115.22250599959656, 33.428490000110514], [-115.22324399973847, 33.42847000007819], [-115.22363500044902, 33.42850099986391], [-115.23165399958063, 33.42846699973556], [-115.23255199955607, 33.42847600001341], [-115.23274099970195, 33.42847700012749], [-115.23507700032636, 33.42849899963627], [-115.23683499974412, 33.42851499995703], [-115.24133999969, 33.428556000109474], [-115.24327200008335, 33.42848599965457], [-115.24906900018998, 33.42827899979972], [-115.25081099971423, 33.4282170000586], [-115.25100200040825, 33.4282170000586], [-115.25167100005486, 33.42821499982443], [-115.25325899959329, 33.428213000339866], [-115.25367899971786, 33.4282120002227], [-115.25434900008769, 33.42821100010553], [-115.25551200037701, 33.42820899987115], [-115.25631699956772, 33.42820699963673], [-115.2564069999794, 33.42820699963673], [-115.2584759997418, 33.428202999917474], [-115.2708590001506, 33.42818199970151], [-115.27498699962963, 33.42817599974602], [-115.28012000011253, 33.42816700018678], [-115.29552100031279, 33.42814300035801], [-115.30065499972233, 33.42813500016369], [-115.30356399973385, 33.42813000032306], [-115.3122919995933, 33.42811600016785], [-115.31520200032807, 33.42811199969473], [-115.3154600000709, 33.428111000326126], [-115.3162340001978, 33.42810900008944], [-115.31649299976559, 33.428110000207795], [-115.31750399971892, 33.42810799997109], [-115.32053999995206, 33.42810300012885], [-115.32155199973035, 33.42810200001042], [-115.32579599956031, 33.428093999812376], [-115.33852899977347, 33.428073999688806], [-115.34277400032668, 33.42806799972579], [-115.34436100004022, 33.428064000000134], [-115.34912399972896, 33.42805699991748], [-115.35071200016573, 33.42805499967955], [-115.35367399988068, 33.428049999834315], [-115.36255999992392, 33.42803599966619], [-115.36521399966732, 33.428031999939115], [-115.36539100011763, 33.42802300036495], [-115.3655230003621, 33.428031999939115], [-115.36675600007332, 33.42802999970061], [-115.36882599966061, 33.428049999834315], [-115.3758150003689, 33.42812100000933], [-115.3787379997258, 33.42812499973237], [-115.38204299957246, 33.42813099969144], [-115.38322400030341, 33.42813299992761], [-115.3867690003496, 33.428140000004085], [-115.38795100000719, 33.42814399972624], [-115.39223800039316, 33.42815099980187], [-115.40509899975454, 33.4281779999811], [-115.40938699996543, 33.42818700028892], [-115.41019600025244, 33.42818799965665], [-115.41262300021512, 33.42819300024371], [-115.4134319996038, 33.42819599984608], [-115.41380800024574, 33.4282019998002], [-115.41493600037496, 33.42821999966016], [-115.41531299994352, 33.42822600036238], [-115.41590799997026, 33.428234999915496], [-115.41628299988899, 33.42824199998374], [-115.41769399987544, 33.4282459997012], [-115.41828999972711, 33.428249000051466], [-115.41988800020962, 33.4282539998853], [-115.42468600005847, 33.42826900013472], [-115.42628500036585, 33.42827399996739], [-115.42662299957635, 33.428275000083836], [-115.42832499981594, 33.42827999991611], [-115.43444699961258, 33.42829899987605], [-115.43648799978588, 33.428305999939184], [-115.43666500023622, 33.428305999939184], [-115.44204499969302, 33.42832200029553], [-115.45871799996253, 33.428373000193425], [-115.46427599969459, 33.42839100001792], [-115.46461700017643, 33.42839200013302], [-115.46478799988066, 33.42839200013302], [-115.46632400043887, 33.42839599984356], [-115.46683599972665, 33.428399000188584], [-115.46750500027157, 33.428401999783844], [-115.46750500027157, 33.42833400018602], [-115.46750600009646, 33.426992000155174], [-115.46836800008693, 33.426986000117374], [-115.46910399968066, 33.42698399985482], [-115.46930600024535, 33.4269829997235], [-115.49798600028171, 33.4268830000288], [-115.50529800013187, 33.42687099993777], [-115.50661399968376, 33.4268689996725], [-115.50889500005655, 33.42687200007037], [-115.51164000003658, 33.42687599985091], [-115.5190990001998, 33.42687699998346], [-115.52364900035153, 33.42687599985091], [-115.5258799995973, 33.426878000116005], [-115.53729999973332, 33.42687900024853], [-115.54185099970996, 33.426880999763824], [-115.54689499960612, 33.426880999763824], [-115.56202800001775, 33.426884000161266], [-115.56707299973883, 33.42688500029373], [-115.56735200029638, 33.42688500029373], [-115.56818800034756, 33.42688500029373], [-115.56846799983174, 33.42688500029373], [-115.57117699982673, 33.42688500029373], [-115.5736049996143, 33.42688599967644], [-115.58901900023335, 33.42688900007373], [-115.59415699984083, 33.42689000020612], [-115.59567400013249, 33.42688599967644], [-115.60022599993404, 33.42687599985091], [-115.60174400005059, 33.4268740003355], [-115.60307800004414, 33.426873000202974], [-115.60708199967462, 33.42687200007037], [-115.60841700039137, 33.42687200007037], [-115.60965500012546, 33.426873000202974], [-115.61705800021224, 33.4269800000792], [-115.62582200005669, 33.42710800030442], [-115.64298300022286, 33.42718900029084], [-115.6516249998686, 33.42723000031994], [-115.65275200017291, 33.427235000212455], [-115.65613499983738, 33.427249999888296], [-115.65726299996659, 33.4272559999078], [-115.66114000027376, 33.42727299983594], [-115.66245400017581, 33.427279999981806], [-115.67277200012188, 33.427328000109945], [-115.67665000025397, 33.427347000278274], [-115.67682299960802, 33.42734600015113], [-115.67721199977044, 33.427349999909886], [-115.67734499983982, 33.42734899978277], [-115.67736999995418, 33.42735100003697], [-115.67751899991711, 33.427352000164056], [-115.67761199980352, 33.42735300029112], [-115.67770399986503, 33.42735399966844], [-115.6785979996425, 33.42735999968081], [-115.68183600044033, 33.427388000232746], [-115.68291599999067, 33.427396999872755], [-115.68353399958363, 33.42735499979549], [-115.68538899998408, 33.42723000031994], [-115.68600800030029, 33.42718900029084], [-115.68659699958094, 33.427183000266645], [-115.68836400011786, 33.42717299972565], [-115.68895400012171, 33.42717000008792], [-115.68925600024552, 33.42716799982955], [-115.68957199971469, 33.42716500019165], [-115.6910949998541, 33.42715599977792], [-115.69142799994005, 33.42715200001024], [-115.69204700025625, 33.42714999975146], [-115.69209699958665, 33.42714900037178], [-115.69224999974753, 33.42714800024236], [-115.69230099980116, 33.42714800024236], [-115.69311699976086, 33.42714200021534], [-115.69556600036314, 33.42712699977116], [-115.69562800028741, 33.42712699977116], [-115.69592000036549, 33.42712500026153], [-115.69638300014776, 33.42712199987242], [-115.69640999991192, 33.42712199987242], [-115.69705900036536, 33.427103999784784], [-115.69815099961126, 33.42707900028163], [-115.69855700039044, 33.42706899972863], [-115.69867700004103, 33.42706600008732], [-115.69908799994477, 33.42705500015203], [-115.69976499998727, 33.42703900031188], [-115.6997959999494, 33.4270380001812], [-115.69988999966075, 33.4270380001812], [-115.69992200034612, 33.4270380001812], [-115.70067200018357, 33.42702999988508], [-115.70166800006832, 33.426997000061405], [-115.70170200040351, 33.42699599993023], [-115.7070450000504, 33.42696900013302], [-115.70882699975759, 33.42696199996212], [-115.71041400036947, 33.42695399965894], [-115.71517700005818, 33.42693199975864], [-115.71676499959663, 33.426925000334435], [-115.71714999956112, 33.42692300007043], [-115.71722999992707, 33.42692300007043], [-115.71830799982756, 33.42692699984867], [-115.71869399961693, 33.42692900011259], [-115.72089499962381, 33.42693699966833], [-115.72750000019252, 33.42696300009368], [-115.72970200002432, 33.42697299990913], [-115.73370099963192, 33.426988999761456], [-115.74569800025132, 33.4270380001812], [-115.74969699985893, 33.42705500015203], [-115.75082599981305, 33.42695800018549], [-115.75286899963616, 33.42695800018549], [-115.76239900010994, 33.4269659997385], [-115.76557599991007, 33.4269700002645], [-115.76814799963768, 33.426971999777685], [-115.77586700009195, 33.42697799981646], [-115.77843999964448, 33.42698100021056], [-115.78222999991301, 33.42698399985482], [-115.82388699966168, 33.42701699968338], [-115.83066299993466, 33.427032000146575], [-115.83071099961523, 33.42703599991979], [-115.83153900016882, 33.427044000215396], [-115.83794100034795, 33.42705099963001], [-115.83884400034627, 33.42705199976054], [-115.84588599985969, 33.426940000063844], [-115.87469200029275, 33.42648099982392], [-115.87582999956939, 33.42646300035305], [-115.8768570003146, 33.42646300035305], [-115.87883700038853, 33.426463999740676], [-115.89088699981308, 33.42646899967727], [-115.8946679998608, 33.42646999981451], [-115.89844800008358, 33.42647200008896], [-115.90512200024926, 33.42647700002514], [-115.92514700022112, 33.42649299996888], [-115.93182200021174, 33.426499000040764], [-115.93183599955711, 33.426499000040764], [-115.93187900011314, 33.426499000040764], [-115.93189400018174, 33.426499000040764], [-115.93653999969463, 33.42650199970168], [-115.94097699986845, 33.426503999975374], [-115.94118500028092, 33.42650500011223], [-115.94472799977895, 33.426506999636125], [-115.94827200000017, 33.42650899990972], [-115.95105200014028, 33.42651100018321], [-115.95383099955714, 33.426512000319974], [-115.9638320002091, 33.4265179996408], [-115.96823000002487, 33.42652100005079], [-115.97383299996275, 33.42652499984756], [-115.97557399966206, 33.42652599998415], [-115.97731400043479, 33.42652700012074], [-115.98072499968833, 33.42652899964414], [-115.98153399997534, 33.42652899964414], [-115.98413599984019, 33.42653099991723], [-115.98823900010316, 33.42653300019022], [-115.99041099979772, 33.42653400032672], [-115.99794000028116, 33.426268999738205], [-116.0003210002131, 33.42626499992966], [-116.00226799977675, 33.42626200026055], [-116.00464899970865, 33.426257999701924], [-116.00605300002242, 33.426256000172295], [-116.00659600017062, 33.42625500003258], [-116.00751099986452, 33.42625299975318], [-116.00808199960183, 33.426252000363135], [-116.00897600027763, 33.42625100022344], [-116.00967599988637, 33.42625000008367], [-116.01092299984127, 33.42624799980411], [-116.01330399977319, 33.42624399999458], [-116.01525100023517, 33.42624000018487], [-116.02642199995083, 33.42620499978037], [-116.03277100042652, 33.42616799983003], [-116.03547600022354, 33.42619300034529], [-116.04141700027023, 33.4262140002927], [-116.04393299992134, 33.426129999722825], [-116.04822399960699, 33.42605300006617], [-116.05017299971877, 33.42606000031043], [-116.0526259996207, 33.42606900008807], [-116.05941600013739, 33.42611599999477], [-116.0596010000853, 33.4260390003257], [-116.05975099987312, 33.4259779998773], [-116.0599679996081, 33.4259779998773], [-116.06118199995107, 33.42597500019829], [-116.06545099989538, 33.42597000023319], [-116.06589699995922, 33.42596900009019], [-116.06723900034872, 33.425965999661166], [-116.06790600034546, 33.42596400012479], [-116.06846200001418, 33.42596400012479], [-116.06865600018293, 33.42596500026786], [-116.07021600013228, 33.42596199983865], [-116.07489699980525, 33.425955999729645], [-116.07645799957952, 33.42595500033623], [-116.07688799974984, 33.42595300004986], [-116.07817900008567, 33.42595000036999], [-116.07861000008089, 33.42594900022675], [-116.07991999978502, 33.42594499965376], [-116.08385300016867, 33.42593499971983], [-116.08489500008419, 33.42593300018274], [-116.08493299971902, 33.4192709999405], [-116.08494799978762, 33.416851000256244], [-116.08494799978762, 33.41629399977506], [-116.0849610002064, 33.41438699971059], [-116.08497700009994, 33.41172400034485], [-116.0849799995747, 33.404896999828125], [-116.08496600022927, 33.397208000238706], [-116.08497799992486, 33.397165999809836], [-116.08499399981838, 33.39240100030403], [-116.08500100038941, 33.39027899966722], [-116.08499899984125, 33.39021399963449], [-116.08502099958257, 33.38274100001555], [-116.08510299959833, 33.375675000237386], [-116.08511799966692, 33.37442500011726], [-116.08512100003999, 33.37423200030113], [-116.08516600024585, 33.3704150002238], [-116.08517499956837, 33.369768000126115], [-116.08518899981206, 33.36850199977546], [-116.08518600033732, 33.361554000307216], [-116.08518700016224, 33.36047099975572], [-116.08518100031442, 33.35390000037229], [-116.08518100031442, 33.35355899972379], [-116.08519600038305, 33.35040500006237], [-116.08519100036018, 33.348429000267416], [-116.08518299996426, 33.34787200029879], [-116.08520700025372, 33.34066099987655], [-116.08520899990353, 33.33921600013828], [-116.08493100006919, 33.32724200000002], [-116.08464300018909, 33.31748199997176], [-116.08448400018045, 33.31259599993054], [-116.08439899979163, 33.30984099978535], [-116.0841929999273, 33.30465300008495], [-116.08417600020886, 33.30445400001757], [-116.08412099995729, 33.303131999730006], [-116.08401300000226, 33.30062299991873], [-116.08389300035167, 33.29768499975619], [-116.0837920000693, 33.29528000025207], [-116.08357100013639, 33.28947799974642], [-116.08351800043293, 33.28813700022612], [-116.08339399968605, 33.2848010001153], [-116.08330199962455, 33.28246700036024], [-116.0832339998525, 33.2806749999746], [-116.08320299989036, 33.27978700020201], [-116.08319899969239, 33.27964599974956], [-116.08300500042195, 33.27382799974515], [-116.0828830002232, 33.270068999767034], [-116.08283899984228, 33.268736999765075], [-116.08275500017669, 33.26613500003937], [-116.08259899964276, 33.261511999796824], [-116.08256199983283, 33.26047899990947], [-116.08236500018936, 33.25482099967254], [-116.08224999966329, 33.25128000015523], [-116.08224399981552, 33.251080000185254], [-116.0821300000127, 33.24364800007519], [-116.0820940000277, 33.24131200031347], [-116.08209200037788, 33.24114099971153], [-116.08207300011131, 33.24005699962632], [-116.08200699998906, 33.236298999648845], [-116.08198600007266, 33.235047000133264], [-116.08196400033134, 33.23382800017227], [-116.08190099968384, 33.23017099977134], [-116.08187999976745, 33.22895300037261], [-116.08187800011763, 33.22884900021168], [-116.08185100035344, 33.22729999987497], [-116.08174800042127, 33.221373000177145], [-116.08144100027462, 33.20358799981972], [-116.08133699961925, 33.19875200010794], [-116.0811709999379, 33.191057000250595], [-116.081165999915, 33.190836999643246], [-116.08112699955694, 33.184078999883035], [-116.08110300016584, 33.17924100031519], [-116.08108100042452, 33.176981000037074], [-116.08107999970129, 33.176232000038965], [-116.08106399980775, 33.172529999983894], [-116.08104799991425, 33.16887699974064], [-116.08101899960191, 33.16172099966482], [-116.08100299970837, 33.16080000027673], [-116.08100600008146, 33.16041100034688], [-116.08094800035511, 33.1545120001425], [-116.08090999982198, 33.150542999962916], [-116.08087999968474, 33.1474179998633], [-116.08091099964687, 33.14014899963754], [-116.08094099978412, 33.132926000131924], [-116.08094300033224, 33.13261100018924], [-116.08094099978412, 33.1321890000038], [-116.0809399999592, 33.132024999690955], [-116.0809399999592, 33.13197300037179], [-116.08094599980699, 33.13123299972057], [-116.08095099982985, 33.13051100002042], [-116.0809399999592, 33.12855599970362], [-116.08093400011143, 33.12398199982978], [-116.08091700039299, 33.11821100029686], [-116.08096699972337, 33.111062999772024], [-116.08101600012719, 33.10386399997622], [-116.08102600017294, 33.10247900004167], [-116.08103299984562, 33.10012700017304], [-116.08104100024154, 33.09833699976533], [-116.08104600026441, 33.096957000047645], [-116.08104600026441, 33.096851000179996], [-116.08104600026441, 33.0967179997109], [-116.08104600026441, 33.096532999810194], [-116.08104999956404, 33.09642800034418], [-116.08106399980775, 33.096194000137], [-116.08106499963267, 33.09612299982232], [-116.08108499972415, 33.09520999978135], [-116.08109200029517, 33.094908000081894], [-116.08109399994497, 33.09475899982558], [-116.08109300012008, 33.09359799992605], [-116.08109200029517, 33.08967499990039], [-116.08109300012008, 33.0883840003159], [-116.08109200029517, 33.08800700013608], [-116.08111900005933, 33.08475599988788], [-116.08113900015084, 33.082114999678545], [-116.08120400044815, 33.074864000125885], [-116.0843750004005, 33.074857999950076], [-116.08970600035182, 33.07485199977386], [-116.09149999975459, 33.07484999971505], [-116.0940210003269, 33.07484600035], [-116.09833600030201, 33.07483899976705], [-116.10049200010302, 33.0748360000547], [-116.10264700007912, 33.07483300034231], [-116.10333800036533, 33.07483199993631], [-116.10332800031962, 33.07348499977022], [-116.10331700044895, 33.07200600028683], [-116.10331800027384, 33.07154800017033], [-116.10330800022811, 33.07081500035481], [-116.10327499971783, 33.06831800012859], [-116.10326100037248, 33.06614400008858], [-116.10325200015161, 33.06471499964285], [-116.10324399975569, 33.06335999991204], [-116.10324100028097, 33.0626229997287], [-116.1032289996871, 33.059707000204305], [-116.10318699985432, 33.04873600020004], [-116.10317599998366, 33.041389000252586], [-116.10317400033381, 33.0406359999793], [-116.10316400028807, 33.03722499975264], [-116.10315199969418, 33.03449799972423], [-116.10315199969418, 33.034256999679364], [-116.10310999986139, 33.02415399969645], [-116.10309700034094, 33.02105399992273], [-116.10308700029518, 33.01864899982476], [-116.1030670002037, 33.013589000006554], [-116.10303399969344, 33.005198000140304], [-116.10302799984565, 33.00160000030901], [-116.10303899971628, 32.99666199996812], [-116.10305299996001, 32.99139100018389], [-116.10305600033304, 32.98908599985168], [-116.1030749997013, 32.977847000132414], [-116.10307899989925, 32.97467400031712], [-116.10307899989925, 32.97344299993407], [-116.10308200027231, 32.973260000366864], [-116.10310300018871, 32.9599480002698], [-116.10311300023444, 32.9549739996726], [-116.10311499988428, 32.95268699987939], [-116.10312800030307, 32.94715299999048], [-116.10314300037167, 32.93869000002244], [-116.10313199960271, 32.93792100018796], [-116.10314599984642, 32.93527499983699], [-116.10315099986929, 32.93070000030685], [-116.10316199973994, 32.923086999744264], [-116.1031860000294, 32.9087130000173], [-116.10319400042532, 32.90411400010942], [-116.10319400042532, 32.903702000034876], [-116.1034119999852, 32.89727699993786], [-116.10343399972652, 32.89670500005585], [-116.10370099969019, 32.88896900020551], [-116.10359799975802, 32.88672599968409], [-116.10335500008378, 32.881412999704104], [-116.10322399966421, 32.87891499970548], [-116.10319100005223, 32.878281999690564], [-116.10313999999863, 32.877323000005504], [-116.10301299977701, 32.874878000054366], [-116.10293800033227, 32.87344800009836], [-116.1028849997305, 32.87158899969926], [-116.10288899992848, 32.87028800035896], [-116.10284200007278, 32.86877499981485], [-116.10293199958616, 32.86473800020488], [-116.10305700015793, 32.85911099983705], [-116.10307700024944, 32.858378000321096], [-116.10313499997577, 32.85577000017198], [-116.1033199999237, 32.84725399980511], [-116.10340500031249, 32.8433890001241], [-116.10342600022891, 32.842751000025295], [-116.10345399981799, 32.84187200027751], [-116.10347499973439, 32.837862999623965], [-116.10348899997807, 32.83445899982109], [-116.10348999980299, 32.834216999716006], [-116.10348599960504, 32.833917999823], [-116.10349099962792, 32.83134700030105], [-116.10354400022966, 32.82162300005538], [-116.10354699970442, 32.82076400027909], [-116.10354800042764, 32.820205999802255], [-116.10357799966656, 32.815868999718106], [-116.10358400041265, 32.81441500016627], [-116.10350300022179, 32.80834800013809], [-116.10351099971939, 32.805317999995296], [-116.10350900006958, 32.805161000324205], [-116.10351099971939, 32.80441099996396], [-116.10348700032829, 32.802834000175885], [-116.10347399990947, 32.8008409999058], [-116.10346200021391, 32.79951600016261], [-116.10349499982587, 32.79877700010673], [-116.10352300031329, 32.798134000114594], [-116.10341600018315, 32.79193600020141], [-116.10341000033536, 32.7916180000294], [-116.10340399958928, 32.791467999966784], [-116.10338199984795, 32.790864000064204], [-116.1033760000002, 32.79075900021398], [-116.10337500017528, 32.7905840001882], [-116.10337199980222, 32.790113999924884], [-116.1033709999773, 32.78975100032888], [-116.10337199980222, 32.789475000175095], [-116.10328499976359, 32.784845000211426], [-116.10326999969497, 32.78376200000084], [-116.10328200028884, 32.77805099996707], [-116.10328700031172, 32.777531000121925], [-116.10328800013664, 32.77699500021507], [-116.10328899996156, 32.77678900014733], [-116.10330999987795, 32.77006399992293], [-116.10332099974862, 32.76908799963167], [-116.10327300006803, 32.7629780002022], [-116.10326800004516, 32.76249600018044], [-116.10323500043319, 32.75762600030732], [-116.10322299983932, 32.75546999978517], [-116.10321299979356, 32.75480200004736], [-116.10320899959561, 32.75452699978054], [-116.10319699990005, 32.753366000319005], [-116.1031369996256, 32.74844699982061], [-116.1030460002873, 32.74098200010386], [-116.10304700011223, 32.74008899983644], [-116.10304200008936, 32.73867200011362], [-116.10302199999785, 32.73387799963119], [-116.10301699997498, 32.73281400018272], [-116.10300899957906, 32.731335999957125], [-116.1029890003859, 32.72635300037764], [-116.10558399967972, 32.726346999970936], [-116.10559899974835, 32.722614999780376], [-116.10560299994631, 32.72155400003736], [-116.10560499959615, 32.721158000138395], [-116.10562100038797, 32.717651000135646], [-116.10562800006068, 32.715733999646496], [-116.10562999971049, 32.7154420000359], [-116.10564700032724, 32.711542000171555], [-116.10564700032724, 32.710829999634456], [-116.10564899997708, 32.70397499989922], [-116.1056520003501, 32.69813900026114], [-116.10565099962689, 32.69697200022733], [-116.10568800033514, 32.690154000304254], [-116.10569500000781, 32.68887400008534], [-116.10571599992421, 32.6848060000906], [-116.10572599996998, 32.68288400014042], [-116.10576100013006, 32.677831000014656], [-116.10576799980277, 32.676850000251406], [-116.10577299982563, 32.676061000012744], [-116.10577399965055, 32.67545399976873], [-116.10577100017579, 32.67478200007564], [-116.1057789996734, 32.67365099975493], [-116.10578899971914, 32.67349299967408], [-116.10578899971914, 32.67309499965817], [-116.10578899971914, 32.67177100003861], [-116.10579000044237, 32.671563999784325], [-116.10579000044237, 32.67149500034913], [-116.1057920000922, 32.668943999830276], [-116.1057920000922, 32.66871899984265], [-116.10579399974203, 32.666605999855314], [-116.10579999958979, 32.66488399982993], [-116.10580100031304, 32.664820000031796], [-116.10580200013796, 32.662959999725075], [-116.10580799998571, 32.660867000101966], [-116.10580700016082, 32.65586199993383], [-116.10580700016082, 32.65366599994305], [-116.10581200018369, 32.65166699989938], [-116.10580600033593, 32.65036099964279], [-116.10580700016082, 32.64805400023235], [-116.10583700029807, 32.64779199982431], [-116.10585400001648, 32.64764099975435], [-116.10585300019156, 32.64750899985502], [-116.10585300019156, 32.64715800037809], [-116.10583999977277, 32.64712100007714], [-116.10580299996285, 32.64701600028451], [-116.10580299996285, 32.646957000296496], [-116.10580299996285, 32.646768999882845], [-116.10580299996285, 32.646664999629046], [-116.10580200013796, 32.64651000010999], [-116.10579299991711, 32.64541100021216], [-116.1057920000922, 32.64535799972227], [-116.1057920000922, 32.645275000176376], [-116.10579100026729, 32.64524399966099], [-116.10577399965055, 32.64475099970694], [-116.10576899962766, 32.64458700011868], [-116.10576799980277, 32.64455000026683], [-116.10576600015293, 32.64449300011761], [-116.10576899962766, 32.64407299996829], [-116.10577700002358, 32.64316799964257], [-116.10576500032803, 32.64152899978909], [-116.10576399960479, 32.64135300020723], [-116.10574299968842, 32.639104999811394], [-116.1058690000851, 32.63387500029444], [-116.10590099987215, 32.63197499991361], [-116.10594500025307, 32.62685799973412], [-116.10596699999438, 32.62502199974602], [-116.10600899982718, 32.624441000124264], [-116.10603700031457, 32.62409499967767], [-116.10612199980508, 32.62288099979015], [-116.10612500017814, 32.62272100033322], [-116.10614000024674, 32.62185500028613], [-116.10617899970649, 32.61945800008776], [-116.10618899975225, 32.61905899987202], [-116.10617500040685, 32.61867599984873], [-116.10617700005669, 32.61844100007823], [-116.1030749997013, 32.61868499996287], [-116.10067700005095, 32.61887300037549], [-116.09727099992196, 32.619142000283375], [-116.0915270004171, 32.619594000024215], [-116.07570799974208, 32.62083200033746], [-116.03412799998628, 32.62408200004593], [-116.01231499956116, 32.625790000209065], [-115.98215999996422, 32.62812599969433], [-115.93254299973684, 32.63197700014623], [-115.9079619997655, 32.633868999723646], [-115.87940499975278, 32.63607800035073], [-115.85101500014464, 32.63824200034434], [-115.8433040000863, 32.63883199998443], [-115.81716099961749, 32.64083400029655], [-115.77169400040707, 32.64429500003363], [-115.7254499997984, 32.647799000157036], [-115.70551699988808, 32.64930399996056], [-115.69201700011902, 32.65031900035463], [-115.66223300024288, 32.6525559999948], [-115.58096000002047, 32.65863500028368], [-115.53349399957125, 32.662150000202175], [-115.51582199994225, 32.66346400029444], [-115.51390700016566, 32.66359999988913], [-115.5065950003155, 32.664147999762115], [-115.50576199973906, 32.664203999725515], [-115.49915000039596, 32.66469200029795], [-115.49726800023132, 32.6648299997906], [-115.49716600012407, 32.66483800005056], [-115.49709400015406, 32.66484300030721], [-115.4967750003118, 32.664867000325216], [-115.49632599987493, 32.664897000338684], [-115.49605800008634, 32.66491900009012], [-115.49046000017132, 32.66532999991574], [-115.4825669996398, 32.665909999671975], [-115.47925900031842, 32.66615199994625], [-115.4740990000713, 32.66652700004858], [-115.4736110001747, 32.66656300015105], [-115.4654039998238, 32.667154000201144], [-115.41873800033909, 32.670515000262256], [-115.38788800025797, 32.672730000285064], [-115.38611900007126, 32.67285599977318], [-115.37009500025515, 32.67399499976849], [-115.3686569996062, 32.67410599977153], [-115.36299000009421, 32.67450500021725], [-115.33556799988342, 32.676440999723035], [-115.31319799996469, 32.678019999730196], [-115.2444229997788, 32.68288400014042], [-115.2426489995692, 32.68300900012617], [-115.17433399969084, 32.687799000074186], [-115.11705099961098, 32.69178700019798], [-115.05129999996267, 32.696333999810115], [-115.00102300030954, 32.69978399983607], [-114.98362600014184, 32.70096500003868], [-114.98094200026122, 32.70115099962988], [-114.95588199971573, 32.70286100026249], [-114.91003800003847, 32.70597699988701], [-114.7368079999497, 32.71759299984805], [-114.73145100005912, 32.71794300007222], [-114.7283720001683, 32.71815100003416], [-114.7270630002891, 32.71823800028491], [-114.72651900031599, 32.71827399994687]]]}, "properties": {"GEOID": "06025", "NAME": "Imperial County"}}]}