{"type": "FeatureCollection", "features": [{"type": "Feature", "geometry": {"type": "Polygon", "coordinates": [[[-116.75729599982466, 32.56550699967809], [-116.75530400005518, 32.56567399981477], [-116.753185999889, 32.565850999860544], [-116.74551599983855, 32.56649399977846], [-116.73896300004668, 32.56704699965727], [-116.6970629997254, 32.57055200034183], [-116.69093400025606, 32.57106300004856], [-116.69077299969926, 32.57107599980464], [-116.68937099993366, 32.57119299979537], [-116.62746200043242, 32.57633899972104], [-116.62725300019505, 32.57635700012896], [-116.62631000001375, 32.576436000068355], [-116.62594799961552, 32.57646600020911], [-116.62010799985117, 32.57694900026165], [-116.59212800032184, 32.57926100020833], [-116.57439600041836, 32.58072300025263], [-116.56392500031144, 32.581586000085196], [-116.5591349999602, 32.58198400002629], [-116.54813800032179, 32.58289100032007], [-116.54071199977051, 32.58350000028703], [-116.5356129996228, 32.583919000150104], [-116.51527300000667, 32.58558699992126], [-116.43940899955338, 32.59178199999163], [-116.43528199989929, 32.59211700028956], [-116.4170839998405, 32.593594999953766], [-116.41356499973361, 32.59388100023649], [-116.40552599961221, 32.59453399977624], [-116.38976499956186, 32.5958100000048], [-116.3856210001893, 32.596146000141175], [-116.37887800042662, 32.59669100000315], [-116.3713020000875, 32.597303999795756], [-116.35097599981681, 32.59894200003432], [-116.34810299979029, 32.599174000334195], [-116.307128000107, 32.60246799981767], [-116.27971199974395, 32.60466799970891], [-116.2709420000517, 32.60536799986644], [-116.24413900015709, 32.60751100017404], [-116.24351200034329, 32.60756099996885], [-116.23571500007121, 32.60818400033812], [-116.22668199971493, 32.60891600012494], [-116.21082500030337, 32.61016299998345], [-116.20910200014744, 32.61030000001977], [-116.20361499966216, 32.61073699974606], [-116.19780099983709, 32.61120800011077], [-116.19224300010507, 32.611641999672514], [-116.18721599992733, 32.61203899972581], [-116.18571000040467, 32.612157999894535], [-116.15736799957877, 32.61440299983176], [-116.10617700005669, 32.61844100007823], [-116.10617500040685, 32.61867599984873], [-116.10618899975225, 32.61905899987202], [-116.10617899970649, 32.61945800008776], [-116.10614000024674, 32.62185500028613], [-116.10612500017814, 32.62272100033322], [-116.10612199980508, 32.62288099979015], [-116.10603700031457, 32.62409499967767], [-116.10600899982718, 32.624441000124264], [-116.10596699999438, 32.62502199974602], [-116.10594500025307, 32.62685799973412], [-116.10590099987215, 32.63197499991361], [-116.1058690000851, 32.63387500029444], [-116.10574299968842, 32.639104999811394], [-116.10576399960479, 32.64135300020723], [-116.10576500032803, 32.64152899978909], [-116.10577700002358, 32.64316799964257], [-116.10576899962766, 32.64407299996829], [-116.10576600015293, 32.64449300011761], [-116.10576799980277, 32.64455000026683], [-116.10576899962766, 32.64458700011868], [-116.10577399965055, 32.64475099970694], [-116.10579100026729, 32.64524399966099], [-116.1057920000922, 32.645275000176376], [-116.1057920000922, 32.64535799972227], [-116.10579299991711, 32.64541100021216], [-116.10580200013796, 32.64651000010999], [-116.10580299996285, 32.646664999629046], [-116.10580299996285, 32.646768999882845], [-116.10580299996285, 32.646957000296496], [-116.10580299996285, 32.64701600028451], [-116.10583999977277, 32.64712100007714], [-116.10585300019156, 32.64715800037809], [-116.10585300019156, 32.64750899985502], [-116.10585400001648, 32.64764099975435], [-116.10583700029807, 32.64779199982431], [-116.10580700016082, 32.64805400023235], [-116.10580600033593, 32.65036099964279], [-116.10581200018369, 32.65166699989938], [-116.10580700016082, 32.65366599994305], [-116.10580700016082, 32.65586199993383], [-116.10580799998571, 32.660867000101966], [-116.10580200013796, 32.662959999725075], [-116.10580100031304, 32.664820000031796], [-116.10579999958979, 32.66488399982993], [-116.10579399974203, 32.666605999855314], [-116.1057920000922, 32.66871899984265], [-116.1057920000922, 32.668943999830276], [-116.10579000044237, 32.67149500034913], [-116.10579000044237, 32.671563999784325], [-116.10578899971914, 32.67177100003861], [-116.10578899971914, 32.67309499965817], [-116.10578899971914, 32.67349299967408], [-116.1057789996734, 32.67365099975493], [-116.10577100017579, 32.67478200007564], [-116.10577399965055, 32.67545399976873], [-116.10577299982563, 32.676061000012744], [-116.10576799980277, 32.676850000251406], [-116.10576100013006, 32.677831000014656], [-116.10572599996998, 32.68288400014042], [-116.10571599992421, 32.6848060000906], [-116.10569500000781, 32.68887400008534], [-116.10568800033514, 32.690154000304254], [-116.10565099962689, 32.69697200022733], [-116.1056520003501, 32.69813900026114], [-116.10564899997708, 32.70397499989922], [-116.10564700032724, 32.710829999634456], [-116.10564700032724, 32.711542000171555], [-116.10562999971049, 32.7154420000359], [-116.10562800006068, 32.715733999646496], [-116.10562100038797, 32.717651000135646], [-116.10560499959615, 32.721158000138395], [-116.10560299994631, 32.72155400003736], [-116.10559899974835, 32.722614999780376], [-116.10558399967972, 32.726346999970936], [-116.1029890003859, 32.72635300037764], [-116.10300899957906, 32.731335999957125], [-116.10301699997498, 32.73281400018272], [-116.10302199999785, 32.73387799963119], [-116.10304200008936, 32.73867200011362], [-116.10304700011223, 32.74008899983644], [-116.1030460002873, 32.74098200010386], [-116.1031369996256, 32.74844699982061], [-116.10319699990005, 32.753366000319005], [-116.10320899959561, 32.75452699978054], [-116.10321299979356, 32.75480200004736], [-116.10322299983932, 32.75546999978517], [-116.10323500043319, 32.75762600030732], [-116.10326800004516, 32.76249600018044], [-116.10327300006803, 32.7629780002022], [-116.10332099974862, 32.76908799963167], [-116.10330999987795, 32.77006399992293], [-116.10328899996156, 32.77678900014733], [-116.10328800013664, 32.77699500021507], [-116.10328700031172, 32.777531000121925], [-116.10328200028884, 32.77805099996707], [-116.10326999969497, 32.78376200000084], [-116.10328499976359, 32.784845000211426], [-116.10337199980222, 32.789475000175095], [-116.1033709999773, 32.78975100032888], [-116.10337199980222, 32.790113999924884], [-116.10337500017528, 32.7905840001882], [-116.1033760000002, 32.79075900021398], [-116.10338199984795, 32.790864000064204], [-116.10340399958928, 32.791467999966784], [-116.10341000033536, 32.7916180000294], [-116.10341600018315, 32.79193600020141], [-116.10352300031329, 32.798134000114594], [-116.10349499982587, 32.79877700010673], [-116.10346200021391, 32.79951600016261], [-116.10347399990947, 32.8008409999058], [-116.10348700032829, 32.802834000175885], [-116.10351099971939, 32.80441099996396], [-116.10350900006958, 32.805161000324205], [-116.10351099971939, 32.805317999995296], [-116.10350300022179, 32.80834800013809], [-116.10358400041265, 32.81441500016627], [-116.10357799966656, 32.815868999718106], [-116.10354800042764, 32.820205999802255], [-116.10354699970442, 32.82076400027909], [-116.10354400022966, 32.82162300005538], [-116.10349099962792, 32.83134700030105], [-116.10348599960504, 32.833917999823], [-116.10348999980299, 32.834216999716006], [-116.10348899997807, 32.83445899982109], [-116.10347499973439, 32.837862999623965], [-116.10345399981799, 32.84187200027751], [-116.10342600022891, 32.842751000025295], [-116.10340500031249, 32.8433890001241], [-116.1033199999237, 32.84725399980511], [-116.10313499997577, 32.85577000017198], [-116.10307700024944, 32.858378000321096], [-116.10305700015793, 32.85911099983705], [-116.10293199958616, 32.86473800020488], [-116.10284200007278, 32.86877499981485], [-116.10288899992848, 32.87028800035896], [-116.1028849997305, 32.87158899969926], [-116.10293800033227, 32.87344800009836], [-116.10301299977701, 32.874878000054366], [-116.10313999999863, 32.877323000005504], [-116.10319100005223, 32.878281999690564], [-116.10322399966421, 32.87891499970548], [-116.10335500008378, 32.881412999704104], [-116.10359799975802, 32.88672599968409], [-116.10370099969019, 32.88896900020551], [-116.10343399972652, 32.89670500005585], [-116.1034119999852, 32.89727699993786], [-116.10319400042532, 32.903702000034876], [-116.10319400042532, 32.90411400010942], [-116.1031860000294, 32.9087130000173], [-116.10316199973994, 32.923086999744264], [-116.10315099986929, 32.93070000030685], [-116.10314599984642, 32.93527499983699], [-116.10313199960271, 32.93792100018796], [-116.10314300037167, 32.93869000002244], [-116.10312800030307, 32.94715299999048], [-116.10311499988428, 32.95268699987939], [-116.10311300023444, 32.9549739996726], [-116.10310300018871, 32.9599480002698], [-116.10308200027231, 32.973260000366864], [-116.10307899989925, 32.97344299993407], [-116.10307899989925, 32.97467400031712], [-116.1030749997013, 32.977847000132414], [-116.10305600033304, 32.98908599985168], [-116.10305299996001, 32.99139100018389], [-116.10303899971628, 32.99666199996812], [-116.10302799984565, 33.00160000030901], [-116.10303399969344, 33.005198000140304], [-116.1030670002037, 33.013589000006554], [-116.10308700029518, 33.01864899982476], [-116.10309700034094, 33.02105399992273], [-116.10310999986139, 33.02415399969645], [-116.10315199969418, 33.034256999679364], [-116.10315199969418, 33.03449799972423], [-116.10316400028807, 33.03722499975264], [-116.10317400033381, 33.0406359999793], [-116.10317599998366, 33.041389000252586], [-116.10318699985432, 33.04873600020004], [-116.1032289996871, 33.059707000204305], [-116.10324100028097, 33.0626229997287], [-116.10324399975569, 33.06335999991204], [-116.10325200015161, 33.06471499964285], [-116.10326100037248, 33.06614400008858], [-116.10327499971783, 33.06831800012859], [-116.10330800022811, 33.07081500035481], [-116.10331800027384, 33.07154800017033], [-116.10331700044895, 33.07200600028683], [-116.10332800031962, 33.07348499977022], [-116.10333800036533, 33.07483199993631], [-116.10264700007912, 33.07483300034231], [-116.10049200010302, 33.0748360000547], [-116.09833600030201, 33.07483899976705], [-116.0940210003269, 33.07484600035], [-116.09149999975459, 33.07484999971505], [-116.08970600035182, 33.07485199977386], [-116.0843750004005, 33.074857999950076], [-116.08120400044815, 33.074864000125885], [-116.08113900015084, 33.082114999678545], [-116.08111900005933, 33.08475599988788], [-116.08109200029517, 33.08800700013608], [-116.08109300012008, 33.0883840003159], [-116.08109200029517, 33.08967499990039], [-116.08109300012008, 33.09359799992605], [-116.08109399994497, 33.09475899982558], [-116.08109200029517, 33.094908000081894], [-116.08108499972415, 33.09520999978135], [-116.08106499963267, 33.09612299982232], [-116.08106399980775, 33.096194000137], [-116.08104999956404, 33.09642800034418], [-116.08104600026441, 33.096532999810194], [-116.08104600026441, 33.0967179997109], [-116.08104600026441, 33.096851000179996], [-116.08104600026441, 33.096957000047645], [-116.08104100024154, 33.09833699976533], [-116.08103299984562, 33.10012700017304], [-116.08102600017294, 33.10247900004167], [-116.08101600012719, 33.10386399997622], [-116.08096699972337, 33.111062999772024], [-116.08091700039299, 33.11821100029686], [-116.08093400011143, 33.12398199982978], [-116.0809399999592, 33.12855599970362], [-116.08095099982985, 33.13051100002042], [-116.08094599980699, 33.13123299972057], [-116.0809399999592, 33.13197300037179], [-116.0809399999592, 33.132024999690955], [-116.08094099978412, 33.1321890000038], [-116.08094300033224, 33.13261100018924], [-116.08094099978412, 33.132926000131924], [-116.08091099964687, 33.14014899963754], [-116.08087999968474, 33.1474179998633], [-116.08090999982198, 33.150542999962916], [-116.08094800035511, 33.1545120001425], [-116.08100600008146, 33.16041100034688], [-116.08100299970837, 33.16080000027673], [-116.08101899960191, 33.16172099966482], [-116.08104799991425, 33.16887699974064], [-116.08106399980775, 33.172529999983894], [-116.08107999970129, 33.176232000038965], [-116.08108100042452, 33.176981000037074], [-116.08110300016584, 33.17924100031519], [-116.08112699955694, 33.184078999883035], [-116.081165999915, 33.190836999643246], [-116.0811709999379, 33.191057000250595], [-116.08133699961925, 33.19875200010794], [-116.08144100027462, 33.20358799981972], [-116.08174800042127, 33.221373000177145], [-116.08185100035344, 33.22729999987497], [-116.08187800011763, 33.22884900021168], [-116.08187999976745, 33.22895300037261], [-116.08190099968384, 33.23017099977134], [-116.08196400033134, 33.23382800017227], [-116.08198600007266, 33.235047000133264], [-116.08200699998906, 33.236298999648845], [-116.08207300011131, 33.24005699962632], [-116.08209200037788, 33.24114099971153], [-116.0820940000277, 33.24131200031347], [-116.0821300000127, 33.24364800007519], [-116.08224399981552, 33.251080000185254], [-116.08224999966329, 33.25128000015523], [-116.08236500018936, 33.25482099967254], [-116.08256199983283, 33.26047899990947], [-116.08259899964276, 33.261511999796824], [-116.08275500017669, 33.26613500003937], [-116.08283899984228, 33.268736999765075], [-116.0828830002232, 33.270068999767034], [-116.08300500042195, 33.27382799974515], [-116.08319899969239, 33.27964599974956], [-116.08320299989036, 33.27978700020201], [-116.0832339998525, 33.2806749999746], [-116.08330199962455, 33.28246700036024], [-116.08339399968605, 33.2848010001153], [-116.08351800043293, 33.28813700022612], [-116.08357100013639, 33.28947799974642], [-116.0837920000693, 33.29528000025207], [-116.08389300035167, 33.29768499975619], [-116.08401300000226, 33.30062299991873], [-116.08412099995729, 33.303131999730006], [-116.08417600020886, 33.30445400001757], [-116.0841929999273, 33.30465300008495], [-116.08439899979163, 33.30984099978535], [-116.08448400018045, 33.31259599993054], [-116.08464300018909, 33.31748199997176], [-116.08493100006919, 33.32724200000002], [-116.08520899990353, 33.33921600013828], [-116.08520700025372, 33.34066099987655], [-116.08518299996426, 33.34787200029879], [-116.08519100036018, 33.348429000267416], [-116.08519600038305, 33.35040500006237], [-116.08518100031442, 33.35355899972379], [-116.08518100031442, 33.35390000037229], [-116.08518700016224, 33.36047099975572], [-116.08518600033732, 33.361554000307216], [-116.08518899981206, 33.36850199977546], [-116.08517499956837, 33.369768000126115], [-116.08516600024585, 33.3704150002238], [-116.08512100003999, 33.37423200030113], [-116.08511799966692, 33.37442500011726], [-116.08510299959833, 33.375675000237386], [-116.08502099958257, 33.38274100001555], [-116.08499899984125, 33.39021399963449], [-116.08500100038941, 33.39027899966722], [-116.08499399981838, 33.39240100030403], [-116.08497799992486, 33.397165999809836], [-116.08496600022927, 33.397208000238706], [-116.0849799995747, 33.404896999828125], [-116.08497700009994, 33.41172400034485], [-116.0849610002064, 33.41438699971059], [-116.08494799978762, 33.41629399977506], [-116.08494799978762, 33.416851000256244], [-116.08493299971902, 33.4192709999405], [-116.08489500008419, 33.42593300018274], [-116.08489400025927, 33.42613400028729], [-116.08489300043435, 33.42621699996347], [-116.08489300043435, 33.42631699967565], [-116.08556700010382, 33.42631500014737], [-116.08981199975871, 33.42630199983865], [-116.09279199991535, 33.42629599975316], [-116.09312300035147, 33.42629500036365], [-116.09662400001667, 33.426284999720295], [-116.10208399983945, 33.426267000208824], [-116.10725499995719, 33.42627399968609], [-116.10987100006575, 33.42627399968609], [-116.10991700009649, 33.42627399968609], [-116.11052700019185, 33.42627399968609], [-116.11260400035016, 33.42627700010453], [-116.11945500006787, 33.426280999912464], [-116.1298630004256, 33.426109999896475], [-116.13847800030717, 33.42648699989663], [-116.14163800038885, 33.426627000225494], [-116.14434700038385, 33.42672800034937], [-116.14717000018163, 33.4268340002713], [-116.15099999973482, 33.42698399985482], [-116.15361900021644, 33.42709799975477], [-116.1554760002667, 33.427182000137684], [-116.16173699998053, 33.4274640000789], [-116.16450500042508, 33.427580999721776], [-116.17062600039681, 33.42783299997414], [-116.17839000015859, 33.42814700008004], [-116.17973099982484, 33.42820000031534], [-116.1818120001811, 33.42828399963183], [-116.1856219996428, 33.42843399970851], [-116.18857599986018, 33.42854799995327], [-116.19244700031956, 33.42870400024288], [-116.19762699975983, 33.42891099983386], [-116.19769799990495, 33.42891400016114], [-116.19781300043098, 33.428913000052056], [-116.20516399974088, 33.428861999721775], [-116.20639099960431, 33.42884600021469], [-116.20877800028231, 33.42881499980243], [-116.2128670003016, 33.42876400016428], [-116.21367300021555, 33.4287529996945], [-116.21803099984835, 33.428686999845276], [-116.22237799961049, 33.42862499964587], [-116.22790799975344, 33.42854599972666], [-116.23198799955189, 33.42848699976857], [-116.23391699957216, 33.42845999968541], [-116.24146100012425, 33.428355999731], [-116.24672199975537, 33.428288000097076], [-116.25285000029812, 33.428213000339866], [-116.26220999999428, 33.42815799987689], [-116.26374800020231, 33.42814900031585], [-116.26703700015543, 33.42806899984461], [-116.2672389998218, 33.428067000356684], [-116.26832299957009, 33.42803900002373], [-116.26882200023569, 33.42802700009249], [-116.27331600031093, 33.42792200024845], [-116.28113299977613, 33.42780199994987], [-116.28972000006863, 33.42765700014863], [-116.29853300031691, 33.42745499969611], [-116.30093699981505, 33.427452000068136], [-116.30656999989014, 33.42744399981018], [-116.3217669998759, 33.42742099990778], [-116.34346599959991, 33.42739300011617], [-116.34590099995852, 33.42738700010608], [-116.34987399962682, 33.42737999996889], [-116.35327599955787, 33.42737399995791], [-116.36771900040652, 33.42734899978277], [-116.36875200010121, 33.427340000137804], [-116.37132100035407, 33.42731299969792], [-116.3763069996256, 33.427382000222316], [-116.37686999986529, 33.427389000359405], [-116.3785739997547, 33.42741100014388], [-116.38040099966777, 33.42743299992279], [-116.3806500000881, 33.42743600030116], [-116.38523200002687, 33.42749199984756], [-116.39388799991633, 33.42750299972747], [-116.39701600021095, 33.427515999856325], [-116.40239599966776, 33.427514999731144], [-116.40282699966298, 33.42750899972953], [-116.40678799963574, 33.427484000343014], [-116.40893500011427, 33.42746899995789], [-116.41019999961252, 33.4274609997015], [-116.41104599970944, 33.42745499969611], [-116.41394600039845, 33.42744000005576], [-116.41430399970042, 33.427434000048926], [-116.41523500018614, 33.427435000175045], [-116.41682699992255, 33.42742400028651], [-116.41961700010836, 33.427407999764654], [-116.41968499988045, 33.427406999638215], [-116.43812099959061, 33.42734600015113], [-116.44426300037705, 33.427365999692704], [-116.44558800014978, 33.42736900007339], [-116.44844299973462, 33.427378999842134], [-116.4638930003387, 33.42733799988335], [-116.4671410002839, 33.4273199998405], [-116.47459100022634, 33.427279999981806], [-116.48531300040344, 33.42722099991295], [-116.48598299987493, 33.42721399976231], [-116.4863670000145, 33.42721299963364], [-116.48708000004201, 33.427209999997295], [-116.49322399957997, 33.42717399985477], [-116.49646300020271, 33.42715599977792], [-116.4981090003658, 33.42714499985403], [-116.49866099983652, 33.42714300034483], [-116.5032229996838, 33.427120000362684], [-116.50491999990052, 33.42710999981443], [-116.51610400003497, 33.427103999784784], [-116.51722700014132, 33.42711400033379], [-116.5183999995781, 33.42711800010317], [-116.5205610003003, 33.427103999784784], [-116.52744899982794, 33.42711800010317], [-116.5332690003991, 33.42713999995638], [-116.53524899957472, 33.42714499985403], [-116.5357120002553, 33.42715300013961], [-116.53782700004842, 33.42715400026896], [-116.54255399975217, 33.42717000008792], [-116.54376399989718, 33.42716500019165], [-116.54917100001644, 33.42716600032088], [-116.55333799985355, 33.42717200034624], [-116.55762699988938, 33.42720000020915], [-116.56179999957426, 33.42719300005681], [-116.56557800014721, 33.42719900008031], [-116.5708429999763, 33.42720799973991], [-116.57647900042446, 33.427219999784356], [-116.57921900038158, 33.427224999677456], [-116.57997099986885, 33.42722599980598], [-116.59276799965612, 33.42729599977754], [-116.5959079996463, 33.42731100019257], [-116.5980119995688, 33.42731899971306], [-116.59803099983537, 33.42731899971306], [-116.6079949997791, 33.42737799971537], [-116.61574299964735, 33.42742699991547], [-116.61768799956117, 33.427436999677525], [-116.6212169997138, 33.427372999831086], [-116.62298699972546, 33.427339000010576], [-116.62629099974717, 33.42727799972599], [-116.62645099958074, 33.42727500009189], [-116.62773600006881, 33.427249999888296], [-116.63398900028503, 33.427131000289734], [-116.63469399991662, 33.42718900029084], [-116.64088199983553, 33.42718499977499], [-116.64154299998452, 33.42718399964598], [-116.64195499971318, 33.427182000137684], [-116.64284199981797, 33.427183000266645], [-116.65050799967047, 33.427211000126], [-116.65073100015152, 33.42723099969867], [-116.65797900042759, 33.42722300017009], [-116.65933799963719, 33.42722400029864], [-116.66368699994744, 33.42723000031994], [-116.66736900026095, 33.42722699993451], [-116.66915400034122, 33.42722599980598], [-116.67676199956907, 33.427271999708005], [-116.68021299990389, 33.42727899985391], [-116.68175199993686, 33.42728700012712], [-116.68466699979616, 33.42728899963302], [-116.68534300001376, 33.42728899963302], [-116.69355700003733, 33.42741100014388], [-116.69439499973832, 33.4274199997815], [-116.69987999967543, 33.42747399983664], [-116.70205599956793, 33.42749600034931], [-116.70294199984784, 33.42754499973313], [-116.70531899958178, 33.42755099973229], [-116.70676499972832, 33.42754900023244], [-116.7103959999882, 33.42756000010507], [-116.71074599979256, 33.42755699973099], [-116.7112410002602, 33.42755799985569], [-116.71252300037523, 33.42755799985569], [-116.71954599962207, 33.4275670002278], [-116.71975900005741, 33.42756800035239], [-116.72055199955254, 33.427543000233136], [-116.72181199992626, 33.42753100023327], [-116.73612299963213, 33.42737000020027], [-116.7392109997438, 33.427336999756164], [-116.74321199989954, 33.427294999649874], [-116.74564100041032, 33.42726599968955], [-116.75395900019097, 33.42717000008792], [-116.75467700024137, 33.42715599977792], [-116.7588750000406, 33.42713399992881], [-116.7622180004204, 33.42711699997344], [-116.76241800043694, 33.42711599984366], [-116.76420099996905, 33.42710600004462], [-116.76427299993907, 33.42710600004462], [-116.77086300043919, 33.42707099998928], [-116.77152899971273, 33.42706700021768], [-116.79331700002354, 33.42695200014534], [-116.80058100019309, 33.426917000027906], [-116.80163499980416, 33.42691200011707], [-116.8048030002818, 33.426907000205944], [-116.80586100009079, 33.426907000205944], [-116.8064529997445, 33.42690399980929], [-116.80823000032714, 33.426902000294525], [-116.80882299980577, 33.426902000294525], [-116.80891900006525, 33.42690100016227], [-116.80921500034124, 33.42690100016227], [-116.8093040000297, 33.42690100016227], [-116.80992400017082, 33.4268989998977], [-116.81178600024396, 33.42689600025051], [-116.81240700020997, 33.42689500011823], [-116.81308500007742, 33.42689299985353], [-116.81512299987764, 33.42688900007373], [-116.81580199956998, 33.42688799994131], [-116.8163430000684, 33.42688599967644], [-116.81796900013998, 33.426884000161266], [-116.81851099956495, 33.4268830000288], [-116.81856099979369, 33.42688199989632], [-116.81871099958151, 33.42688199989632], [-116.81876199963513, 33.42688199989632], [-116.82182600035567, 33.426873000202974], [-116.82345200042725, 33.42686700015695], [-116.8257200003813, 33.426857999712254], [-116.82630000033942, 33.42685600019644], [-116.82653700016587, 33.42685600019644], [-116.82688100012248, 33.426857999712254], [-116.82838599982024, 33.426858999845024], [-116.83062100016231, 33.426862000243226], [-116.83117699983097, 33.426862000243226], [-116.8316279999177, 33.4268629996262], [-116.83166999975049, 33.4268629996262], [-116.83603099975633, 33.4268680002896], [-116.8367470001569, 33.4268649998916], [-116.83687699985323, 33.42686700015695], [-116.83753600035242, 33.426862000243226], [-116.83765199980506, 33.426866000024276], [-116.83815399994538, 33.42685700032922], [-116.83892399987432, 33.42685600019644], [-116.83942000016687, 33.426846999750666], [-116.83982699987266, 33.426846999750666], [-116.84259799979189, 33.42684799988355], [-116.84779200037418, 33.426844000101674], [-116.84845299962487, 33.426846999750666], [-116.85183500036273, 33.426841999835794], [-116.85280299976006, 33.42684099970284], [-116.85540899982287, 33.426840000319615], [-116.85710600003961, 33.426834999654595], [-116.85720099957582, 33.426834999654595], [-116.85970899972935, 33.42683599978762], [-116.85978300024752, 33.426838000053635], [-116.8636680000523, 33.42683900018663], [-116.86547400004895, 33.4268649998916], [-116.86593299963324, 33.42683900018663], [-116.86754600018436, 33.4268320000052], [-116.87031200008076, 33.42683900018663], [-116.87476900034608, 33.42683900018663], [-116.87851299968554, 33.42685399993084], [-116.88359599993974, 33.4268740003355], [-116.88377500003989, 33.42687900024853], [-116.89239999996718, 33.426908000338145], [-116.89537000007807, 33.42692300007043], [-116.89653300036743, 33.42692300007043], [-116.90145000004195, 33.426941000195605], [-116.9104440000402, 33.42702499998075], [-116.91097899979248, 33.42702999988508], [-116.91124699958111, 33.427032000146575], [-116.9114240000314, 33.42703900031188], [-116.91158899988787, 33.427040999823475], [-116.91947599967328, 33.4270799996621], [-116.92606500034847, 33.427108999684556], [-116.9279600000336, 33.4271209997427], [-116.92803600020159, 33.42712599964148], [-116.92862700003037, 33.427130000160105], [-116.93337499965051, 33.42715200001024], [-116.93503699970712, 33.42715900016586], [-116.93777900021239, 33.42716500019165], [-116.94196600014092, 33.42719500031461], [-116.94593999963419, 33.42721800027687], [-116.94619099970437, 33.42721499989097], [-116.95405300027373, 33.42725800016413], [-116.954916999914, 33.427265000311216], [-116.96378000039098, 33.42731299969792], [-116.9815230001651, 33.42742200003406], [-116.9820169999095, 33.42742499966308], [-116.99357599996272, 33.42709299985436], [-116.99881800022557, 33.42696099983054], [-117.00181000007777, 33.42694600010477], [-117.00186000030648, 33.42693099962673], [-117.00308200014705, 33.42693099962673], [-117.00473900018076, 33.42693099962673], [-117.00719200008271, 33.426919000292], [-117.00796299983655, 33.426919000292], [-117.01452700039738, 33.42689500011823], [-117.01592999998792, 33.42689000020612], [-117.03087599990351, 33.4268689996725], [-117.03086099983489, 33.428289000213354], [-117.0308540001622, 33.42990000014571], [-117.03422099993313, 33.4299349998101], [-117.03499099986205, 33.42994299983847], [-117.04400499995181, 33.43001800034996], [-117.04801699997819, 33.43004900033251], [-117.05226400018121, 33.43008199974555], [-117.05233500032634, 33.430080000303995], [-117.0538890004279, 33.43009099985594], [-117.06065300010697, 33.43035700011407], [-117.0611059998435, 33.4303740001846], [-117.06432799984948, 33.43037600036907], [-117.06590299986743, 33.43037699971159], [-117.06932400006502, 33.4302290001818], [-117.06971499987726, 33.4302140002711], [-117.07183899989124, 33.43023100036962], [-117.07355700002434, 33.43024500018364], [-117.07401200030903, 33.43025099999618], [-117.0740590001647, 33.43025099999618], [-117.0761659995619, 33.43026699999397], [-117.07683500010681, 33.430271000367824], [-117.0775389999135, 33.4302770001785], [-117.07824199989531, 33.43027999970885], [-117.07829299994891, 33.430282999988826], [-117.07931300012312, 33.430293000171496], [-117.07974099974528, 33.43029699979446], [-117.08046200016874, 33.43030300035309], [-117.08246900000685, 33.430320999777344], [-117.08258100015983, 33.430319999684485], [-117.08282999968188, 33.4303190003413], [-117.08902400034684, 33.43028600026867], [-117.08914300017256, 33.4302850001754], [-117.0914620001802, 33.4302770001785], [-117.09148999976928, 33.43027999970885], [-117.0932239997959, 33.430274999991795], [-117.09455100011677, 33.43026800008745], [-117.095603000078, 33.43026800008745], [-117.09879800031979, 33.430261000182554], [-117.09891999962021, 33.43025400027713], [-117.10439700005969, 33.43025500037077], [-117.10690199984019, 33.43043499979284], [-117.10713899966666, 33.4304509997567], [-117.11289599959031, 33.43086900020449], [-117.11309999980483, 33.430884000002045], [-117.11415900033705, 33.430960999871346], [-117.11698600033284, 33.431166999994055], [-117.1173079996498, 33.43118800023745], [-117.11749199977281, 33.43120299997989], [-117.11757899981144, 33.43121099989136], [-117.11793399963871, 33.43123799986847], [-117.1218560001517, 33.431531000245634], [-117.12219799956014, 33.431552999729995], [-117.12341699992596, 33.4316340000665], [-117.12616299973085, 33.431813999627366], [-117.13047000020835, 33.432097000335304], [-117.13448499970949, 33.432346000012224], [-117.13482899966607, 33.4323559999572], [-117.13644700024005, 33.43245399995706], [-117.13684399990008, 33.43247800009318], [-117.13877700011835, 33.432593999657755], [-117.13950299966636, 33.432588000007264], [-117.13987400028543, 33.4325839997402], [-117.13997399984453, 33.4325839997402], [-117.13999599958584, 33.432582999673414], [-117.14006199970811, 33.432582999673414], [-117.14054899977982, 33.432581000289474], [-117.14086400032238, 33.432581000289474], [-117.14143099986174, 33.432572999754576], [-117.14158599967243, 33.43256900023652], [-117.14165900036569, 33.432571999687646], [-117.14211999959984, 33.43257100037041], [-117.14250700011242, 33.43256900023652], [-117.14268399966443, 33.43256800016954], [-117.14289499955163, 33.43256800016954], [-117.14314999981976, 33.43256499996858], [-117.1437430001967, 33.43256399990156], [-117.14441199984327, 33.432559000316004], [-117.14455300030859, 33.432559000316004], [-117.14527200018388, 33.432556000114786], [-117.1459190000892, 33.432552999913405], [-117.14619699992353, 33.43255099977908], [-117.14755699985636, 33.43254500012556], [-117.15211700005383, 33.432588000007264], [-117.15377200043774, 33.432604000323856], [-117.15621399957071, 33.4326250002196], [-117.15879899971713, 33.43261100003979], [-117.16026099975718, 33.43260000005759], [-117.16053100009391, 33.43259899999099], [-117.16138499968848, 33.43259499972442], [-117.16160599962139, 33.432593999657755], [-117.16229899955744, 33.432588000007264], [-117.16243300035005, 33.432588000007264], [-117.16248699987842, 33.43258699994051], [-117.16378900008492, 33.432579000155805], [-117.16484500024413, 33.432572999754576], [-117.1658729999159, 33.43257499988833], [-117.16662799977625, 33.43256900023652], [-117.16690099958772, 33.43256800016954], [-117.16781399963179, 33.43256199976751], [-117.1691040001427, 33.43255399998054], [-117.16997299980584, 33.432548000327216], [-117.17090900031444, 33.43254199992385], [-117.17203999991841, 33.43253400013499], [-117.17340099967615, 33.432524000210506], [-117.17427799973518, 33.432512000149615], [-117.17831499987592, 33.432483999751284], [-117.17839600006677, 33.43248299968334], [-117.17879100007698, 33.43247499988909], [-117.18041399977555, 33.43243899968121], [-117.18246099979662, 33.43239200019951], [-117.1839150003391, 33.432366999970384], [-117.18760799962494, 33.43230300001066], [-117.18793400003818, 33.43229600026989], [-117.19149699962767, 33.43223300032865], [-117.19247699961888, 33.4322279999744], [-117.1951100003442, 33.43221499980154], [-117.19588199992296, 33.43221100026704], [-117.19721599991651, 33.43220399976914], [-117.19815700044798, 33.43220000023408], [-117.19895900016398, 33.43219599994918], [-117.19993900015518, 33.43219100034243], [-117.20501099964045, 33.4321649999838], [-117.20615899986113, 33.43215700016019], [-117.20652499955901, 33.43215399994501], [-117.20771499961253, 33.43214900033584], [-117.20920599996491, 33.43214299990488], [-117.20951499976138, 33.43214299990488], [-117.21241899975004, 33.43213099979136], [-117.21272699972164, 33.43212800032498], [-117.21406699956295, 33.43212299996461], [-117.21513500031602, 33.43211800035366], [-117.21546900022689, 33.43211899967618], [-117.21579499974182, 33.432119999748274], [-117.21581999985615, 33.43211899967618], [-117.21643800034744, 33.43211800035366], [-117.21711200001691, 33.432120999820405], [-117.21829200002468, 33.43209999980276], [-117.21891200016577, 33.43208899975573], [-117.22009899984623, 33.432073000093816], [-117.22366800018183, 33.43202799981064], [-117.22485499986229, 33.43201599968122], [-117.22498000043409, 33.432017999827856], [-117.22534699995688, 33.43202400026746], [-117.22546999998052, 33.43202699973744], [-117.22552799970684, 33.43202799981064], [-117.22556700006493, 33.432028999883826], [-117.22570199978414, 33.432015000357566], [-117.22575799986062, 33.4320099999907], [-117.2259100001966, 33.432015000357566], [-117.22636399975804, 33.43203100003017], [-117.226516000094, 33.43203799979232], [-117.22676999963888, 33.4320340002496], [-117.22753799991798, 33.432028999883826], [-117.22779700038409, 33.43202799981064], [-117.22844000009142, 33.43202400026746], [-117.23037499995951, 33.432025000340694], [-117.2310219998648, 33.43202799981064], [-117.23235000001054, 33.43200699977049], [-117.23608599985242, 33.43195100013827], [-117.23633699992257, 33.43194699984185], [-117.2376680004414, 33.431927999930764], [-117.23774100023634, 33.431932000228066], [-117.23816100036092, 33.43192499970773], [-117.23824500002648, 33.43192399963335], [-117.23836399985217, 33.43192499970773], [-117.23880999991601, 33.43192699985647], [-117.23916800011631, 33.431927999930764], [-117.23990200006023, 33.43192699985647], [-117.24135200040473, 33.431929000005105], [-117.24135400005454, 33.432183999842934], [-117.2413499998566, 33.43279500008086], [-117.2413570004276, 33.432848999790735], [-117.24136099972723, 33.43348299964625], [-117.24136300027538, 33.43412000026507], [-117.24136499992521, 33.434259000229424], [-117.24137199959789, 33.43570399983519], [-117.2414279996744, 33.438118000197356], [-117.24141000013103, 33.438903999751716], [-117.2413930004126, 33.43962599987579], [-117.2414000000853, 33.44097599995598], [-117.24141299960579, 33.44326200036305], [-117.2414219998266, 33.44528799985475], [-117.24143000022252, 33.44646099970482], [-117.24146700003247, 33.448824999870915], [-117.24166600022407, 33.44888899963658], [-117.24192399996696, 33.448972999913224], [-117.24312099969315, 33.44935999976204], [-117.243566999757, 33.44950400015396], [-117.244083000141, 33.44967599966334], [-117.24412099977586, 33.44968400012029], [-117.24589300033561, 33.450257000011526], [-117.24772799974627, 33.45085099984626], [-117.24932600022879, 33.451367999680414], [-117.25037700036512, 33.45170799982392], [-117.25043900028939, 33.451727999746794], [-117.25056300013796, 33.451768000328116], [-117.25080499998728, 33.45184700009174], [-117.25142699977823, 33.452039999894666], [-117.25161699974903, 33.45210900024419], [-117.2585920002136, 33.454364000027155], [-117.26398199971617, 33.45600199975968], [-117.26407299995276, 33.45603099985918], [-117.26412800020434, 33.45604800014556], [-117.26424500038019, 33.4560850000961], [-117.2647530003683, 33.45624900019311], [-117.26492200042274, 33.45630400008765], [-117.26544499958112, 33.4564719996857], [-117.26701499957623, 33.45698000016599], [-117.26754000018111, 33.45715000026992], [-117.26769599981671, 33.457206000125325], [-117.27007199972577, 33.45797899978777], [-117.27055100029986, 33.4581339998514], [-117.27290600029254, 33.45890100015445], [-117.27459599993823, 33.45944800017204], [-117.27472900000761, 33.45949400022854], [-117.27483899961246, 33.45952899994566], [-117.27653400017935, 33.46008099999633], [-117.27690900009809, 33.46020200036595], [-117.28093199999512, 33.46149900010664], [-117.28306500022993, 33.46218399992765], [-117.28316499978902, 33.46222100025733], [-117.28376599966356, 33.462411000283616], [-117.28540199978092, 33.46294299964064], [-117.28666600035258, 33.46335199975785], [-117.2870909996017, 33.463488999924486], [-117.28850999998406, 33.4639459998172], [-117.28936899960144, 33.46422300016016], [-117.28952799961012, 33.46434699984565], [-117.29276999970756, 33.4654259998287], [-117.29490200011745, 33.46608599983874], [-117.29697000005491, 33.466727000285786], [-117.29763000037899, 33.4669460003726], [-117.2996099995546, 33.46760699971207], [-117.30026999987868, 33.467827000233314], [-117.30039000042761, 33.46786700013187], [-117.30075000027772, 33.46798699971673], [-117.30086999992834, 33.46802700029076], [-117.30094000024852, 33.468043999723584], [-117.30115299978551, 33.46809700031425], [-117.30122399993064, 33.46811500013982], [-117.30126999996139, 33.468126999771705], [-117.30163099963642, 33.46824600009031], [-117.30285099982713, 33.46865400026323], [-117.30325800043124, 33.46878999989405], [-117.30336999968591, 33.46882699965199], [-117.30737199966657, 33.47011799992748], [-117.31005200024755, 33.470922999842095], [-117.31122100038463, 33.471299999934224], [-117.31469799976043, 33.47242999975477], [-117.31487699986056, 33.47248400026722], [-117.3149909996634, 33.472524999870615], [-117.31682599997234, 33.47311799965925], [-117.32211599991578, 33.47482600004794], [-117.32510899959291, 33.475797999725124], [-117.328325999576, 33.47683899988599], [-117.32980799970755, 33.47731700013226], [-117.33309400018592, 33.478375999967014], [-117.33320799998874, 33.47841199984003], [-117.33781900023985, 33.479895000131464], [-117.3434620003607, 33.481711000338194], [-117.34640700035723, 33.48266200018112], [-117.34805000014725, 33.48319700029554], [-117.35063299974557, 33.484036999633865], [-117.35072399998215, 33.48405600011693], [-117.35823500002394, 33.486511999984735], [-117.36255199964883, 33.48791599967348], [-117.36355199973156, 33.48824899983818], [-117.36364200014323, 33.488278999810376], [-117.3693279999218, 33.49017300019161], [-117.37079699963454, 33.49066199964038], [-117.3687449995906, 33.4952019996757], [-117.3671319999378, 33.49864299993636], [-117.36650299957586, 33.49998799994568], [-117.36591199974707, 33.5013650000102], [-117.36540600030709, 33.50245799978592], [-117.3642739999799, 33.50490000007071], [-117.3643290002315, 33.50490000007071], [-117.36951700006767, 33.504969000279644], [-117.37266399973056, 33.50501100021708], [-117.3735519996603, 33.505024999941966], [-117.37369599960033, 33.505024999941966], [-117.38098499988428, 33.50512300020019], [-117.3892039999307, 33.50519200023135], [-117.38962400005528, 33.50519500016632], [-117.39810599986745, 33.50526900002752], [-117.406684999764, 33.50529000030048], [-117.40888999996882, 33.50529600016351], [-117.41538300038458, 33.5053109998193], [-117.42355200020228, 33.50534699973168], [-117.42857500018204, 33.50536500005675], [-117.43065599963998, 33.50537199989087], [-117.43269599998837, 33.50537899972443], [-117.44181600038333, 33.50534399980198], [-117.44594300003743, 33.505332000082134], [-117.44825899967202, 33.50532300029111], [-117.45077199984843, 33.505314999727084], [-117.45090300026799, 33.505316999680886], [-117.45887899974186, 33.50534199984875], [-117.45964299982305, 33.50534199984875], [-117.46036099987343, 33.50533000012862], [-117.46531000023333, 33.50524999970478], [-117.46794100041049, 33.505207999883325], [-117.47605400015173, 33.50515100036059], [-117.47837599963412, 33.50512900007482], [-117.48268599958632, 33.50508600021513], [-117.48590400029263, 33.50505400011403], [-117.48762400007558, 33.50506099997331], [-117.49341100013648, 33.50508600021513], [-117.49449099968679, 33.50509200009231], [-117.49528499990517, 33.50509500003074], [-117.50320100000293, 33.50512800009578], [-117.5036150002797, 33.505122000221036], [-117.50730900028879, 33.50515900019078], [-117.50972200000774, 33.505175999827344], [-117.5098159997191, 33.50517699980589], [-117.50971399961182, 33.50002599990079], [-117.50969600006849, 33.4989119998122], [-117.50964300036503, 33.49606499987067], [-117.50960800020495, 33.49416599973124], [-117.50954100025778, 33.49065399996883], [-117.50943300030275, 33.48620400033434], [-117.50938100042423, 33.48409400032135], [-117.50937999970098, 33.48403000032235], [-117.50947099993758, 33.47856800036569], [-117.50951000029562, 33.47614300004125], [-117.50954399973253, 33.47407899979637], [-117.50951500031852, 33.471694000100534], [-117.50951500031852, 33.471633000281415], [-117.50951399959531, 33.47155799978156], [-117.50950299972465, 33.470680999640145], [-117.509499000425, 33.470268000357436], [-117.50960999985476, 33.47021100031456], [-117.51353200036779, 33.468159000030866], [-117.51420799968705, 33.46780500020637], [-117.51441100007666, 33.467694999987565], [-117.51446600032823, 33.46766600004293], [-117.51502700001978, 33.46736499999241], [-117.5168909997428, 33.46635800020173], [-117.52509300007078, 33.461933999980204], [-117.52543600020248, 33.46175000028976], [-117.53629700029674, 33.4558880003601], [-117.5381740004385, 33.45487600010521], [-117.53892599992577, 33.45475399998621], [-117.54120300010062, 33.454385999717914], [-117.54154299985925, 33.45433199992192], [-117.54308500026526, 33.45408699966159], [-117.54316599955779, 33.45406999974019], [-117.54590399986509, 33.453624999642905], [-117.54593599965213, 33.4536189999477], [-117.55449199998246, 33.452237000128136], [-117.5552030003602, 33.45212199968478], [-117.55571999967081, 33.45203800020957], [-117.55577499992239, 33.45202900012712], [-117.55595599967238, 33.45199900034526], [-117.55615099966603, 33.451966000273394], [-117.5577540001714, 33.45170799982392], [-117.55810499980068, 33.45165100031835], [-117.55851200040478, 33.451585999744985], [-117.5597319996972, 33.45140400027895], [-117.55983999965221, 33.45138799968165], [-117.56007700037699, 33.45142099997346], [-117.56094600004013, 33.45155999995176], [-117.56456600042935, 33.45202300032149], [-117.56464099987411, 33.45203499993234], [-117.5647010001486, 33.452039999894666], [-117.56607699997494, 33.45221800016318], [-117.56629600025803, 33.452246000188985], [-117.56727500042433, 33.45237399987072], [-117.56793200037536, 33.45245399966954], [-117.56818199972233, 33.45248599971831], [-117.56880000021361, 33.4525629999044], [-117.56947300005815, 33.452649999876606], [-117.5695750001654, 33.45266299998556], [-117.57210500006025, 33.452986999996185], [-117.57305499991423, 33.453107999773], [-117.573172999915, 33.45312300022292], [-117.57331699985507, 33.45314199998958], [-117.57333899959636, 33.45314600005832], [-117.57420899998272, 33.45325600000137], [-117.57851300008716, 33.45380599987211], [-117.57960199985831, 33.44981799979433], [-117.58062500040558, 33.4459470003408], [-117.5834160004163, 33.43538299984037], [-117.58833200026592, 33.41677800011393], [-117.58879300039838, 33.415030999878624], [-117.5889499998589, 33.41446800031793], [-117.58899599988966, 33.41426499964369], [-117.58954400006076, 33.41219200033149], [-117.59013499988953, 33.40995300006767], [-117.59024299984459, 33.40954699963474], [-117.59056300041003, 33.408337999813675], [-117.59078400034295, 33.40750800029973], [-117.59102500036738, 33.40659399963251], [-117.59107399987286, 33.40651299993078], [-117.59128499976009, 33.40569999987999], [-117.59131900009525, 33.405564999945774], [-117.59239699999576, 33.40149099991836], [-117.59300999956587, 33.39920000037253], [-117.59323600041999, 33.39834300010573], [-117.59352000010215, 33.39724699997589], [-117.59356600013287, 33.39707200013363], [-117.59362300003428, 33.39684600030445], [-117.5936869996084, 33.396605000170965], [-117.59375500027876, 33.3963490003583], [-117.59378100021803, 33.39624000001872], [-117.59393799967854, 33.39563000028775], [-117.59408699964148, 33.39505999974318], [-117.59414299971796, 33.39484200019403], [-117.59416799983232, 33.394779000077996], [-117.59415899961148, 33.39471500016329], [-117.59415500031184, 33.39470499963334], [-117.59415799978659, 33.39468899983298], [-117.59416500035759, 33.39466300024484], [-117.59417700005316, 33.394617000319855], [-117.59424800019825, 33.39434400028035], [-117.59427300031263, 33.394249999801815], [-117.59435000030552, 33.39395599986691], [-117.59440100035913, 33.39376200013565], [-117.59450000009335, 33.393380000234146], [-117.59451000013908, 33.39334800014262], [-117.59463999983544, 33.3928860000396], [-117.59473299972184, 33.39257100016367], [-117.5947439995925, 33.39250899967984], [-117.59510400034094, 33.39114600014085], [-117.59520499972496, 33.390764999790996], [-117.5958909999883, 33.38816200037361], [-117.59608500015707, 33.38747199983952], [-117.59620300015781, 33.38689500015058], [-117.59608400033216, 33.38594500020526], [-117.5965539997871, 33.38437700001718], [-117.59660499984074, 33.384207999758644], [-117.59677200024532, 33.383655000287305], [-117.5967799997429, 33.38362899964908], [-117.59724599989826, 33.38190899999574], [-117.5986440003642, 33.37674800023125], [-117.59911100034445, 33.37502900023387], [-117.60150399997191, 33.36682100017514], [-117.6086839995776, 33.34219800024348], [-117.61103899957024, 33.3341250002273], [-117.61108100030137, 33.33399199965253], [-117.58876900010893, 33.32175500005874], [-117.57153099994989, 33.31230200034596], [-117.54960100024721, 33.29441799992361], [-117.52843300007751, 33.27551200005298], [-117.52099900002865, 33.26887200013227], [-117.51208899969598, 33.256214999977765], [-117.51121800038301, 33.25497800033171], [-117.50860700029732, 33.2512689997819], [-117.50773699991097, 33.25003399980436], [-117.50636399955934, 33.2484570003621], [-117.50224699995098, 33.24372700032604], [-117.5008750003226, 33.24215099978228], [-117.50043799958128, 33.24175899972708], [-117.50000099973828, 33.241366000157306], [-117.48759800013632, 33.23022099993204], [-117.4678710000903, 33.21249399980764], [-117.44953599976418, 33.19264099973683], [-117.43742600006516, 33.179529999881765], [-117.43556300016711, 33.17751200013599], [-117.43157399970694, 33.17061400012549], [-117.43073400035613, 33.169162000062904], [-117.42042599955747, 33.15134000009286], [-117.41548100029388, 33.14279099970406], [-117.41011699983227, 33.13351700007662], [-117.40913600001615, 33.13182099975493], [-117.40619299966941, 33.12673300004616], [-117.4052129996782, 33.12503800015522], [-117.40519199976181, 33.125002999914756], [-117.39926199958578, 33.11512199976266], [-117.39914699995802, 33.1149309997808], [-117.3922379996157, 33.10341799967755], [-117.38167600017049, 33.08521699984335], [-117.37587200039114, 33.075217000339464], [-117.3757490003675, 33.074814999807316], [-117.37538100012148, 33.07360999965341], [-117.37525899992274, 33.07320899973033], [-117.37512900022641, 33.07278300004764], [-117.3750659995789, 33.072575999764595], [-117.37500200000478, 33.07236899974732], [-117.3728489996785, 33.06532299964551], [-117.36936800010477, 33.05392899987199], [-117.36831299977047, 33.05047500017745], [-117.3660130000294, 33.04294600036228], [-117.36373500002965, 33.03548899978337], [-117.3637109997402, 33.035411000227676], [-117.3636399995951, 33.03517899984729], [-117.36361700002888, 33.03510200012161], [-117.36234699960941, 33.03094799996769], [-117.35853999962244, 33.01848599966689], [-117.35727199975116, 33.014333000094744], [-117.35631500022446, 33.01120100003469], [-117.35344399984777, 33.00180599968839], [-117.352488000146, 32.99867499980682], [-117.35157699975177, 32.99569400030246], [-117.34884600001546, 32.986753000164754], [-117.34793600034445, 32.98377300026406], [-117.34749799977823, 32.98234199993681], [-117.34618700024919, 32.97804899995456], [-117.34575000040621, 32.97661800029919], [-117.34348599975183, 32.96920899968608], [-117.33669699995842, 32.94698399986382], [-117.33443400002726, 32.93957600023436], [-117.32812599955945, 32.91893000034119], [-117.32327900020512, 32.90306400014598], [-117.33200500041477, 32.88357800025875], [-117.33263999972617, 32.88216100007555], [-117.33966000039658, 32.85916700030974], [-117.33981100000933, 32.85794800012622], [-117.34200000032062, 32.84035400012088], [-117.34077099990908, 32.836696999672455], [-117.34003799979006, 32.8345170002224], [-117.33784199980606, 32.827975999840525], [-117.33711100023521, 32.82579700011739], [-117.3362740003591, 32.823303999898144], [-117.33497999965022, 32.819450000164665], [-117.3338170002592, 32.81581400018157], [-117.33301700019302, 32.81331100017809], [-117.33220100023333, 32.810761000240696], [-117.33029999980214, 32.804816999637865], [-117.3301850001744, 32.803030000212175], [-117.33001500029509, 32.800360000080715], [-117.32988999972332, 32.79841200010285], [-117.3295159996295, 32.792573999810266], [-117.32939199978094, 32.79062799962293], [-117.32891599957988, 32.78318900008126], [-117.32857499999635, 32.77785799998989], [-117.32775800021174, 32.76508900013924], [-117.327487999875, 32.760875000030246], [-117.32738499994285, 32.75926300013876], [-117.32701300039716, 32.75343699969699], [-117.32698200043502, 32.7529640003475], [-117.32689200002334, 32.75154500007111], [-117.32686199988609, 32.75107199974014], [-117.32671100027338, 32.74872099965095], [-117.32626000018666, 32.741666999961005], [-117.32611000039883, 32.73931800036569], [-117.32576999974188, 32.73400899987048], [-117.32561999995406, 32.731652999623954], [-117.32410699986038, 32.718143999923406], [-117.32351600003159, 32.7128589998713], [-117.32180100027152, 32.69754999987682], [-117.32093900028109, 32.689846999792906], [-117.30923899976257, 32.656401000256416], [-117.30734800027544, 32.654037000010575], [-117.29772800028829, 32.64200700004347], [-117.29753800031749, 32.6417690002424], [-117.29397499982967, 32.63858699976007], [-117.285837999799, 32.6313179997494], [-117.28260499992237, 32.62843499998066], [-117.27881399982894, 32.6250529997032], [-117.27691599977076, 32.623473999969356], [-117.27596300044205, 32.62313500031729], [-117.27409999964567, 32.62222100028158], [-117.27366399962759, 32.6220449997925], [-117.27259199957484, 32.621612000194354], [-117.27124599988572, 32.62070000022475], [-117.26878899978584, 32.619414999653216], [-117.26732099989799, 32.618907000222855], [-117.26501799978388, 32.618160000112766], [-117.26311300005302, 32.61764999981813], [-117.26077099958083, 32.61687000024637], [-117.25678000036918, 32.61590199972913], [-117.25656100008605, 32.615848999918406], [-117.25509200037328, 32.615473999918954], [-117.25199400021587, 32.61486000006597], [-117.25086899956139, 32.614856000348894], [-117.24678600028821, 32.61485399973363], [-117.2458770004421, 32.61498900030438], [-117.2406600002936, 32.61576600023753], [-117.23351300029987, 32.61667799977517], [-117.23113599966759, 32.617526999784026], [-117.22840800030437, 32.618501999733404], [-117.22655399972884, 32.61949599997956], [-117.22590299962557, 32.61984399979125], [-117.22395199986396, 32.62088899967254], [-117.22330199958564, 32.62123800035839], [-117.2231440003002, 32.620898999804346], [-117.22266999974897, 32.61988400002207], [-117.22251300028843, 32.61954599989223], [-117.21928999955925, 32.612636999985206], [-117.2181959997652, 32.61029200017806], [-117.21411199976879, 32.59478099979084], [-117.21333400034224, 32.59061500021571], [-117.21247900002452, 32.58603499996321], [-117.21207200031873, 32.58385699975371], [-117.21193599987629, 32.58312399969115], [-117.21002500029766, 32.572882999796164], [-117.21002500029766, 32.572304999678195], [-117.21002500029766, 32.554633999925436], [-117.20705199981373, 32.53961600006615], [-117.2050509998234, 32.52950800017594], [-117.19968899990992, 32.529824999893634], [-117.12606999984446, 32.53418899967783], [-117.12471900013246, 32.53426699994308], [-117.12465600038327, 32.534271000226724], [-117.12418799967982, 32.53431699968915], [-117.1227700000207, 32.53445199962174], [-117.11906299959281, 32.534771000198994], [-117.11887900036811, 32.534786999728034], [-117.104050999555, 32.53606199989539], [-117.10163100016334, 32.53627100007606], [-117.08626400029826, 32.53758899995754], [-117.06673300007084, 32.539261000250264], [-117.06263599965564, 32.5396109996305], [-117.06258700015015, 32.53961499967612], [-117.06248300039306, 32.53962099974421], [-117.06213600006342, 32.53964999968905], [-117.061999999621, 32.53966599986345], [-117.04201800020519, 32.54137500018857], [-117.04040200017931, 32.541514999686164], [-117.03998799990255, 32.541547999736125], [-117.03636900023655, 32.541857999842556], [-117.030270999831, 32.542378999955666], [-117.02990099993515, 32.542413000046906], [-117.02968300037527, 32.542428999729054], [-117.02935899961187, 32.542456000322076], [-117.02894299968524, 32.54249200034287], [-117.02835299968139, 32.542542000053345], [-117.02693599984715, 32.54266399965408], [-117.02661299980697, 32.54269100017648], [-117.01159999994421, 32.543973000320406], [-117.00085299965276, 32.544891000142044], [-116.99725400007824, 32.54519799983908], [-116.97499999961215, 32.54709099996365], [-116.97006600021919, 32.54750599984225], [-116.96310300034847, 32.54810399980766], [-116.93889800012077, 32.550151999977125], [-116.93837699971385, 32.55019599984667], [-116.93728000044509, 32.550289000119456], [-116.9279960000186, 32.5510769997852], [-116.90092000031251, 32.55336499988345], [-116.89282099991665, 32.55405999974762], [-116.8750530000282, 32.55556900033918], [-116.85302200004318, 32.557436000140235], [-116.82907200008358, 32.55946100003532], [-116.82417999962507, 32.55987100019793], [-116.82221499961977, 32.560038999631104], [-116.81793300015497, 32.56040200032028], [-116.80592600038814, 32.56141700013684], [-116.79968400004255, 32.56194399963056], [-116.79605100013283, 32.562246000124674], [-116.78674800033811, 32.56303299991274], [-116.78254600034093, 32.56338600010893], [-116.75729599982466, 32.56550699967809]]]}, "properties": {"GEOID": "06073", "NAME": "San Diego County"}}]}