{"type": "FeatureCollection", "features": [{"type": "Feature", "geometry": {"type": "Polygon", "coordinates": [[[-122.47282999989976, 37.83189199991058], [-122.4722480002918, 37.832106999912085], [-122.47003700023919, 37.8329450001255], [-122.46807899990657, 37.83368699976042], [-122.45398300028586, 37.83902699972501], [-122.445483000032, 37.84242700023839], [-122.4336250002281, 37.84691199982289], [-122.4242269999988, 37.85044999968579], [-122.42247500042882, 37.85111000002694], [-122.41871000027463, 37.85249100014448], [-122.41867299956641, 37.8525049996686], [-122.41878200024466, 37.853425000262476], [-122.41879399994023, 37.85349599991133], [-122.41925800044572, 37.856453999896104], [-122.41988100006158, 37.860425000166], [-122.41990700000085, 37.86057900019731], [-122.42034200019401, 37.86320300027011], [-122.42037999982885, 37.86342600024239], [-122.42083599993843, 37.86624699988893], [-122.42216200043438, 37.874435999794166], [-122.42248299992643, 37.87642599970068], [-122.42268299994296, 37.87812600028425], [-122.42408300005876, 37.88462599979453], [-122.42758299989906, 37.904025000144586], [-122.4301830001141, 37.91842499976442], [-122.43228299983862, 37.929824000068926], [-122.43261000007678, 37.9307400002546], [-122.43359199971782, 37.933489000079824], [-122.43378300041184, 37.9340240000799], [-122.43388299997095, 37.93422399969587], [-122.43396499998674, 37.9343870001247], [-122.4339830004284, 37.934424999898845], [-122.43399799959866, 37.93445999980401], [-122.43416900020122, 37.934873000118436], [-122.43477900029659, 37.936335999807625], [-122.43498299961276, 37.93682399973963], [-122.436182999712, 37.94094300000596], [-122.43978300000974, 37.953303000270665], [-122.4409839999339, 37.95742299986972], [-122.44108299966813, 37.958061999812315], [-122.4413830001421, 37.95998299987086], [-122.44148400042442, 37.960623000270814], [-122.44148400042442, 37.961797999704366], [-122.44148400042442, 37.96532499993916], [-122.44148400042442, 37.966500999901555], [-122.44148400042442, 37.966804999954704], [-122.44148400042442, 37.967718000321625], [-122.44148400042442, 37.968023000258384], [-122.44150399961761, 37.96858299988527], [-122.44156399989205, 37.970263000047886], [-122.44158399998354, 37.97082300029299], [-122.44158399998354, 37.97239000030041], [-122.44158399998354, 37.97392299981534], [-122.43944999992382, 37.97626799965102], [-122.43839600031275, 37.9774279997116], [-122.4349270004346, 37.98124099966066], [-122.42452099972668, 37.99268099981496], [-122.42248399975132, 37.994921999911696], [-122.42108299981064, 37.99652200023294], [-122.41793799979757, 37.99992200005692], [-122.4171229996628, 38.000802000058464], [-122.41368300009692, 38.004521999960495], [-122.40522600039911, 38.01362499965184], [-122.40125799985533, 38.01789799982211], [-122.39956200036187, 38.01972200019513], [-122.39447699955952, 38.02519599973774], [-122.39278299971585, 38.0270210001863], [-122.39137599992738, 38.028816000187184], [-122.39077599987775, 38.02958100017335], [-122.38475700001325, 38.037262999852416], [-122.38275100000008, 38.03982400030646], [-122.38139600009012, 38.04155200017202], [-122.37733399983503, 38.046737000183455], [-122.37665799961742, 38.04759999974982], [-122.37597999975002, 38.048465999897395], [-122.37447500005221, 38.04977400027915], [-122.36995900023568, 38.053697999842065], [-122.36845500036283, 38.05500600010706], [-122.36425400019056, 38.058655999900516], [-122.35165400004676, 38.06960800035154], [-122.3474539996994, 38.073260000074065], [-122.36835999992827, 38.07831100033604], [-122.39532299965644, 38.084826999771586], [-122.43108000026466, 38.09346700034844], [-122.4431930003367, 38.09639400004369], [-122.4454179997347, 38.096932000226865], [-122.4476439998559, 38.097469999984085], [-122.44981600044879, 38.09799399987963], [-122.4519870003184, 38.09851899985856], [-122.4534660000769, 38.09893899995378], [-122.4579070004487, 38.10019899989393], [-122.45938700003212, 38.10061900022995], [-122.4651249996892, 38.102289999884654], [-122.46968700043482, 38.10361900008205], [-122.48233899955882, 38.10730100032671], [-122.48399700031578, 38.10778400013775], [-122.48807799993914, 38.108971999835966], [-122.48915900021268, 38.10928600014788], [-122.4899190000959, 38.109507999693484], [-122.49121700010441, 38.10990500031899], [-122.49140100022746, 38.10995799977813], [-122.49223599955538, 38.110201000353406], [-122.49239700011218, 38.11025099986828], [-122.49335199998904, 38.11055300005554], [-122.49347500001268, 38.11057500033405], [-122.49391000020587, 38.1106479999897], [-122.4944819997681, 38.110745000077706], [-122.49502200044158, 38.11082200011416], [-122.49553499955425, 38.11089699979625], [-122.49674100039961, 38.11101199986603], [-122.49788500042234, 38.11112500019462], [-122.49906000040723, 38.11134599967514], [-122.49967100032752, 38.11148100019941], [-122.4999600000325, 38.111544999920945], [-122.50055500005928, 38.111780999999894], [-122.50108899998666, 38.112119000306215], [-122.50158899957886, 38.112318999976736], [-122.50162600028709, 38.112330999967845], [-122.50190300029651, 38.11242400018532], [-122.50281999964024, 38.11300199974839], [-122.50401700026474, 38.11395400003343], [-122.5049029996463, 38.11473399980261], [-122.50562300024485, 38.115448999870765], [-122.50566599990258, 38.115487999930174], [-122.50570699991044, 38.11552599989551], [-122.5060340001486, 38.11582499997463], [-122.50685799960587, 38.11665599968662], [-122.50698700037562, 38.116830000340094], [-122.50792600035895, 38.11809800017046], [-122.50884100005285, 38.11979199966747], [-122.50971100043924, 38.12147800021522], [-122.51045899972856, 38.1230269999238], [-122.5109009995944, 38.12441500019813], [-122.51129099958175, 38.124919000155835], [-122.51131200039646, 38.125145999943975], [-122.51137400032076, 38.12582700002021], [-122.51151200041299, 38.12714700028278], [-122.51161399962196, 38.12756100027923], [-122.51183200008015, 38.12844400026541], [-122.51247300013765, 38.13030499979435], [-122.5131040001494, 38.13211999996085], [-122.51314400033237, 38.13223499981941], [-122.51401399982045, 38.13378299969605], [-122.51422999973049, 38.13409300003986], [-122.51500600040552, 38.135201999945295], [-122.51521100044495, 38.13550199979912], [-122.5152499999047, 38.13556000016553], [-122.51529000008767, 38.135617999779384], [-122.51595200006159, 38.1364539999587], [-122.51651399957802, 38.13709699979284], [-122.5168979997176, 38.13753700030759], [-122.51792000043994, 38.13864300018529], [-122.51838800024508, 38.13911099993222], [-122.5190190002568, 38.1397419999466], [-122.5201020001802, 38.14069600006487], [-122.52062500023695, 38.141126000022986], [-122.52109399986699, 38.14151200000895], [-122.52212499991185, 38.14232700030567], [-122.52222299982115, 38.14240499994865], [-122.52396400041877, 38.14351100022308], [-122.52603900002893, 38.1445560000149], [-122.5270580003782, 38.145024999655014], [-122.52757999971172, 38.1452660000583], [-122.52795700017856, 38.14542699977271], [-122.529548999915, 38.146105000288024], [-122.53156300032411, 38.14714999965954], [-122.53325700016777, 38.14811899975253], [-122.53482799998778, 38.14920200004101], [-122.5363849995641, 38.150431000156075], [-122.53769699981633, 38.151514000025806], [-122.53876499967109, 38.15252899991605], [-122.53954800001883, 38.15330700025327], [-122.54010799988548, 38.15386399997845], [-122.54083599998161, 38.15455599967588], [-122.5414970001306, 38.155184000316325], [-122.5418700003995, 38.15562800004342], [-122.54276400017702, 38.15669400031252], [-122.54370999983303, 38.15806800033304], [-122.5444730000893, 38.158715999918144], [-122.54455400028014, 38.158732000096634], [-122.54464999964128, 38.1587510001275], [-122.54471800031166, 38.15876399973678], [-122.54474599990077, 38.15877000015336], [-122.54499199994804, 38.15881799993651], [-122.54521200005607, 38.158768999966256], [-122.5453760000876, 38.15873300028425], [-122.54540000037704, 38.158726999864676], [-122.54547599964674, 38.15871000020347], [-122.54550099976109, 38.158704999969956], [-122.54569300028001, 38.15866299983145], [-122.54627300023814, 38.15836500023962], [-122.54656600014111, 38.15815899981462], [-122.54683800012765, 38.157968999859925], [-122.54760100038389, 38.15747300021773], [-122.54834100017563, 38.15727299993163], [-122.54853199997133, 38.157220999710894], [-122.5496149998947, 38.15728999992783], [-122.549860999942, 38.157370999730645], [-122.54992799988916, 38.15739199982185], [-122.55068299974948, 38.1576330003342], [-122.5510850003307, 38.15773400025345], [-122.5512409999663, 38.15778700030901], [-122.55171100031959, 38.15794699973652], [-122.55175099960425, 38.157960999687376], [-122.55187100015318, 38.157989000287365], [-122.55297199961988, 38.15825100008321], [-122.55299799955915, 38.15825699983564], [-122.5537959999755, 38.15845700024831], [-122.5548029997309, 38.158654999735106], [-122.55591699961641, 38.15899100020234], [-122.55688200043733, 38.15945500008501], [-122.55713799963206, 38.15957799994394], [-122.5579159999569, 38.16015800014076], [-122.55818999959332, 38.16059299990944], [-122.55837299989142, 38.161187999993764], [-122.55843499981569, 38.16197400021486], [-122.5582669995862, 38.162821000012364], [-122.5580830003615, 38.16329500008119], [-122.55799200012491, 38.16353000012895], [-122.55790799956098, 38.16364299968088], [-122.55736000028824, 38.16437199966215], [-122.55683200020862, 38.164858000073025], [-122.55618600012825, 38.16532799992901], [-122.5559929997844, 38.165467999976606], [-122.55507800009052, 38.16591799977167], [-122.55349200020187, 38.16661800013104], [-122.55332300014747, 38.16672700023498], [-122.55295699955128, 38.1670320000679], [-122.55195999984163, 38.16814999981798], [-122.55196999988738, 38.16878200011058], [-122.55197999993311, 38.16900100008684], [-122.55209200008609, 38.16911799981415], [-122.55214800016259, 38.16921399984856], [-122.55265100012784, 38.16966399982514], [-122.55317300035966, 38.169918999802796], [-122.55329200018534, 38.16997700034896], [-122.55396000000704, 38.170063999669196], [-122.55432099968205, 38.17011199978546], [-122.55558100005577, 38.16995400028406], [-122.55628300021263, 38.169710000130756], [-122.55681700014001, 38.169408999661584], [-122.55758000039626, 38.16897799971391], [-122.55892500026046, 38.16868800031564], [-122.55924300027777, 38.16861900029131], [-122.56013399968222, 38.16868700026459], [-122.56093799994633, 38.16874899987329], [-122.5619909997325, 38.168955000039986], [-122.56319300037987, 38.16931800009627], [-122.56400500014162, 38.170237000087056], [-122.5641220003175, 38.170444000312784], [-122.56426399970937, 38.17069400026906], [-122.5641580003025, 38.17167899984513], [-122.56409700020312, 38.17282300021082], [-122.56399300044603, 38.17351800001378], [-122.56435900014395, 38.17473600026083], [-122.56446299990101, 38.17508099972906], [-122.56459299959737, 38.17511799977565], [-122.56495099979763, 38.17541700005452], [-122.5657290001225, 38.175722000246495], [-122.56672099980929, 38.175936000091504], [-122.56762100033285, 38.1763320003318], [-122.56837299982014, 38.17682800019358], [-122.56838399969081, 38.176835999708075], [-122.56849300036907, 38.17701799972465], [-122.56846099968371, 38.17727899970006], [-122.56817100015378, 38.17775899994156], [-122.56743800003478, 38.178361999788976], [-122.56654400025728, 38.1790670002287], [-122.5664620002415, 38.17913100000299], [-122.5662930001871, 38.17941699989641], [-122.56617099998836, 38.179796999790874], [-122.5660949998204, 38.180032000304095], [-122.5659759999947, 38.18020899993479], [-122.56593400016189, 38.180269999735856], [-122.56589300015402, 38.180332000083226], [-122.56560699992376, 38.180756999950844], [-122.5654699996564, 38.18111000032218], [-122.56519500019512, 38.181817000041704], [-122.5651309997227, 38.1820690002618], [-122.56509300008786, 38.182217000265], [-122.56528200023374, 38.18271400017503], [-122.56551400003735, 38.18294000034823], [-122.56584299992531, 38.18314199982845], [-122.56681899971858, 38.18342000001504], [-122.56788099972556, 38.1838010000588], [-122.56792500010648, 38.1838339998354], [-122.5680039997492, 38.18389500013197], [-122.5682919996293, 38.18411600026943], [-122.56850500006463, 38.184174000108136], [-122.5689329996868, 38.18452399995675], [-122.5691159999849, 38.184752999655785], [-122.56957299991939, 38.18528699974344], [-122.56975600021751, 38.185981999999385], [-122.57019800008338, 38.186737000210265], [-122.57059100044376, 38.187117000053995], [-122.57073200001076, 38.18714199994638], [-122.5719379999578, 38.18714999974067], [-122.57237999982365, 38.1870820000491], [-122.5725020000224, 38.18706700024355], [-122.57277700038202, 38.18689899995123], [-122.5730359999498, 38.18666299989484], [-122.57315800014852, 38.18640300015624], [-122.5731909997605, 38.18631800018978], [-122.57317400004204, 38.1861440000073], [-122.57317400004204, 38.18587699971034], [-122.57241199961071, 38.185258999743496], [-122.5716490002528, 38.18491500027848], [-122.57119200031829, 38.18471700009609], [-122.57093100020238, 38.184594000289565], [-122.57064199959908, 38.18440300020125], [-122.57053500036727, 38.18415899970385], [-122.57056499960618, 38.1837699999555], [-122.57069299965268, 38.18351799997015], [-122.57090199989007, 38.18352700000985], [-122.57169299973542, 38.18351799997015], [-122.57323699979123, 38.18329899983813], [-122.57361799955774, 38.18334500001076], [-122.57434800020202, 38.18352799985727], [-122.57820100021975, 38.18358299991809], [-122.57844100041925, 38.183714000191], [-122.57905200033956, 38.184573000267385], [-122.57967800032844, 38.18537899966739], [-122.57979899980396, 38.185535999798816], [-122.57992699985049, 38.18549199994452], [-122.58005499989697, 38.18544700024257], [-122.58025800028659, 38.18541699995508], [-122.5803450003252, 38.185412999962885], [-122.58047599984647, 38.18542499993882], [-122.58060600044112, 38.185468000012804], [-122.58080800010747, 38.185605999865295], [-122.58095299987244, 38.18571700015559], [-122.58110199983534, 38.18577900010418], [-122.58130500022496, 38.18584400015308], [-122.58162800026514, 38.186005999761804], [-122.58186400026668, 38.18611300019489], [-122.58195700015311, 38.18617199966704], [-122.58203999999377, 38.18629600014907], [-122.58206099991017, 38.186406000286176], [-122.58207500015388, 38.18671399978633], [-122.58206799958288, 38.1869340000441], [-122.58210199991807, 38.18705499983207], [-122.58199399996303, 38.18731699965871], [-122.58196200017598, 38.18746900017719], [-122.58193500041179, 38.187599999816754], [-122.58187400031242, 38.18771499975893], [-122.58193500041179, 38.18783700015611], [-122.5820419996436, 38.187936000310806], [-122.5821179998116, 38.18802000001562], [-122.58219800017753, 38.18801699995221], [-122.58233600026979, 38.187973000184314], [-122.58234700014046, 38.187963999987815], [-122.5824579995702, 38.18787400007991], [-122.58264099986829, 38.187690999853544], [-122.58264900026424, 38.18767699996392], [-122.58276300006703, 38.18748499969302], [-122.58289799978625, 38.18731699965871], [-122.58293600031942, 38.187264999687194], [-122.58300999993926, 38.187162000136496], [-122.58302800038092, 38.18714199994638], [-122.58312600029022, 38.18704099982022], [-122.58330000036747, 38.18697500033321], [-122.58349000033827, 38.18699300026342], [-122.58362400023258, 38.187022000102424], [-122.58370899972307, 38.18704099982022], [-122.58380400015764, 38.18713199984926], [-122.58386799973175, 38.18719300020853], [-122.58391100028777, 38.18731699965871], [-122.58392499963314, 38.18740499996037], [-122.5839639999912, 38.18764600009785], [-122.58407100012131, 38.18777600033608], [-122.58420900021359, 38.187907999916966], [-122.58425400041943, 38.187950999937364], [-122.58437599971984, 38.18800799976115], [-122.58451399981212, 38.18807299993927], [-122.58471200017884, 38.188049999937185], [-122.58495599967802, 38.18796600026691], [-122.58520000007547, 38.18792799989676], [-122.58559400026077, 38.18781700015127], [-122.5858570000265, 38.187911999772155], [-122.58593300019447, 38.187884000075165], [-122.58625700005958, 38.18776499983067], [-122.58650099955872, 38.1878570001554], [-122.58662299975748, 38.1878419998034], [-122.58669100042785, 38.18779700014099], [-122.58677799956817, 38.1877379998668], [-122.58680600005557, 38.1877209999106], [-122.58686100030715, 38.187544999964416], [-122.58687899985053, 38.18746500029767], [-122.58691200036078, 38.18729300032822], [-122.58701600011787, 38.18714999974067], [-122.58713199957049, 38.187057999935156], [-122.58722100015729, 38.186987999851766], [-122.58751099968717, 38.186944000168396], [-122.58770999987881, 38.186869000261765], [-122.58778900041985, 38.18679800019423], [-122.58786600041273, 38.18672399994084], [-122.58790700042063, 38.186691000061174], [-122.58810300023919, 38.18654200016181], [-122.58829800023287, 38.18647700002969], [-122.58855500015083, 38.18647099977561], [-122.58906399996384, 38.186625000257116], [-122.5894260003621, 38.186691000061174], [-122.58978799986203, 38.186625000257116], [-122.58996199993932, 38.186536999719195], [-122.59001100034311, 38.18640099983422], [-122.59003800010727, 38.18632799969261], [-122.59009400018378, 38.18607500027026], [-122.59032299961433, 38.185959999857204], [-122.59050000006465, 38.18593699989403], [-122.59057399968448, 38.185927000337585], [-122.59067699961663, 38.185932000115976], [-122.59089400024995, 38.185943000192104], [-122.59114500032013, 38.185992000254366], [-122.59119399982559, 38.18603000022235], [-122.59133600011582, 38.186139000243415], [-122.59143700039817, 38.18621700033331], [-122.59174199999669, 38.1864510001018], [-122.59184400010393, 38.18652899985763], [-122.59180800011893, 38.18664599968777], [-122.59171600005743, 38.186944000168396], [-122.59161099957713, 38.18716399973158], [-122.59159399985867, 38.18731699965871], [-122.59147599985788, 38.187585999909636], [-122.59145699959133, 38.1876309997024], [-122.59188400028691, 38.188049999937185], [-122.5924180002143, 38.188606999695736], [-122.59260099961406, 38.18877500028518], [-122.59281499987432, 38.18878299990014], [-122.59322699960298, 38.18866800023196], [-122.59401499997357, 38.18850699996788], [-122.59427600008948, 38.188465000055345], [-122.59434999970932, 38.18845399965399], [-122.59454899990095, 38.1884230001186], [-122.59492999966747, 38.18838499998686], [-122.59505199986621, 38.1882250002923], [-122.59522000009568, 38.18816400009117], [-122.59529399971552, 38.18811700035278], [-122.59528700004284, 38.188003999911224], [-122.59562099995368, 38.18779899971866], [-122.59568899972574, 38.18775899968267], [-122.59571399984011, 38.187744999806114], [-122.59598800037479, 38.187608000266835], [-122.5961909998661, 38.18753599971504], [-122.59657800037867, 38.18740000028303], [-122.59691399993936, 38.1874380002226], [-122.59735699963012, 38.18753800000594], [-122.59738699976737, 38.187544999964416], [-122.59755499999687, 38.18749900032563], [-122.59790499980122, 38.18735099975575], [-122.59816900029016, 38.18719400000564], [-122.59845200014739, 38.18698300014585], [-122.59862799987448, 38.18685299990449], [-122.59933800042727, 38.18629200020519], [-122.6000229999674, 38.18577900010418], [-122.60024899992321, 38.185610999665776], [-122.6005069996661, 38.185452000053914], [-122.60057600016138, 38.18542199976853], [-122.60064499975834, 38.185392000176854], [-122.60072299957613, 38.18535899969379], [-122.60085399999572, 38.185301999915474], [-122.60090199967628, 38.18528199992078], [-122.60091699974491, 38.18526299974415], [-122.60108400014948, 38.18499000007863], [-122.60139200012105, 38.184418999684425], [-122.60141100038763, 38.18438600017287], [-122.60145300022043, 38.18407800000915], [-122.60151500014469, 38.18374299992313], [-122.60163999981818, 38.18334199975477], [-122.60172400038208, 38.18323199993384], [-122.60191900037574, 38.18302300031077], [-122.6022320003702, 38.182765000006654], [-122.60269099995449, 38.18224199972057], [-122.60283999991742, 38.18201500033845], [-122.60288599994816, 38.18194600022127], [-122.60298300003257, 38.181763999803216], [-122.603183999874, 38.18123099989785], [-122.60324199960031, 38.18113799979833], [-122.60333700003488, 38.18098399972178], [-122.60350500026439, 38.180852000304974], [-122.60378300009873, 38.18074200025524], [-122.60411000033686, 38.18063200003944], [-122.60509799982569, 38.180461999957025], [-122.60541099982014, 38.180450999759394], [-122.60563400030121, 38.18042800017537], [-122.60603099996126, 38.18054400002966], [-122.60613800009138, 38.18064099972951], [-122.60616999987843, 38.18066999997868], [-122.60634399995568, 38.18071900005693], [-122.60686600018752, 38.18081799999922], [-122.60768799999498, 38.18102599971078], [-122.60788999966134, 38.1810319997072], [-122.6081330002339, 38.18094900030092], [-122.60829300006748, 38.18084000028194], [-122.60847399981743, 38.180762999969424], [-122.60870399997121, 38.18077300023473], [-122.60897500013287, 38.18088300023766], [-122.60933699963282, 38.18119099978607], [-122.60976199978025, 38.181266999767836], [-122.6099989996067, 38.18129999998608], [-122.61026300009567, 38.1812230001597], [-122.61059700000649, 38.18108599965297], [-122.61104300007034, 38.180877000228975], [-122.61130699966098, 38.180772000349506], [-122.61160600031003, 38.180733999757265], [-122.61193299964987, 38.18067899966411], [-122.61224700036756, 38.18058499967832], [-122.6125040002855, 38.1805909997111], [-122.6130540001064, 38.18081000021573], [-122.61335399968206, 38.18095299983207], [-122.6135899996836, 38.18115599975855], [-122.61377800000459, 38.181369999886], [-122.61392500031768, 38.18160100006723], [-122.61410600006766, 38.181837000281575], [-122.6143699996583, 38.18200699998025], [-122.61459399996428, 38.18212599974518], [-122.61467000013226, 38.18216699991586], [-122.61488600004233, 38.18226500014424], [-122.61510899962508, 38.18235300019371], [-122.61547000019841, 38.18240799972933], [-122.6167509995902, 38.18244600015455], [-122.61767700005305, 38.182396999825556], [-122.61790700020684, 38.18238500005699], [-122.61883199994648, 38.182312999991794], [-122.61906899977292, 38.182416999906145], [-122.61934800033052, 38.182482999992075], [-122.61936000002608, 38.182487000145144], [-122.61957699976107, 38.18256499990856], [-122.61996699974839, 38.182653000301805], [-122.62018299965845, 38.182653000301805], [-122.62030099965922, 38.18256499990856], [-122.6205590003004, 38.182301000209385], [-122.62073199965444, 38.18209200003394], [-122.62094799956454, 38.18195999980003], [-122.62126099955896, 38.18192199982746], [-122.62145599955262, 38.18192199982746], [-122.62158899962202, 38.18195999980003], [-122.6216859997064, 38.18204200030515], [-122.62188099970007, 38.182376999739425], [-122.62197199993669, 38.182487000145144], [-122.62234799968031, 38.182601999685645], [-122.62264700032937, 38.1826240001358], [-122.62301600040031, 38.18249800003538], [-122.62336399965655, 38.18230000034514], [-122.6236699999783, 38.18210200011679], [-122.6237760002835, 38.18207299973147], [-122.62396200005632, 38.18202499972579], [-122.62414299980631, 38.182051999688724], [-122.62433799979999, 38.1821509999381], [-122.62463700044904, 38.18233200023168], [-122.62538499973836, 38.182397999688476], [-122.62540800020288, 38.18239400023665], [-122.62569500025806, 38.18233700025681], [-122.62576499967996, 38.18226400027943], [-122.62588299968071, 38.182145000033834], [-122.62597999976508, 38.18190800024134], [-122.62600800025251, 38.18168300027026], [-122.62592399968861, 38.18133200031185], [-122.62595700019887, 38.18116500009004], [-122.6260140001003, 38.18088099976407], [-122.6260939995679, 38.180815000345305], [-122.6261839999796, 38.1807600003133], [-122.62657399996694, 38.18073199998574], [-122.6267620002879, 38.18070999967035], [-122.6268729997177, 38.18067799977754], [-122.62704699979496, 38.18060099999996], [-122.62712399978786, 38.18055099995411], [-122.62716599962064, 38.180501999762875], [-122.62718700043536, 38.18044100015604], [-122.62717999986432, 38.18031499981101], [-122.62714499970424, 38.18024899987954], [-122.62704799961988, 38.18016700018104], [-122.62697099962698, 38.1800790003158], [-122.62697099962698, 38.179980000075545], [-122.62698499987069, 38.179925000119326], [-122.62700599978707, 38.17989199998445], [-122.62720099978075, 38.17974400020137], [-122.6275289998438, 38.179601000330614], [-122.62766100008828, 38.179496999927366], [-122.62770299992107, 38.179480000166485], [-122.62772999968526, 38.179480000166485], [-122.62777900008905, 38.17945299995652], [-122.62796700041002, 38.179415000088675], [-122.62804400040294, 38.1793710000683], [-122.62809299990842, 38.17931599965238], [-122.62813399991629, 38.17922200002664], [-122.62810700015211, 38.179040999774685], [-122.62809299990842, 38.17901400010821], [-122.62812800006853, 38.178914999833246], [-122.6281830003201, 38.17888700020894], [-122.62825299974199, 38.17887100021706], [-122.62842699981925, 38.17885400031012], [-122.6284850004439, 38.1788410000463], [-122.62855200039104, 38.178826999868186], [-122.6286779998894, 38.17878899967393], [-122.62903299971667, 38.17864600004737], [-122.62918599987752, 38.178596999987306], [-122.62932800016777, 38.17856599978818], [-122.62938800044222, 38.178553000179136], [-122.62965899970555, 38.17864600004737], [-122.62978400027734, 38.178712000018514], [-122.63001400043109, 38.17889899984752], [-122.63011099961717, 38.17891599974396], [-122.63020900042476, 38.17892100000351], [-122.63055000000831, 38.17888800012008], [-122.63080000025357, 38.17887800030223], [-122.63092599975194, 38.17888900003116], [-122.63100899959264, 38.17890500001909], [-122.6310649996691, 38.178927000173324], [-122.6311900002409, 38.17893300034259], [-122.63151699958075, 38.17898200017671], [-122.63166999974163, 38.178988000341455], [-122.63171900014542, 38.178999000053786], [-122.63203899981255, 38.178971999665585], [-122.63221999956254, 38.17890599992994], [-122.63244300004361, 38.17887800030223], [-122.63253299955699, 38.17888900003116], [-122.63274900036537, 38.178983000086504], [-122.63283300003096, 38.178999000053786], [-122.63284700027467, 38.179015999926946], [-122.63292300044262, 38.17902700034117], [-122.63304200026833, 38.17902700034117], [-122.63311800043628, 38.179015999926946], [-122.63319500042921, 38.17899399979959], [-122.63326400002616, 38.17895599969238], [-122.63333400034635, 38.17886799977687], [-122.63339700009554, 38.17870300009013], [-122.63346599969252, 38.17858800004476], [-122.63354299968542, 38.178515999758126], [-122.6336260004244, 38.178471999901056], [-122.6337030004173, 38.17845599981805], [-122.63386999992358, 38.178451000232705], [-122.63398100025167, 38.17846700031681], [-122.6342740001546, 38.17854400023111], [-122.63437100023899, 38.17856100021043], [-122.63451000015618, 38.17856100021043], [-122.63466999998974, 38.17860500001376], [-122.63474000030993, 38.17860500001376], [-122.63513000029728, 38.178664999831206], [-122.63526900021445, 38.17867100002205], [-122.63552000028461, 38.17863800002541], [-122.63564499995807, 38.17863800002541], [-122.63578399987524, 38.178648999790575], [-122.63594399970883, 38.17867700021245], [-122.6361880001063, 38.17874300015553], [-122.63632000035078, 38.178802999859286], [-122.63637600042726, 38.178841999958024], [-122.63643099978056, 38.178897000025565], [-122.63647299961335, 38.17896800002569], [-122.63651500034446, 38.1791929999073], [-122.63655600035233, 38.179269999760514], [-122.63675800001869, 38.179489999901676], [-122.6368340001867, 38.1796170001622], [-122.63701499993662, 38.17977100030351], [-122.63750899968106, 38.18005699980324], [-122.63752299992477, 38.1800779997149], [-122.63754399984114, 38.18008899996879], [-122.63794800007219, 38.18024899987954], [-122.63793100035377, 38.180216999784264], [-122.63793399982848, 38.18019900029827], [-122.63800300032378, 38.18023300018673], [-122.63827500031034, 38.18024399971112], [-122.63844900038762, 38.18027699968657], [-122.63890100029923, 38.18028400034281], [-122.6391170002093, 38.180287999910455], [-122.63947899970923, 38.18030999964713], [-122.63961099995373, 38.18028299974472], [-122.6397430001982, 38.18028299974472], [-122.64010499969814, 38.18033800013686], [-122.64048100034009, 38.18040900014509], [-122.6408639997564, 38.18049700031792], [-122.641503999989, 38.18066300006573], [-122.64215799956698, 38.18089899978773], [-122.64259699995813, 38.18099800019153], [-122.64269700041554, 38.181011000070555], [-122.64290300027987, 38.181036999821536], [-122.64316400039579, 38.181036999821536], [-122.64318100011423, 38.181036999821536], [-122.6433069996126, 38.18102599971078], [-122.6433409999478, 38.1810139997164], [-122.64378000033894, 38.1809810000747], [-122.64407200041698, 38.1809810000747], [-122.64437899966535, 38.18099800019153], [-122.64450400023712, 38.18100900030658], [-122.6445660001614, 38.18102200018358], [-122.6445800004051, 38.18102499982898], [-122.64503499979145, 38.181048999812134], [-122.64512699985298, 38.18105499980671], [-122.64521399989161, 38.181059999919476], [-122.64629299961702, 38.18119699976896], [-122.64660599961148, 38.18120600009538], [-122.64688400034413, 38.181213999835386], [-122.64695399976603, 38.18120299975129], [-122.64698800010119, 38.181200999992626], [-122.64710699992689, 38.18119799964835], [-122.64727400033148, 38.18120299975129], [-122.64732299983696, 38.181208999733194], [-122.64735799999706, 38.18122499991777], [-122.64739900000495, 38.18121999981632], [-122.64748299967054, 38.18122499991777], [-122.647803000236, 38.18128600028045], [-122.64785199974146, 38.18128600028045], [-122.64797700031326, 38.18131899978401], [-122.64813700014683, 38.18134600000859], [-122.64822699966021, 38.181340999915456], [-122.64842199965388, 38.18129700035202], [-122.64849199997407, 38.1812640001324], [-122.64868000029506, 38.18112099971417], [-122.64876399996064, 38.18113199981064], [-122.64892399979418, 38.18108300001015], [-122.64898599971848, 38.181077000017865], [-122.64914599955206, 38.18109900022238], [-122.64923699978864, 38.18112699970276], [-122.64941099986589, 38.181208999733194], [-122.6494660001175, 38.1812640001324], [-122.64952899986669, 38.18136900000897], [-122.64957800027048, 38.18142899966875], [-122.64971499963953, 38.18154400017311], [-122.64989100026496, 38.18169299970311], [-122.6501270002665, 38.181802999729335], [-122.65026700000858, 38.18185199975174], [-122.65029399977276, 38.18187999964888], [-122.65060799959211, 38.18205599986547], [-122.65084399959369, 38.182209999794544], [-122.65107399974744, 38.18237500001293], [-122.65124799982472, 38.18252300010066], [-122.65151200031366, 38.182798000252525], [-122.65186700014091, 38.18302300031077], [-122.65209899994451, 38.18315599988352], [-122.6523259997252, 38.18328700021812], [-122.65252800028989, 38.18341900016609], [-122.65260500028279, 38.18348500005041], [-122.65287600044444, 38.183809000219995], [-122.6529800002015, 38.183980000101236], [-122.65313300036237, 38.18426500018816], [-122.65317500019518, 38.18431499980355], [-122.65318900043889, 38.18436999997633], [-122.65323799994438, 38.18446300018682], [-122.65329300019597, 38.18452899983144], [-122.6533319996557, 38.18456199998434], [-122.65336799964071, 38.184595000122336], [-122.65341299984655, 38.18462400020987], [-122.65372500001611, 38.18483700020669], [-122.65378000026769, 38.18485899998191], [-122.65403100033787, 38.18490300021854], [-122.65456000024237, 38.184887000135554], [-122.65462100034175, 38.184887000135554], [-122.65488699958219, 38.18489199998532], [-122.65506099965947, 38.18491399974399], [-122.65523499973673, 38.18497499984235], [-122.65534600006482, 38.18503500006287], [-122.65570699973983, 38.1853579998715], [-122.65571500013577, 38.18537600020126], [-122.65583300013655, 38.18549100012405], [-122.65588199964202, 38.185496999752814], [-122.6559379997185, 38.185546000115075], [-122.6561400002832, 38.18568399981981], [-122.65617399972007, 38.1856780002065], [-122.65644599970665, 38.185826999754816], [-122.6566199997839, 38.185898000062664], [-122.65693299977836, 38.1859970000283], [-122.65704400010645, 38.18601900015931], [-122.65757300001097, 38.18617300018425], [-122.65759399992733, 38.186188999984786], [-122.6576459998059, 38.1861950002621], [-122.65765699967652, 38.18621100005776], [-122.65775399976093, 38.1862220000918], [-122.65779599959372, 38.18626099974971], [-122.65811600015917, 38.18641999971398], [-122.65818599958106, 38.18646600003415], [-122.65819999982477, 38.18647499970971], [-122.6584430003973, 38.186684000020634], [-122.6585060001465, 38.18672799986104], [-122.65856899989569, 38.18674500004897], [-122.65860999990356, 38.18677799990417], [-122.65885400030106, 38.18681600016817], [-122.65891000037753, 38.186833000335625], [-122.6591320001354, 38.18693199973666], [-122.65931299988536, 38.18696999992032], [-122.65938400003047, 38.18697300002691], [-122.65943900028208, 38.186976000133306], [-122.65982099987347, 38.186942999661774], [-122.6604350001668, 38.18691299999044], [-122.6609769995918, 38.186888000019465], [-122.66106700000348, 38.18687199966642], [-122.66132499974634, 38.18674000032639], [-122.66150600039462, 38.18667399986064], [-122.66157599981649, 38.186658000166624], [-122.66177099981016, 38.18665199992744], [-122.66198599989534, 38.18658600008799], [-122.66209800004832, 38.18652000018875], [-122.6622019998054, 38.18640499977217], [-122.66234200044582, 38.18628400031668], [-122.66240400037007, 38.18625100023769], [-122.66249499970834, 38.1862239997127], [-122.66262000028014, 38.186202000349645], [-122.66307899986444, 38.18623499974473], [-122.66334400017831, 38.1862620002657], [-122.66340699992752, 38.18627199977615], [-122.66357400033209, 38.186300999902194], [-122.66381700000635, 38.18636099973666], [-122.66390099967192, 38.18640000002624], [-122.6639629995962, 38.18644400003819], [-122.6639979997563, 38.186503999754876], [-122.6639840004109, 38.1865979998707], [-122.66394900025082, 38.18668499982471], [-122.66392800033442, 38.18680100030789], [-122.66392199958833, 38.18689100012942], [-122.66391400009071, 38.186998999768484], [-122.66392800033442, 38.187064999939764], [-122.66393500000711, 38.187081000250465], [-122.66395599992352, 38.18712499985104], [-122.66401200000001, 38.18719700010299], [-122.6643350000402, 38.18749499974168], [-122.66447800015534, 38.18762699983178], [-122.66458299973732, 38.187723999986204], [-122.66481200006618, 38.18792700010974], [-122.66524399988631, 38.18828499995415], [-122.66533400029797, 38.18831199971527], [-122.66543200020728, 38.188355999984466], [-122.66557799979715, 38.18840000022703], [-122.66589800036262, 38.18842799972568], [-122.66602300003608, 38.188455000139854], [-122.66614199986178, 38.18850399992448], [-122.66624599961884, 38.18857600022552], [-122.66639200010702, 38.18872999978702], [-122.66643399993983, 38.18878999973897], [-122.66653799969689, 38.18900499980814], [-122.66678200009434, 38.18935600021897], [-122.66691400033883, 38.189510000249555], [-122.66697999956276, 38.18956800002995], [-122.6670320003396, 38.18961399977427], [-122.66715799983801, 38.1896969998994], [-122.66734500033405, 38.18974100003796], [-122.66793000031507, 38.18979600035032], [-122.66820899997433, 38.18980200033052], [-122.66845199964857, 38.18979600035032], [-122.66885599987963, 38.18976299974426], [-122.66892600019982, 38.18976899972718], [-122.6690230002842, 38.18979100013109], [-122.66921099970683, 38.18985699989073], [-122.66944800043164, 38.189982999971896], [-122.66953799994502, 38.18999400014239], [-122.66960800026521, 38.18999400014239], [-122.66964300042532, 38.189982999971896], [-122.66975399985506, 38.189982999971896], [-122.66993499960502, 38.189944999948], [-122.66999800025253, 38.189923000296666], [-122.67015800008612, 38.18982400001836], [-122.67029700000326, 38.18971900032504], [-122.67035999975248, 38.189685999684094], [-122.67045699983686, 38.189642999981864], [-122.67059599975401, 38.18962100023931], [-122.67076300015862, 38.18963199975842], [-122.67092399981709, 38.189654000203646], [-122.67100699965776, 38.189675999936235], [-122.67115300014595, 38.189735999814935], [-122.67126500029893, 38.18976400021215], [-122.67138300029971, 38.18977999992994], [-122.67167500037776, 38.18979100013109], [-122.6720579997941, 38.18976899972718], [-122.67240599994865, 38.18976400021215], [-122.67254499986582, 38.18976899972718], [-122.67287999960158, 38.189829999996306], [-122.67304700000615, 38.189797000111696], [-122.67312999984684, 38.18976400021215], [-122.67349899991775, 38.18957700002826], [-122.67369399991144, 38.18951100001485], [-122.67377799957701, 38.18948900023248], [-122.67402100014958, 38.18947299974465], [-122.67416799956436, 38.18944499994164], [-122.67431400005253, 38.18939000007034], [-122.67441100013693, 38.18933500015744], [-122.67471099971259, 38.1891270001628], [-122.67479399955324, 38.18910500026445], [-122.67502399970702, 38.18908299965333], [-122.67532300035607, 38.189010999853494], [-122.67544899985445, 38.18899499996679], [-122.67563700017541, 38.189001000012965], [-122.67569900009971, 38.189022999942786], [-122.6757619998489, 38.189060999741685], [-122.67581100025272, 38.18910999982471], [-122.67601200009415, 38.189374000266824], [-122.67626200033943, 38.18961300001038], [-122.67626999983702, 38.18962100023931], [-122.676458000158, 38.18973100029764], [-122.67659700007516, 38.18977000019498], [-122.677119000307, 38.18975300000697], [-122.67778700012867, 38.1897749997096], [-122.67841399994248, 38.18974199980008], [-122.67858800001976, 38.18972600007394], [-122.67864400009624, 38.1896990001309], [-122.67872699993693, 38.189594000257344], [-122.6789010000142, 38.18957199979398], [-122.67910299968057, 38.189561000265876], [-122.6794729995764, 38.189592000022955], [-122.67963199958507, 38.18960499978053], [-122.67995200015052, 38.189622000003084], [-122.68033499956687, 38.18962700023392], [-122.68037300009999, 38.1896229997669], [-122.68045400029085, 38.18961600000806], [-122.68056499972064, 38.18962700023392], [-122.68062099979711, 38.189648999974665], [-122.6807179998815, 38.1897430002683], [-122.68078800020169, 38.189945999707334], [-122.68085699979869, 38.189994999901046], [-122.68087100004237, 38.19001700023664], [-122.68090600020248, 38.190027999695936], [-122.68093399979156, 38.190061000181935], [-122.68105900036336, 38.19012699969692], [-122.68143500010699, 38.19047900010126], [-122.68147699993979, 38.19053399985631], [-122.68151200009987, 38.19060499981248], [-122.68153200019137, 38.19077000007966], [-122.68155999978045, 38.19081400027606], [-122.68162300042796, 38.190864000338614], [-122.68174100042876, 38.190934999973095], [-122.6819289998514, 38.19103900028725], [-122.68211700017238, 38.19112700032847], [-122.68232700023466, 38.19125999993217], [-122.68243000016683, 38.19132500003243], [-122.68249299991602, 38.19139699966293], [-122.68254899999249, 38.19150100002342], [-122.6826250001605, 38.191605000235405], [-122.68267399966598, 38.19162700008469], [-122.68284100007057, 38.19166599967285], [-122.68296599974403, 38.19168199967886], [-122.68305299978266, 38.19168600003285], [-122.68334200038598, 38.191699000122675], [-122.68365600020535, 38.191781000255816], [-122.6838710002905, 38.19186900010649], [-122.68391300012328, 38.19190699983267], [-122.68397599987247, 38.191940000173304], [-122.68403799979676, 38.192011999901915], [-122.68421199987404, 38.19227599970978], [-122.68441400043871, 38.19236899971099], [-122.68453300026438, 38.192445999758796], [-122.68467899985426, 38.192654999881626], [-122.68474800034956, 38.19272099987014], [-122.68484600025884, 38.19275899985781], [-122.6850200003361, 38.192776000050216], [-122.68510999984947, 38.19280300026461], [-122.68514800038264, 38.19282600017788], [-122.68517299959869, 38.192841999929065], [-122.68529800017046, 38.19301700006708], [-122.68531900008685, 38.19307200002357], [-122.68535400024696, 38.193089000142976], [-122.68543799991255, 38.19315499973817], [-122.68581399965618, 38.19324300004669], [-122.68593199965696, 38.19330900020835], [-122.68606399990144, 38.19340200030252], [-122.6862520002224, 38.19360000017573], [-122.6864050003833, 38.19367099996706], [-122.68644700021609, 38.193714999822866], [-122.68647499980517, 38.19378100026274], [-122.68647499980517, 38.193885000042954], [-122.68646099956146, 38.19393000018017], [-122.686412000056, 38.19400600028595], [-122.6863910001396, 38.19411600007568], [-122.686412000056, 38.19419299968845], [-122.68645399988878, 38.19424300025524], [-122.68650999996525, 38.194281000154724], [-122.68666999979885, 38.1943470000817], [-122.68693400028779, 38.19442900005735], [-122.68759600026168, 38.19459400013324], [-122.68767900010238, 38.194626999962345], [-122.68783999976088, 38.19471499990419], [-122.68791599992883, 38.194742999799246], [-122.68804099960232, 38.194732000346015], [-122.68810400024982, 38.19469899985854], [-122.6881939997632, 38.1946879996927], [-122.68829900024349, 38.1946879996927], [-122.68850099990985, 38.19472100018517], [-122.6888699999808, 38.19483100030693], [-122.68898100030889, 38.19484700032363], [-122.68916899973154, 38.19484700032363], [-122.68930799964872, 38.19483600018015], [-122.6894270003727, 38.19480900001347], [-122.68953100012978, 38.19475899983528], [-122.68986500004064, 38.19453899991416], [-122.68995600027722, 38.194501000149245], [-122.69006699970699, 38.19447300016119], [-122.69020599962415, 38.19446199996122], [-122.6906729996044, 38.19445099975959], [-122.6908049998489, 38.194457000062314], [-122.69103500000264, 38.19448399965349], [-122.69126500015642, 38.19461099989731], [-122.69145299957907, 38.1947699999904], [-122.6914950003102, 38.194790000203945], [-122.69154299999079, 38.19481399988821], [-122.69206500022256, 38.19502300027535], [-122.69212100029908, 38.19502800013533], [-122.69223199972883, 38.19498999991968], [-122.69233700020914, 38.194978999797804], [-122.6924479996389, 38.194978999797804], [-122.69288700003007, 38.195055999910046], [-122.69315099962068, 38.19506099976782], [-122.6932419998573, 38.195071999877314], [-122.69351999969165, 38.19515999998743], [-122.6937080000126, 38.1951440000395], [-122.69383299968608, 38.195148999891224], [-122.6939399998162, 38.195143000351514], [-122.69395599970973, 38.19514100026947], [-122.69400400028861, 38.19513900018742], [-122.69402100000707, 38.19513799979337], [-122.694065000388, 38.19513900018742], [-122.69443100008588, 38.1951440000395], [-122.69448700016237, 38.19515500013645], [-122.69451499975148, 38.1951440000395], [-122.69475099975304, 38.19510500019582], [-122.69486299990602, 38.195100000341064], [-122.69502299973956, 38.1951219998406], [-122.69519000014415, 38.195166000231744], [-122.69542000029793, 38.1952479999912], [-122.69574699963775, 38.19524199975364], [-122.69585100029315, 38.195263999916286], [-122.69592800028605, 38.19527000015203], [-122.6962479999532, 38.19522599982372], [-122.69633199961879, 38.195230999669825], [-122.69637000015193, 38.19524199975364], [-122.69640799978677, 38.195252999835795], [-122.69648499977964, 38.19529200030621], [-122.69661000035144, 38.195373999923795], [-122.69663799994052, 38.19541800016267], [-122.69672900017711, 38.19545699983872], [-122.69674900026861, 38.19550100002745], [-122.69677699985769, 38.195516999896945], [-122.69681899969048, 38.195516999896945], [-122.69684700017791, 38.19552799993755], [-122.69692300034589, 38.19557699990573], [-122.69713900025596, 38.19567100031429], [-122.69726499975434, 38.195747999694895], [-122.69764100039629, 38.19584100020428], [-122.69786999982682, 38.19594000006949], [-122.6980649998205, 38.196049999761875], [-122.69825300014146, 38.19612700015367], [-122.69840700012726, 38.19616499977605], [-122.69868499996161, 38.196209000243], [-122.69901899987244, 38.19630299983575], [-122.69940899985978, 38.19633499992474], [-122.69962499976985, 38.196341000072245], [-122.69979899984715, 38.1963360003024], [-122.69993799976429, 38.196313999757635], [-122.70001499975719, 38.19627000006013], [-122.70018200016179, 38.196071999680406], [-122.70025099975877, 38.19601099969741], [-122.70035600023905, 38.19595100004621], [-122.70045999999611, 38.19592299990967], [-122.70055799990539, 38.195911999928725], [-122.70066199966247, 38.19591800011108], [-122.70085699965615, 38.19594499986657], [-122.70103800030445, 38.19598399996638], [-122.70139300013166, 38.1960990000848], [-122.70152500037617, 38.1962359998906], [-122.7018810000283, 38.19676399969424], [-122.7019019999447, 38.196813000242656], [-122.70216600043366, 38.19715400030795], [-122.70224300042656, 38.197285999836154], [-122.70232600026723, 38.19737400009465], [-122.70235399985631, 38.19739000025861], [-122.70241400013079, 38.1974540001732], [-122.70259099968277, 38.19764299991261], [-122.70270200001086, 38.19773099973967], [-122.70279300024745, 38.19778000034341], [-122.70286900041545, 38.1977970000697], [-122.70322400024268, 38.197801999739276], [-122.70333600039567, 38.19781300014065], [-122.7034369997797, 38.19783399987552], [-122.70345400039646, 38.197845999923], [-122.70355200030573, 38.197868000004895], [-122.70357999989481, 38.19790099976232], [-122.7036839996519, 38.19790600013068], [-122.70390700013297, 38.19798899998355], [-122.70410899979933, 38.19809900011051], [-122.70416400005094, 38.19811500011515], [-122.70431800003672, 38.19828000031079], [-122.7044429997102, 38.19845500008833], [-122.7048310000477, 38.19859399968456], [-122.70517699965411, 38.19860600031275], [-122.70561400039544, 38.19845399973984], [-122.70600900040563, 38.19829299992955], [-122.70776400034867, 38.198909999800634], [-122.71433800005693, 38.20122199968352], [-122.71430299989686, 38.2012780001062], [-122.71423400029985, 38.2013600000423], [-122.71422699972887, 38.20146499989447], [-122.71424799964525, 38.20172300032015], [-122.71431299994258, 38.20184800004168], [-122.71433100038423, 38.20186000013355], [-122.71439400013345, 38.20194799980551], [-122.71446399955532, 38.20202500031368], [-122.71483299962627, 38.20234399983693], [-122.71492999971065, 38.20248599994748], [-122.71495099962705, 38.20254700015349], [-122.71495800019804, 38.20271700022652], [-122.71495099962705, 38.202866000213206], [-122.71489600027378, 38.2031950002977], [-122.71493100043388, 38.20328299976787], [-122.71500000003084, 38.2033709998376], [-122.71503500019094, 38.203397999653156], [-122.7152369998573, 38.20349699983248], [-122.7153210004212, 38.20352499988015], [-122.7153969996909, 38.20356900013505], [-122.7155160004149, 38.20367300005414], [-122.71565500033205, 38.20377199985944], [-122.71575900008912, 38.20383200012517], [-122.71578199965536, 38.20384500016446], [-122.7158350002571, 38.203861999886556], [-122.71587999956463, 38.20387900031054], [-122.7160519999921, 38.203948000122175], [-122.71616099977203, 38.20401500003017], [-122.7162500003588, 38.20407000015087], [-122.71652499982011, 38.204238999928016], [-122.71690899995966, 38.204541000073256], [-122.71758400035235, 38.20493500030536], [-122.71770900002582, 38.20500800015008], [-122.71946399996885, 38.20578699966819], [-122.71949900012895, 38.205815000246886], [-122.7199100000327, 38.20597999993399], [-122.71993799962178, 38.206001000136816], [-122.72002800003347, 38.2060289999273], [-122.72109400023841, 38.20649600034072], [-122.72125400007198, 38.20658899982804], [-122.72158799998282, 38.20671499990024], [-122.72195799987868, 38.20684399974819], [-122.72299499977129, 38.207131999995575], [-122.72318999976495, 38.20717600018795], [-122.72334999959855, 38.207192999838014], [-122.72340599967505, 38.2071820001479], [-122.72349899956146, 38.20714699990372], [-122.72509899969378, 38.20711800031383], [-122.72553999973474, 38.207114000101704], [-122.72601400028601, 38.20710999988942], [-122.72985999973271, 38.207075999840605], [-122.73166499990445, 38.20705999968759], [-122.73370699990265, 38.20704300000646], [-122.73430299975432, 38.20703700003499], [-122.73609100020764, 38.20702200010418], [-122.73668799988421, 38.20701799988685], [-122.73887299999755, 38.20701799988685], [-122.73989999984441, 38.20701799988685], [-122.74445500001902, 38.210149999725964], [-122.7462559999928, 38.21138800005636], [-122.74691799996671, 38.211835000206676], [-122.74724500020487, 38.21205600025997], [-122.7482350002418, 38.212722999826525], [-122.74890600043655, 38.21317599971313], [-122.7495700000603, 38.21362300017469], [-122.74981399955942, 38.2137879998076], [-122.75054900022658, 38.21428299999079], [-122.75060000028022, 38.2143180003326], [-122.75080100012168, 38.21443899979137], [-122.75087100044188, 38.21448100025062], [-122.75108200032908, 38.21460700007127], [-122.75109999987241, 38.214618000050855], [-122.75109999987241, 38.21455700007891], [-122.76721599975001, 38.22550099989113], [-122.77355799965471, 38.22980699981858], [-122.78329700036585, 38.23642200007353], [-122.78443899984045, 38.23719799972153], [-122.78497100011802, 38.23755800032494], [-122.7865670000524, 38.238641000001856], [-122.78709900032993, 38.23900300009892], [-122.78795299992447, 38.23958300014193], [-122.79051799997943, 38.241325000250654], [-122.79137300029714, 38.241905999865594], [-122.79145000029007, 38.241958000317595], [-122.79168200009364, 38.24211600024158], [-122.79175999991146, 38.24216900029102], [-122.79186200001871, 38.24223799977827], [-122.79209600037044, 38.24239700024933], [-122.79215400009673, 38.24243600015202], [-122.79216999999028, 38.242447000156986], [-122.79227299992245, 38.242516999828794], [-122.7925590001527, 38.242710999776506], [-122.793418999595, 38.24329500021096], [-122.79370599965019, 38.24348999992863], [-122.795149000322, 38.24446999983367], [-122.79948100001552, 38.24741200005659], [-122.80092499961391, 38.24839299966022], [-122.80100900017781, 38.24845699987254], [-122.80268899977779, 38.24972999971826], [-122.80293499982507, 38.24991699986013], [-122.80815399962339, 38.25350699973798], [-122.80997899988662, 38.254761999915345], [-122.8103770002699, 38.25503500032357], [-122.81157200034625, 38.255854999891675], [-122.81197099965611, 38.256128999981655], [-122.8120390003265, 38.25617399972258], [-122.81224400036592, 38.256311000000665], [-122.81231600033593, 38.25635899969717], [-122.81419400030259, 38.25763099985177], [-122.81905499990063, 38.260922999868384], [-122.81982999985246, 38.26144800020787], [-122.82170899964404, 38.262721000313554], [-122.82267299974174, 38.263367999691944], [-122.82556699968464, 38.26531200033293], [-122.82653199960725, 38.26596000003548], [-122.82855900043515, 38.26732199976566], [-122.82959299995471, 38.26801600013688], [-122.83291700006794, 38.270248999893546], [-122.83329799983446, 38.27050400021701], [-122.83878000029684, 38.27418500035254], [-122.84180399993608, 38.2762170000104], [-122.84184099974601, 38.27624400029076], [-122.84260499982715, 38.276784000263916], [-122.84270600010949, 38.27685000010279], [-122.85326400025505, 38.2838609999008], [-122.85360300018876, 38.2841159996674], [-122.85371299979361, 38.28418899972043], [-122.86021299988205, 38.288524000290806], [-122.86052699970142, 38.288830999939904], [-122.86057500028029, 38.2888630002213], [-122.86388599997471, 38.29110299966566], [-122.86833999986699, 38.293979999667464], [-122.86841199983702, 38.29402799985142], [-122.87429900035532, 38.29801200031274], [-122.87440599958714, 38.298088000243744], [-122.876105000352, 38.299296000145446], [-122.87899599992184, 38.30126899992139], [-122.88019400037125, 38.30208699990336], [-122.89246399990385, 38.31045999987676], [-122.89655499957297, 38.31325200023059], [-122.89721700044518, 38.313676000194974], [-122.89724300038444, 38.31369399978619], [-122.8984440003086, 38.314515999851814], [-122.89854700024075, 38.31460600024475], [-122.89910399973434, 38.31576899981679], [-122.89934800013184, 38.31608900018892], [-122.8995079999654, 38.31642300033967], [-122.8996200001184, 38.31655800015599], [-122.89973100044647, 38.316656999908545], [-122.89993300011282, 38.31679300012426], [-122.90076999998894, 38.316887999745255], [-122.90130700028936, 38.316898000328784], [-122.90172599969068, 38.316942999765736], [-122.90231099967171, 38.31683999988557], [-122.90245100031211, 38.316794999679864], [-122.90259699990199, 38.31671800018718], [-122.90301600020163, 38.316443999654126], [-122.9031900002789, 38.316345000315565], [-122.90335099993739, 38.316268000344984], [-122.90385999975042, 38.316065999786375], [-122.9039359999184, 38.31602099980512], [-122.90422999964626, 38.31593099975877], [-122.90502499968956, 38.315738000269576], [-122.90512199977394, 38.315701999983], [-122.90623099963659, 38.31508100015504], [-122.90639200019338, 38.31504500024711], [-122.90646199961527, 38.31501800030439], [-122.90662200034716, 38.31498199966033], [-122.90667400022568, 38.314963999684], [-122.9069910004181, 38.31486099981183], [-122.90812799986982, 38.3143029996514], [-122.90816300002994, 38.31429000033037], [-122.90831899966557, 38.314315999674974], [-122.90853999959847, 38.31435300010874], [-122.90874200016317, 38.314367000286985], [-122.90906299965522, 38.31437600034981], [-122.90911799990681, 38.314367000286985], [-122.9091670003106, 38.314354000272566], [-122.9092369997325, 38.31426800022708], [-122.90932799996907, 38.31430399981598], [-122.90949500037365, 38.31439399976726], [-122.90967600012364, 38.314542999981406], [-122.90974600044383, 38.314615000277925], [-122.91017099969297, 38.31522900021544], [-122.91022799959435, 38.31539399969797], [-122.91034499977023, 38.31573300025043], [-122.91043600000683, 38.315846000317286], [-122.91088200007064, 38.31686500030099], [-122.91088899974336, 38.31696400033919], [-122.91087500039797, 38.317086000328494], [-122.91084699991056, 38.31717099972596], [-122.91080500007777, 38.317251999938], [-122.91068600025208, 38.317400999917695], [-122.91048700006046, 38.31759399991395], [-122.91031700018115, 38.31776099988684], [-122.91016300019535, 38.31786499998366], [-122.91015599962434, 38.31789200027581], [-122.90916599958739, 38.318264999941746], [-122.90904699976167, 38.3182870002419], [-122.90888699992813, 38.31829599981817], [-122.9083079997949, 38.31826899967646], [-122.9081959996419, 38.31828199969373], [-122.90805000005204, 38.31828199969373], [-122.90794499957175, 38.31829599981817], [-122.90784099981467, 38.318332000226405], [-122.9075269999953, 38.31847999999403], [-122.90730400041254, 38.31864200022197], [-122.90722700041964, 38.31873199972236], [-122.90712199993935, 38.31893000020332], [-122.90706599986287, 38.31911899996576], [-122.90699600044097, 38.31929500010694], [-122.90689199978557, 38.31946600005921], [-122.90677999963259, 38.31960999996579], [-122.90675899971619, 38.31966899969317], [-122.90668199972329, 38.319759000033], [-122.90664699956318, 38.3198900003358], [-122.90666099980689, 38.319935000030085], [-122.9067729999599, 38.32008400013413], [-122.90689799963336, 38.32023199984923], [-122.90703099970274, 38.32028700015202], [-122.9073029996893, 38.320439999852375], [-122.90759599959227, 38.320589000328035], [-122.90772799983675, 38.32064300028294], [-122.9081050003036, 38.320752000147635], [-122.90876700027752, 38.32085099981166], [-122.90892700011108, 38.320896000318996], [-122.90940199958894, 38.320969000017634], [-122.9102379996401, 38.3211139998285], [-122.91094300017002, 38.321222000325506], [-122.9110750004145, 38.321226999966115], [-122.91131899991365, 38.321209000130644], [-122.91145899965574, 38.32117800009022], [-122.91163299973302, 38.321091999681464], [-122.91182799972668, 38.32095699985015], [-122.91235199960833, 38.32043899977244], [-122.91242899960123, 38.32039000006872], [-122.91250499976921, 38.320363000002075], [-122.91277000008307, 38.32032699989756], [-122.91290999982516, 38.320317999868664], [-122.91313999997894, 38.320332000304674], [-122.91433199968225, 38.32042299990161], [-122.91490400014278, 38.3204499999459], [-122.91527400003865, 38.320451000025635], [-122.91565800017821, 38.320392000229866], [-122.91583899992817, 38.320351999815415], [-122.91596399960164, 38.32031599970548], [-122.91607400010479, 38.320256999799795], [-122.91636199998489, 38.32002299986842], [-122.9164110003887, 38.32000100009506], [-122.9164180000614, 38.31997399988353], [-122.91647999998568, 38.319929000213406], [-122.91656399965127, 38.319770999694], [-122.91677399971353, 38.31950500016489], [-122.91696899970722, 38.31931200032222], [-122.9170249997837, 38.31927099992063], [-122.91747800041857, 38.3187760000326], [-122.91765999999343, 38.31853699972399], [-122.91780599958331, 38.31831200015843], [-122.91800099957698, 38.317952000105976], [-122.91816200013376, 38.31778999974584], [-122.91832899964002, 38.31769100013073], [-122.91901300025356, 38.317421000236926], [-122.91978499983232, 38.31722199973951], [-122.91987000022112, 38.31719999982094], [-122.92005199979603, 38.3171740001009], [-122.92018400004048, 38.317142000324154], [-122.92051200010353, 38.31703000028958], [-122.9207420002573, 38.3169709998242], [-122.9208469998393, 38.3169259996998], [-122.92095200031959, 38.316836000072016], [-122.92095899999231, 38.31680500027617], [-122.92095200031959, 38.31667799986007], [-122.9209239998322, 38.316395000069576], [-122.92088899967209, 38.31629999980264], [-122.92074899993, 38.31605599979297], [-122.92060300034015, 38.31581799982439], [-122.92045699985195, 38.31561499998014], [-122.91964099989225, 38.31465000023961], [-122.91938999982212, 38.314510000291534], [-122.91913200007924, 38.31437500018623], [-122.91880499984109, 38.31423499970715], [-122.918777000252, 38.314208000167675], [-122.91793299980492, 38.31375199992662], [-122.91779999973552, 38.31370699991893], [-122.9173400003263, 38.313588999875805], [-122.91688699969146, 38.313395000319424], [-122.91680300002587, 38.31333199970879], [-122.91675500034529, 38.31331400002772], [-122.91672000018518, 38.313281999957155], [-122.9166010003595, 38.31320999974671], [-122.91649699970411, 38.313030000317625], [-122.91648300035871, 38.31293499987099], [-122.91648300035871, 38.31280899991022], [-122.9165310000393, 38.31266899993193], [-122.9166010003595, 38.31252999987236], [-122.91672000018518, 38.312354000226065], [-122.91706199959364, 38.31208400019473], [-122.91720100040911, 38.31200699992842], [-122.91721700030266, 38.311992999999404], [-122.91745199958096, 38.31190800017081], [-122.91752199990115, 38.3118590003405], [-122.91768299955967, 38.311674000078305], [-122.91772500029074, 38.311562000056], [-122.91774500038225, 38.31144500025078], [-122.91776600029864, 38.31109300019852], [-122.91787799955334, 38.310479999995984], [-122.91789900036805, 38.31042600022538], [-122.91794100020084, 38.310368000244274], [-122.91802400004151, 38.31027299983471], [-122.91812899962349, 38.31019699998137], [-122.91824099977647, 38.31013400011673], [-122.91847799960294, 38.310043999812464], [-122.91876399983319, 38.309948999683364], [-122.91905699973617, 38.3098369998165], [-122.92004699977313, 38.309363999855705], [-122.92063299957904, 38.30905399966688], [-122.92071600031805, 38.30903099985244], [-122.92081400022734, 38.30895500010738], [-122.92151200018624, 38.30856799989177], [-122.92158800035425, 38.30855400000376], [-122.92170700017991, 38.308549999733145], [-122.92223699990934, 38.308564000326825], [-122.92230600040463, 38.30858199977713], [-122.92238300039752, 38.308613000268856], [-122.92251499974368, 38.30868999990939], [-122.92270399988956, 38.30884300011521], [-122.92287100029415, 38.30902799984547], [-122.92293400004334, 38.309194999810174], [-122.92299599996761, 38.30957399977646], [-122.92304500037143, 38.30979899967131], [-122.92327499962687, 38.310371000195815], [-122.92333099970337, 38.31056099992886], [-122.92355400018447, 38.31107000032589], [-122.92374199960712, 38.31143100021326], [-122.92380500025462, 38.31151599989607], [-122.9245860000542, 38.31222900015378], [-122.92480199996429, 38.31238199994206], [-122.92484600034521, 38.312392999928214], [-122.9248870003531, 38.31240900016144], [-122.9249879997371, 38.312480999757454], [-122.92510400008806, 38.31253600030132], [-122.9253889995951, 38.31264599985423], [-122.92546800013614, 38.31267999987454], [-122.92563600036564, 38.31273599974881], [-122.92590199960608, 38.31278199983977], [-122.92603700022362, 38.31278899972844], [-122.92621799997357, 38.31278199983977], [-122.9263040001873, 38.312758999797914], [-122.92652400029534, 38.3127200002926], [-122.92666099966438, 38.31270999983775], [-122.92675299972588, 38.312708000169486], [-122.9267970001068, 38.31271600025182], [-122.92688699962018, 38.31272300014685], [-122.92693900039703, 38.31273100022752], [-122.92719600031499, 38.312772000098285], [-122.92728500000345, 38.31278199983977], [-122.92746199955546, 38.31281000009533], [-122.927597000173, 38.312822000201564], [-122.92781999975576, 38.31283499978578], [-122.92809199974229, 38.31283499978578], [-122.92841099958453, 38.312803999689045], [-122.92867300042366, 38.312751999906354], [-122.92875700008923, 38.312730000041256], [-122.92880300012003, 38.31272499981469], [-122.92910000022093, 38.312641999809365], [-122.92918700025959, 38.312622999769296], [-122.92931100010813, 38.31258199981429], [-122.92934999956789, 38.312562999758484], [-122.9295560003305, 38.31249199972858], [-122.92982400011911, 38.31236200034745], [-122.92993500044719, 38.31229900024902], [-122.93001099971686, 38.3122609999842], [-122.93013000044087, 38.31221100019892], [-122.93021199955832, 38.31218299971208], [-122.93025000009148, 38.31216199986847], [-122.930450000108, 38.31208199980434], [-122.93079900008746, 38.31192300031365], [-122.93091899973805, 38.31187499998661], [-122.93104199976172, 38.311834000313574], [-122.93113200017339, 38.311820000351155], [-122.93145000019072, 38.31179400011162], [-122.93163099994067, 38.31179599980508], [-122.9316750003216, 38.311799999896614], [-122.9318100000408, 38.311802999788924], [-122.93222099994455, 38.31178499972833], [-122.93231200018116, 38.31177499984941], [-122.93244000022767, 38.311741000109656], [-122.93252100041852, 38.31170900004983], [-122.93259300038855, 38.31166599988107], [-122.9326600003357, 38.31161900029035], [-122.93290499965978, 38.31146200019201], [-122.93321400035457, 38.31125600022089], [-122.93362000023544, 38.31097500013104], [-122.93390100044283, 38.310746999719576], [-122.93396800038998, 38.31069900002391], [-122.9340620001013, 38.31062299991212], [-122.93429800010286, 38.310410000259516], [-122.93450200031737, 38.31017300030794], [-122.93479500022033, 38.309810000049254], [-122.93490400000027, 38.30969499998839], [-122.9350250003741, 38.30964499984373], [-122.93510900003967, 38.30961600025153], [-122.93519799972813, 38.309601999860924], [-122.93528999978963, 38.309600000106975], [-122.93538100002625, 38.309604999844154], [-122.9354260002321, 38.309613999793115], [-122.93555000008065, 38.30966099997836], [-122.93574300042448, 38.30975299980284], [-122.93586200025018, 38.30983800004261], [-122.93593800041816, 38.30989299977155], [-122.93597199985503, 38.309917000242535], [-122.93629800026827, 38.3101150001245], [-122.93640000037551, 38.31018599966213], [-122.93659100017123, 38.31033699979782], [-122.93664600042284, 38.31039300007168], [-122.93669599975321, 38.310452999763235], [-122.93672000004265, 38.31052000021777], [-122.93673699976111, 38.31055300031374], [-122.93676799972324, 38.31065499974628], [-122.93680799990622, 38.31082600033902], [-122.93681600030214, 38.31090200023807], [-122.93681999960178, 38.3110029996746], [-122.93681600030214, 38.31117899978029], [-122.93679899968538, 38.3112120002812], [-122.93678899963965, 38.31124600026897], [-122.93678699998982, 38.31128199994838], [-122.9367660000734, 38.311349000341906], [-122.93675400037785, 38.311417999672486], [-122.93672699971535, 38.31152100020601], [-122.93670400014913, 38.31158899987586], [-122.9366530000955, 38.311686999868314], [-122.93655400036131, 38.3118470000749], [-122.9364260003148, 38.311991999802956], [-122.93636600004035, 38.31204299993493], [-122.93634400029903, 38.31207399965213], [-122.93627700035186, 38.312123000042085], [-122.93624899986447, 38.31214999965302], [-122.9362160002525, 38.31217400008193], [-122.93614400028247, 38.31221699994941], [-122.93606399991654, 38.31225199965887], [-122.93593800041816, 38.31228899973606], [-122.93553699966186, 38.31236200034745], [-122.93531699955382, 38.31241000035213], [-122.93487200021322, 38.31249100024388], [-122.93473999996876, 38.31251899990699], [-122.93456800043961, 38.312566000324104], [-122.93448700024874, 38.31259800000581], [-122.93429800010286, 38.31269899989969], [-122.93410399993411, 38.312846999887874], [-122.93404500038287, 38.31290099997023], [-122.93399000013127, 38.31295900004009], [-122.93394400010054, 38.31301899972324], [-122.93384299981818, 38.31313699998905], [-122.93382699992466, 38.31317000030376], [-122.93379099993966, 38.313307999663124], [-122.9337859999168, 38.313378000126484], [-122.9337879995666, 38.313484999989264], [-122.93379500013761, 38.31354200012176], [-122.93380099998542, 38.31359000005023], [-122.93383199994756, 38.31365699972101], [-122.93387799997826, 38.31371799970408], [-122.93401299969749, 38.31386000011303], [-122.93410599958392, 38.31393799999098], [-122.93418099992701, 38.31397799971511], [-122.93426200011785, 38.31401199981573], [-122.9343929996391, 38.31404300010085], [-122.9345259997085, 38.31406699990324], [-122.93461799977001, 38.31406699990324], [-122.93470800018167, 38.31405799980206], [-122.93479600004524, 38.314037999964825], [-122.93496799957438, 38.31398799999514], [-122.93505999963588, 38.31395200024935], [-122.93509300014617, 38.3139279997041], [-122.93527399989611, 38.31382199996136], [-122.93535099988901, 38.31378399978978], [-122.93585499967918, 38.31361400000255], [-122.93607099958925, 38.31355800010146], [-122.93628999987234, 38.31350700033011], [-122.93650699960733, 38.3134479998174], [-122.93684899991409, 38.31334499990638], [-122.9369250000821, 38.31330700018968], [-122.93712599992354, 38.31322400014564], [-122.93732000009228, 38.313132999971224], [-122.93752799960643, 38.31299699993915], [-122.93759299990376, 38.31294599977324], [-122.9376370002847, 38.31288600002974], [-122.93766999989666, 38.31281999983158], [-122.9376869996151, 38.31275099972038], [-122.93768300031545, 38.31267999987454], [-122.93766499987379, 38.31264700004165], [-122.93762800006385, 38.31260399972428], [-122.93758899970581, 38.31255800022527], [-122.93753000015457, 38.31250399988743], [-122.93750599986511, 38.31247399983901], [-122.9374680002303, 38.31241000035213], [-122.9374480001388, 38.31233999965916], [-122.93743600044324, 38.31223499990278], [-122.93744300011595, 38.3121640002566], [-122.93745399998659, 38.31212999999436], [-122.93747599972788, 38.31209900030117], [-122.93750400021533, 38.312070999771024], [-122.9376099996222, 38.31200400004455], [-122.93793100001257, 38.31187099989922], [-122.93801399985325, 38.311842999985906], [-122.93813299967893, 38.311790000019755], [-122.93820399982404, 38.31174500020428], [-122.93832600002278, 38.3116400002912], [-122.93864700041311, 38.311386000175006], [-122.9387150001852, 38.3113380001974], [-122.93929099994537, 38.31099099997225], [-122.93944599975607, 38.31091500016647], [-122.93953199996982, 38.310889999814115], [-122.93970900042014, 38.31084800007686], [-122.9397980001086, 38.31083500013645], [-122.9400249998893, 38.310820999981175], [-122.94011399957778, 38.31083600034886], [-122.94024400017241, 38.31086999980802], [-122.94032799983803, 38.310899000308495], [-122.94044599983877, 38.31095200022099], [-122.94085400026778, 38.311174999654504], [-122.94099599965969, 38.31126200005039], [-122.9411429999728, 38.311345000225444], [-122.9413060001794, 38.311410999651486], [-122.94137899997432, 38.31145299976756], [-122.94156999977007, 38.31154800004107], [-122.94169000031894, 38.31160100018408], [-122.94197700037412, 38.31171600004207], [-122.94222699972106, 38.31180500018701], [-122.94242799956255, 38.31189100033413], [-122.94255300013432, 38.31193600005902], [-122.94275300015086, 38.31202499993392], [-122.94286299975572, 38.312087000075294], [-122.94300500004593, 38.31217699995878], [-122.94341900032273, 38.31245599994497], [-122.94360099989758, 38.312562999758484], [-122.94372399992123, 38.31261100033499], [-122.94380900031005, 38.312637000281555], [-122.9438970001736, 38.31265699980038], [-122.94398800041019, 38.31267100030608], [-122.94403400044096, 38.31267400016236], [-122.94417199963489, 38.312670000118985], [-122.9443459997122, 38.3126250001447], [-122.94442699990304, 38.312589999910465], [-122.94446200006313, 38.312567999996276], [-122.94452599963724, 38.31251700023352], [-122.94456199962224, 38.312495000297126], [-122.94466100025477, 38.31242100033402], [-122.94469100039198, 38.31239400011912], [-122.94476400018694, 38.31230399980009], [-122.9448260001112, 38.312208999812086], [-122.94506999961035, 38.31177300015537], [-122.94508300002914, 38.31175200019304], [-122.94518699978623, 38.311594000180754], [-122.94528499969552, 38.311473000317754], [-122.94531499983276, 38.311445999749886], [-122.94550999982641, 38.31135100004759], [-122.94575199967574, 38.31124699977082], [-122.94588300009534, 38.31121299978353], [-122.94597299960868, 38.31120100011592], [-122.9461569997317, 38.311189999948915], [-122.94657000018358, 38.31119999990855], [-122.9467540003066, 38.31120899965957], [-122.94693699970638, 38.31122599965617], [-122.94702799994296, 38.311238000024524], [-122.94743200017402, 38.31130799966661], [-122.9478749998648, 38.31140400033463], [-122.9479660001014, 38.31142499969286], [-122.94812400028515, 38.31146200019201], [-122.94834100002012, 38.31152000000306], [-122.94876699999249, 38.31165700018677], [-122.94934299975263, 38.31188000027184], [-122.94950400030946, 38.31194899980206], [-122.94961800011227, 38.312009999812176], [-122.94972199986934, 38.31208000011882], [-122.94991400038828, 38.31223399970973], [-122.95021599961375, 38.31250100002413], [-122.95028299956091, 38.312551999798124], [-122.95047799955458, 38.31270100027301], [-122.95054899969968, 38.31274699968126], [-122.95080700034087, 38.312895000276335], [-122.95145400024616, 38.31316699976318], [-122.95170899961596, 38.31324999987241], [-122.95188400041646, 38.31329399998522], [-122.95206500016641, 38.313319999686954], [-122.95233999962772, 38.31334099990007], [-122.95325799969466, 38.31338700031206], [-122.95357800026012, 38.31341800015951], [-122.95416900008891, 38.31349500033724], [-122.95430700018116, 38.31350399980344], [-122.95449299995401, 38.313507999800805], [-122.95527600030175, 38.31353400013061], [-122.95536699964002, 38.31354600011703], [-122.95545600022679, 38.3135639997405], [-122.95576099982532, 38.31364700010018], [-122.95601500026854, 38.31373200000493], [-122.95630300014862, 38.31384400019996], [-122.95658099998298, 38.313969999772056], [-122.95677599997666, 38.31406400010459], [-122.9570759995523, 38.314230000289214], [-122.95768999984561, 38.31454500030386], [-122.95772199963267, 38.31456200022326], [-122.9580680001374, 38.31474899977798], [-122.95852800044494, 38.31500400025183], [-122.95877699996696, 38.31516199988261], [-122.95898100018147, 38.315305999879705], [-122.95911300042593, 38.31540600008142], [-122.95923300007654, 38.31551399991881], [-122.95935199990224, 38.31565699977578], [-122.95950500006309, 38.315735999980035], [-122.95993100003545, 38.31592900017939], [-122.96002999976965, 38.315946999916164], [-122.96017500043293, 38.31598699994172], [-122.96036100020575, 38.31605300007656], [-122.96066099978141, 38.31620299983934], [-122.96088099988945, 38.3163240002676], [-122.96111699989099, 38.31645400029884], [-122.96129000014335, 38.31653999986612], [-122.9614270004107, 38.31659000019049], [-122.96161599965829, 38.31665099982065], [-122.96195299994216, 38.31674699975857], [-122.96245199970946, 38.316849000346224], [-122.96259200034986, 38.31686900011295], [-122.96289699994836, 38.31691200001564], [-122.9633070000272, 38.316958999699764], [-122.96382199968801, 38.31699999999923], [-122.96388699998535, 38.31700600005826], [-122.96443599998135, 38.31706499979038], [-122.96448899968479, 38.3170659999168], [-122.96485299973284, 38.317039000021865], [-122.96492100040325, 38.3170319998386], [-122.96516599972732, 38.31711800012996], [-122.96604899963414, 38.31698099969141], [-122.9661239999772, 38.31696999969642], [-122.96696300040145, 38.31642100006902], [-122.96731499985563, 38.31598800008301], [-122.96734599981777, 38.315220000258485], [-122.96734699964269, 38.31489199973402], [-122.96734900019082, 38.31436899990944], [-122.96749999980354, 38.31367500002179], [-122.96750599965132, 38.31364700010018], [-122.96835599994623, 38.3127200002926], [-122.96840500035003, 38.31249599978177], [-122.96854400026719, 38.31187099989922], [-122.9686160002372, 38.31171899993785], [-122.96883200014729, 38.31125799992913], [-122.96904899988226, 38.31079800002223], [-122.96939500038697, 38.31056399987243], [-122.96942499962589, 38.31054300026488], [-122.96974199981831, 38.310329999672476], [-122.97004200029228, 38.31012800019392], [-122.9706270002733, 38.30991799976271], [-122.97093400041994, 38.30993399983706], [-122.97100499966675, 38.30993800003134], [-122.97107699963678, 38.30994200022541], [-122.97159800004366, 38.310179000227045], [-122.97212000027551, 38.31041600015901], [-122.97226599986536, 38.310481999725624], [-122.97349500027693, 38.31121399999072], [-122.97432499958198, 38.311511999788834], [-122.97486799973021, 38.31147099991056], [-122.97604500026324, 38.31117999998794], [-122.97623799970876, 38.3111370002104], [-122.97645299979392, 38.311087999859076], [-122.97666899970399, 38.31103999968423], [-122.97716199962348, 38.3109290003036], [-122.9781140000256, 38.31090399995613], [-122.9788029997637, 38.3109620002134], [-122.98017299974225, 38.31108000030208], [-122.98160700019325, 38.311134999793936], [-122.9825899996592, 38.31095699986492], [-122.98316299994462, 38.310407999823], [-122.98354999955892, 38.309560000082584], [-122.98357800004634, 38.30949999965223], [-122.9836049998105, 38.30943999987707], [-122.98362300025218, 38.30940099999664], [-122.98367699978053, 38.3092069998097], [-122.98377600041304, 38.30885200015879], [-122.98413399971501, 38.30822300030279], [-122.9847379999626, 38.30794799984317], [-122.9853220001187, 38.30797200025288], [-122.98686799982434, 38.30809999995439], [-122.98770800007351, 38.30811500017997], [-122.98828100035895, 38.307760000118236], [-122.9889769997697, 38.307226999808655], [-122.98947899991006, 38.306919999743826], [-122.99006899991394, 38.30640799971156], [-122.99020500035638, 38.30629100005049], [-122.99049599971119, 38.305981000120404], [-122.99061399971195, 38.30585500006115], [-122.99111599985231, 38.30557999978712], [-122.9916289998633, 38.30553099991083], [-122.99193600000996, 38.30574099965112], [-122.99227499994366, 38.306014999740796], [-122.99312500023854, 38.3064410002687], [-122.9939959995515, 38.30643999999568], [-122.99475299995997, 38.30618999969126], [-122.99495799999939, 38.306012000314006], [-122.99512100020597, 38.30573199992649], [-122.99513200007664, 38.305713000190856], [-122.99510699996229, 38.3056299999145], [-122.99504000001512, 38.305406000062085], [-122.99499200033456, 38.305247000033475], [-122.9949720002431, 38.30518200022285], [-122.99490600012082, 38.304964000042396], [-122.99421599965954, 38.30408999991235], [-122.9941360001919, 38.30398900001299], [-122.99410900042771, 38.30345299995254], [-122.99410500022977, 38.30332000033955], [-122.99403200043484, 38.30255400024438], [-122.99358399982286, 38.30106099991329], [-122.99357999962488, 38.3010460003438], [-122.99357899979996, 38.30007899988764], [-122.99388599994667, 38.299678000061576], [-122.99411100007755, 38.29938500002145], [-122.99483800034879, 38.299045000224], [-122.99625099998502, 38.29885900003376], [-122.99721300043292, 38.29883300008289], [-122.99773499976642, 38.298720000296626], [-122.99870800008495, 38.29841300018214], [-123.00015800042945, 38.29783199982471], [-123.00034800040025, 38.297754000250045], [-123.00091999996248, 38.29752399978682], [-123.00111099975815, 38.29744700027808], [-123.00120199999476, 38.29739000018621], [-123.00139500033862, 38.29727199968061], [-123.00149200042299, 38.297211999660604], [-123.00158799978415, 38.29715500008914], [-123.00174299959482, 38.296774999686725], [-123.00176299968632, 38.296729000018736], [-123.00176900043243, 38.29645599981042], [-123.00177000025732, 38.29642899999741], [-123.00187300018949, 38.296287999714046], [-123.00205999978725, 38.296034999833616], [-123.00241100031485, 38.29586299990722], [-123.00272799960892, 38.2957099998186], [-123.00278700005848, 38.2957099998186], [-123.00323999979501, 38.2957040001127], [-123.0046049997507, 38.29568999985689], [-123.00506099986028, 38.295686000286906], [-123.00665500014485, 38.29566799975166], [-123.01143899974998, 38.29561799980814], [-123.01303399985943, 38.29560200010093], [-123.01878800030836, 38.29559900024358], [-123.03605099968345, 38.295592000105906], [-123.04180599995732, 38.295589999965756], [-123.04455400031034, 38.295589000248135], [-123.04730199976507, 38.295587999825486], [-123.04739399982657, 38.295587999825486], [-123.04748599988808, 38.295587999825486], [-123.05387899984639, 38.29558499996755], [-123.0586669996495, 38.295582999827154], [-123.06170200005769, 38.29558099968675], [-123.06532499992164, 38.29557900025127], [-123.08680100006292, 38.29557200011167], [-123.10925299999742, 38.29556200011251], [-123.12611500041284, 38.29555599968929], [-123.1277959998377, 38.29569699998516], [-123.13284099955875, 38.296121000348926], [-123.13452299970685, 38.29626299996018], [-123.12611600023773, 38.28728600026094], [-123.12611500041284, 38.28728399989185], [-123.12377399976559, 38.285786999711554], [-123.12346699961891, 38.284309000092485], [-123.11959100003497, 38.27710299986951], [-123.1109689995824, 38.26726299977991], [-123.10344099982215, 38.262321999690705], [-123.10096299980587, 38.26135800017729], [-123.0886299996258, 38.24991800020663], [-123.05196300024488, 38.215854999789094], [-123.04961699957477, 38.214285999677955], [-123.04892100016397, 38.211465999925046], [-123.04582499965638, 38.20492600008737], [-123.04039300032103, 38.19836200009352], [-123.03894299997654, 38.19752800011467], [-123.0378969998631, 38.192491000079144], [-123.03480299990366, 38.18601800034609], [-123.03291700043935, 38.182967999827184], [-123.03133599967528, 38.181461999813635], [-123.03153099966895, 38.17810000023994], [-123.03048299990566, 38.17245799995637], [-123.027210999671, 38.16416999970954], [-123.02305999972744, 38.158172000235794], [-123.01972700029171, 38.15418599995013], [-123.01481700028985, 38.14913200032965], [-123.02369900013511, 38.12492299993406], [-123.06379699975935, 38.036487000177566], [-123.06725399994197, 38.034018999973824], [-123.07470100040965, 38.027198999960056], [-123.08119999977485, 38.01897100029292], [-123.08294700022027, 38.015332999854984], [-123.08512999978548, 38.008432999682825], [-123.08566100023813, 37.99992800007175], [-123.08526500040301, 37.9967110000242], [-123.08510200019637, 37.99538500026786], [-123.08460699972873, 37.98808799984914], [-123.0844429996972, 37.98702699980199], [-123.08395099960264, 37.98382399969287], [-123.08388000035583, 37.98336600020226], [-123.08188100001533, 37.978706999729674], [-123.07938999958024, 37.971936999827236], [-123.07418800039869, 37.96488699990169], [-123.06796500031967, 37.95866899973872], [-123.05902800022282, 37.95284100019956], [-123.05220900029217, 37.94916200010405], [-123.05008399955499, 37.94801600022485], [-123.04112100041719, 37.945465000017194], [-123.0304200001565, 37.94330699970848], [-123.02250700043179, 37.942064999832425], [-123.01022600013023, 37.941337000160146], [-123.00110900010836, 37.941357999972396], [-122.99312699988836, 37.94109099968582], [-122.98473499958956, 37.94053599970368], [-122.97642799967956, 37.94014899979401], [-122.968073000089, 37.940266999995195], [-122.95958799990377, 37.94061900020242], [-122.95322400025779, 37.94109300034963], [-122.94591599970728, 37.942670000263185], [-122.93796899964738, 37.94444300003861], [-122.9319270002167, 37.94667200006786], [-122.92620700010295, 37.95062600031457], [-122.91916999971409, 37.95483500008625], [-122.91339699989688, 37.9597650002606], [-122.91252700040882, 37.96078400009431], [-122.90923599990758, 37.96464399969993], [-122.90548900019508, 37.970574000325755], [-122.90228399990752, 37.97738600016847], [-122.89742099976135, 37.97574700008803], [-122.89276400037782, 37.974686000044805], [-122.88929100030168, 37.974109000113216], [-122.88255500021168, 37.96887600032747], [-122.87905700002122, 37.966578000194765], [-122.87610399962877, 37.9663419998407], [-122.87518599956181, 37.9647879997592], [-122.87272199978923, 37.96248000017336], [-122.86866200008225, 37.95948800017973], [-122.86513299992963, 37.957880999748916], [-122.86395799994474, 37.95723400016814], [-122.86250299957736, 37.95526900002394], [-122.85958400041844, 37.95225000032524], [-122.85722199985479, 37.949913000090845], [-122.85708100028778, 37.94977400026855], [-122.85457399995917, 37.9476339998348], [-122.8504599998255, 37.94558500001652], [-122.84945300007011, 37.941803000183576], [-122.84786200015863, 37.93747799965805], [-122.84607999955311, 37.931600999824894], [-122.8442769999295, 37.927342000137386], [-122.84213399964895, 37.923317000339864], [-122.83889599974945, 37.91891400016504], [-122.83322599986442, 37.913414999920285], [-122.82980399984191, 37.910325000168726], [-122.82537099986607, 37.90709300035306], [-122.8187920001349, 37.903238999989256], [-122.81413400002815, 37.901083999716356], [-122.80748999999966, 37.89911700001209], [-122.80638899963463, 37.89880300005897], [-122.8003399996329, 37.897077999854176], [-122.79310499977566, 37.895004999938564], [-122.78902699962703, 37.893763000094914], [-122.78822099971308, 37.89102700030648], [-122.78703700040568, 37.88811999980766], [-122.78639100032531, 37.88694700010445], [-122.78547200043344, 37.8852769997712], [-122.78491400021659, 37.88441000009903], [-122.78228999971213, 37.88033499993685], [-122.77991399980307, 37.8771640001801], [-122.7791410003994, 37.8761320003153], [-122.77801900011798, 37.874927999808456], [-122.77370599979272, 37.87084699986065], [-122.7667710004094, 37.86580399984366], [-122.76019199977995, 37.861858999795295], [-122.75789500041193, 37.860482000030885], [-122.75246599965301, 37.85769899997039], [-122.75109800022257, 37.85734800021335], [-122.74143700022755, 37.85541400012518], [-122.7402580000447, 37.85517400005852], [-122.73066599964666, 37.850059999963605], [-122.72431100022149, 37.847679999932204], [-122.71584500030288, 37.84562500024986], [-122.70467899971175, 37.84429599981145], [-122.69700000033879, 37.84472499972843], [-122.6919870004048, 37.84500600026266], [-122.67801800010736, 37.84789100001351], [-122.67565399989387, 37.84851699968715], [-122.67530499991442, 37.84822899995118], [-122.66788000008634, 37.84210199977621], [-122.66742499980168, 37.84172600003686], [-122.65560999965545, 37.83582100032252], [-122.64316299967254, 37.830450999849525], [-122.64168499973897, 37.8300850002834], [-122.63247200035592, 37.82780700004626], [-122.6323860001422, 37.82770400016041], [-122.6295830004359, 37.82436699967914], [-122.62610500033688, 37.82159700029125], [-122.62609199991809, 37.82159300027179], [-122.62609100009317, 37.821638000300894], [-122.61228500000237, 37.815224000352075], [-122.58458800033027, 37.815228000007], [-122.55088600013907, 37.81532799982623], [-122.54638600021606, 37.815228000007], [-122.53623200030151, 37.81530299988413], [-122.53408800019606, 37.81534700028752], [-122.53009999956083, 37.815430000041594], [-122.5299089997651, 37.815399999867665], [-122.52970799992367, 37.81514699985541], [-122.52920800033145, 37.81527099983234], [-122.52893299997184, 37.81549300008334], [-122.52884099991034, 37.81547199983888], [-122.52855300003024, 37.81537400003821], [-122.52802499995065, 37.81510200012708], [-122.5277389997204, 37.81513999974177], [-122.52774799994121, 37.81548199965189], [-122.52782499993411, 37.8157039999781], [-122.52840599971715, 37.81612600008729], [-122.52849299975578, 37.81644200023423], [-122.52889199996397, 37.816923000347316], [-122.52857599959646, 37.81727500008322], [-122.52858599964222, 37.81764000014351], [-122.52894600039063, 37.81818300025711], [-122.5289720003299, 37.81845400030029], [-122.52931399973835, 37.81867700007141], [-122.5293589999442, 37.81900899987326], [-122.52930600024077, 37.81916100010497], [-122.52907100006409, 37.81965200019947], [-122.528851999781, 37.82010800024099], [-122.52830000031025, 37.8205380001644], [-122.52776499965965, 37.820782000185176], [-122.52715700011242, 37.82095899976818], [-122.52666199964479, 37.820882000286424], [-122.52624999991613, 37.820978000199354], [-122.526182999969, 37.82114399972457], [-122.52581399989805, 37.821052999911416], [-122.52553100004084, 37.82111900033295], [-122.52558799994223, 37.82188799988411], [-122.52532699982632, 37.822512999749755], [-122.52486800024202, 37.82241599988819], [-122.52439500041399, 37.82249200008312], [-122.52415699986429, 37.822645000051466], [-122.5241779997807, 37.82280099984565], [-122.52451400023968, 37.8229719999918], [-122.5246139997988, 37.82335600008362], [-122.52437399959928, 37.823653999853484], [-122.5238239997784, 37.82403599964637], [-122.52382700015143, 37.82455300010504], [-122.52356900040856, 37.82466099977098], [-122.52285999968069, 37.82492900009895], [-122.52069700020695, 37.825278999707834], [-122.519783000338, 37.82512199969529], [-122.51916700039484, 37.82504999991227], [-122.51848899962908, 37.82529000009845], [-122.51767799969227, 37.82519899972059], [-122.51720599968918, 37.8249810001134], [-122.51717599955194, 37.824820000331854], [-122.51687599997628, 37.8246720002537], [-122.51671100011983, 37.82477400032976], [-122.51592600012229, 37.82530000000056], [-122.51507199962944, 37.825243999679735], [-122.5129400001179, 37.82474999982368], [-122.51244200017551, 37.824520000017884], [-122.51218699990739, 37.82456699996552], [-122.5117790003767, 37.824702999992596], [-122.51128800010703, 37.824702999992596], [-122.50586000007132, 37.82306499989245], [-122.50556499962022, 37.8228360003228], [-122.5056330002906, 37.82227400028529], [-122.50488400027807, 37.821806999944386], [-122.5048240000036, 37.82131000029574], [-122.50447500002414, 37.82103299966447], [-122.50338299987993, 37.821128000256834], [-122.50312299958894, 37.82092200014705], [-122.5028670003942, 37.82090199986462], [-122.50193900028151, 37.82152400007925], [-122.50165300005125, 37.821494000253125], [-122.50167899999052, 37.821227999889246], [-122.50176699985408, 37.82115000014501], [-122.50176699985408, 37.82089799980749], [-122.50139199993534, 37.820623000149816], [-122.50135900032339, 37.8204350000677], [-122.50070800022013, 37.81985099992912], [-122.49909600039226, 37.81988300012439], [-122.49914300024791, 37.82025899978327], [-122.4996770001753, 37.820601999945445], [-122.49979400035117, 37.820861000155794], [-122.49987899984166, 37.82158600005979], [-122.49962000027386, 37.82188399988038], [-122.4988119998118, 37.8222270002966], [-122.4964180003594, 37.82231999971685], [-122.49618599965748, 37.82206799982604], [-122.49584000005109, 37.82213700021957], [-122.49533299988789, 37.822588000030784], [-122.49500599964975, 37.822793999748264], [-122.49477300002123, 37.82325899991086], [-122.4943689997902, 37.823603000123434], [-122.49356100022642, 37.82394700015179], [-122.49318600030769, 37.824656999917586], [-122.49242499970129, 37.82490000002041], [-122.4921159999048, 37.825078999931854], [-122.49208300029285, 37.825328000145014], [-122.49159899969584, 37.82571100026917], [-122.49122499960204, 37.82660299985186], [-122.4898980001795, 37.82690199974756], [-122.48854200044464, 37.826764999758254], [-122.48725399958354, 37.826460999790285], [-122.48620300034553, 37.82624199988926], [-122.48506400034564, 37.8264459998178], [-122.48483099981881, 37.826664000064184], [-122.48455899983225, 37.82688099991071], [-122.4841539997763, 37.82681199969518], [-122.48346099984026, 37.82649200019683], [-122.48322999986159, 37.82628600015806], [-122.48325900017389, 37.82564499969663], [-122.48251099998625, 37.82568600029577], [-122.48181600040039, 37.826057999706535], [-122.48099399969462, 37.82596899981217], [-122.48075799969307, 37.825876000023094], [-122.47967999979257, 37.82543999990712], [-122.47957000018769, 37.82543600009595], [-122.47943799994322, 37.82543200028456], [-122.47920799978944, 37.82542699998782], [-122.4790939999866, 37.825423999951504], [-122.47893199960491, 37.825418999654275], [-122.47881500032736, 37.8254179998786], [-122.47873800033447, 37.82538999976824], [-122.47843899968542, 37.825280000194965], [-122.47809200025411, 37.82534899971423], [-122.47809399990393, 37.825578999774635], [-122.47835300037, 37.825762999732596], [-122.47835300037, 37.82651900012824], [-122.47855500003638, 37.8273640003225], [-122.47858099997565, 37.82850299975055], [-122.47855199966334, 37.82854100027126], [-122.47844000040867, 37.82882799981887], [-122.47846999964756, 37.82921799971416], [-122.4785919998463, 37.82936399974507], [-122.47869999980134, 37.82949299998393], [-122.47861399958762, 37.82996299978804], [-122.47844200005845, 37.8309119997883], [-122.47832900008058, 37.83102599969833], [-122.47812499986607, 37.83123299968215], [-122.47786499957508, 37.83130100032476], [-122.4772889998149, 37.83105000029175], [-122.47703000024711, 37.83114900026256], [-122.47708600032362, 37.83132500011921], [-122.47740299961772, 37.83166900033608], [-122.47733700039377, 37.831943000297606], [-122.47728799998998, 37.83214799975876], [-122.47744100015086, 37.83221400019087], [-122.47760600000728, 37.832286000078945], [-122.47809599955377, 37.832744999842014], [-122.47801000023831, 37.83304099995545], [-122.47780799967364, 37.833224000083405], [-122.47711599956254, 37.83345300005394], [-122.47613399992147, 37.833637000243286], [-122.4744889995833, 37.833637000243286], [-122.47431600022927, 37.833523000110624], [-122.47417099956598, 37.83265299975667], [-122.47393999958732, 37.832194999814504], [-122.47361900009525, 37.831928999707934], [-122.47330500027593, 37.831852000319685], [-122.47289699984692, 37.83188599965403], [-122.47282999989976, 37.83189199991058]]]}, "properties": {"GEOID": "06041", "NAME": "Marin County"}}]}