{"type": "FeatureCollection", "features": [{"type": "Feature", "geometry": {"type": "Polygon", "coordinates": [[[-124.31611300036779, 41.72839000018186], [-124.31370399994846, 41.72749099981762], [-124.3003010002638, 41.72414499992371], [-124.29191399998787, 41.71809000024929], [-124.28421799999816, 41.71341399988251], [-124.27806199986631, 41.709673999737554], [-124.26242100036485, 41.70185700030679], [-124.25119100019964, 41.69753500018656], [-124.24947300006654, 41.69695799966974], [-124.24543299955275, 41.69595000006913], [-124.24193199988753, 41.69500500005596], [-124.23685600020431, 41.694640000294555], [-124.23604199989445, 41.69415700010023], [-124.23591499967284, 41.69414499989088], [-124.22986499984621, 41.68970200028733], [-124.2226049998746, 41.68526699985022], [-124.21515999995505, 41.68227299981661], [-124.2117060001455, 41.6811929999274], [-124.20854600006382, 41.67381599967392], [-124.21000200025608, 41.66931899968644], [-124.21178399996332, 41.66190700024698], [-124.21182300032135, 41.65270099986358], [-124.21048900032781, 41.64946300009487], [-124.21141900009032, 41.64168800017268], [-124.20978499962281, 41.63520499982892], [-124.20738600014752, 41.62929500007827], [-124.20453499986232, 41.624838999930596], [-124.20133999962053, 41.61940399975547], [-124.19582899974418, 41.6131619997246], [-124.1901129998284, 41.608190000204594], [-124.19045699978496, 41.60460699976895], [-124.19053299995295, 41.59874000015236], [-124.18918800008875, 41.59178000022238], [-124.18712699982397, 41.5889699998552], [-124.18827300039484, 41.58365299991613], [-124.18873000032933, 41.57896399976838], [-124.18847400023631, 41.57574200020163], [-124.18833600014406, 41.57399600020548], [-124.18499000028953, 41.56576899981441], [-124.17996099956369, 41.558325000007066], [-124.17227399979481, 41.55097899984629], [-124.16446400000227, 41.54523999980164], [-124.16049299998376, 41.54340899972263], [-124.1605160004483, 41.5380099997562], [-124.16011100039235, 41.52938599995236], [-124.15794299999742, 41.518961999736405], [-124.15356799974789, 41.51075299997317], [-124.1518210002008, 41.508214000047175], [-124.151731999614, 41.50388700023721], [-124.15130499981676, 41.49984199992281], [-124.14733899982112, 41.49303599973846], [-124.14412799968581, 41.48688099996814], [-124.1425080003603, 41.482779999728], [-124.14054400017991, 41.47723500007597], [-124.13906000039854, 41.47293299977687], [-124.13789200008632, 41.46829799994266], [-124.13656099956752, 41.464452000174816], [-124.12618599972008, 41.4643809998084], [-124.07423500031474, 41.46472699997855], [-124.07413900005531, 41.46472699997855], [-124.07019499980098, 41.46473200024567], [-124.06996999967006, 41.46473200024567], [-124.06520199995845, 41.464740000133766], [-124.06268100028446, 41.464813000076774], [-124.0604810001025, 41.46479299970403], [-124.0591239996444, 41.46479000008517], [-124.05570699964478, 41.46478099988132], [-124.05524200021267, 41.46478000023261], [-124.0510639996066, 41.46477100002737], [-124.05091499964372, 41.46477100002737], [-124.0474149998034, 41.46477600029115], [-124.04621100040451, 41.464778999910656], [-124.04567400010407, 41.46478000023261], [-124.04434099993543, 41.46478299985193], [-124.04410599975881, 41.46478400017382], [-124.0437950003125, 41.46476599976326], [-124.04191999982054, 41.46478099988132], [-124.0418339996068, 41.46478200020325], [-124.04009899975527, 41.46479700031761], [-124.03775100033363, 41.46481799966409], [-124.03761900008918, 41.46481899998545], [-124.03750699993617, 41.46482000030673], [-124.03746699975319, 41.464820999954874], [-124.03740200035419, 41.464820999954874], [-124.03718100042124, 41.464822999924245], [-124.03696399978794, 41.46482400024547], [-124.03652799976986, 41.46483000015312], [-124.03575299981804, 41.46483600006022], [-124.0340299996621, 41.46485300013054], [-124.03320700002968, 41.464861000003694], [-124.0326029997821, 41.464866999907926], [-124.03225899982552, 41.46487000019645], [-124.03066899973894, 41.46487600009984], [-124.03016800032182, 41.46487699974707], [-124.02874700028966, 41.4648809996823], [-124.02535500040436, 41.46488999987226], [-124.02532899956681, 41.46488999987226], [-124.02283999967983, 41.46494400031247], [-124.02230699957735, 41.46494800024355], [-124.01902600002016, 41.46493700009585], [-124.01874200033804, 41.464935999776365], [-124.01722099984842, 41.46495299982047], [-124.0167489998453, 41.46495800007021], [-124.01641800030752, 41.46496200000044], [-124.01623900020738, 41.46496399996546], [-124.01406499996469, 41.46493700009585], [-124.013473000311, 41.464929000232054], [-124.01323999978416, 41.464925999946324], [-124.00875300027994, 41.46504300021735], [-124.00866000039353, 41.46504500017987], [-124.00669200001518, 41.46509499989609], [-124.00614899986697, 41.46510900029435], [-124.001724000287, 41.465224000278226], [-124.00118299978863, 41.46523799997552], [-124.00118100013879, 41.465143999930596], [-124.00118100013879, 41.465104999700074], [-124.00118299978863, 41.464979999683415], [-124.00118299978863, 41.464278000266894], [-123.99761400035133, 41.46429000018269], [-123.99585699986015, 41.464294999810384], [-123.99534499967409, 41.464296999795984], [-123.99534999969696, 41.46530599980851], [-123.99403400014508, 41.465290000171045], [-123.99341499982887, 41.46528299999178], [-123.99222499977539, 41.46527399985641], [-123.99213500026201, 41.46526299976405], [-123.99154100006015, 41.465189000012046], [-123.99137700002865, 41.465189000012046], [-123.99132199977706, 41.465189000012046], [-123.99124300013432, 41.465189000012046], [-123.97815099989597, 41.46517500030422], [-123.96963100044898, 41.46533599979137], [-123.96875400038992, 41.46535299973059], [-123.96869400011543, 41.465354000043696], [-123.96725299999179, 41.46538099973962], [-123.96483799972468, 41.46531299998529], [-123.96073100016204, 41.46534100001153], [-123.9606430002985, 41.46534100001153], [-123.95921300004548, 41.46535299973059], [-123.9591009998925, 41.465354000043696], [-123.9576229999589, 41.46536700007321], [-123.9573190001853, 41.46536900002574], [-123.95545799993702, 41.46538500031693], [-123.94990400040297, 41.465432999820415], [-123.94960899995186, 41.46543600008274], [-123.94920700026897, 41.46543899967171], [-123.94857299988414, 41.46546799995488], [-123.94789699966655, 41.46549900017361], [-123.94713299958536, 41.46550399970808], [-123.91846799961762, 41.46567899999989], [-123.91721399999, 41.46568699977115], [-123.91614000028747, 41.4656809999428], [-123.91405499973327, 41.46567100022765], [-123.91301100016793, 41.46566699966799], [-123.9127340001585, 41.46566400008952], [-123.9095439999396, 41.465789999767026], [-123.90848699995547, 41.46579800019776], [-123.90266999975734, 41.465838000317085], [-123.90257900041904, 41.465838000317085], [-123.90225399983072, 41.46584400013086], [-123.90223000043959, 41.46584400013086], [-123.90218199986072, 41.46584400013086], [-123.89705099992592, 41.465842000192985], [-123.89575100026757, 41.46584299982536], [-123.89140699998018, 41.46584600006867], [-123.88586099994369, 41.46584299982536], [-123.8857570001866, 41.46584299982536], [-123.88569500026233, 41.46584400013086], [-123.88569500026233, 41.465774000249], [-123.885670000148, 41.46439099972249], [-123.88567199979778, 41.464341999792126], [-123.88569100006436, 41.46385100013515], [-123.88326499992661, 41.46383799980165], [-123.87963299984182, 41.4638179998014], [-123.87837199964319, 41.46381300013692], [-123.87817800037276, 41.46381300013692], [-123.87791100040906, 41.4638110001364], [-123.87671799998252, 41.46380599979826], [-123.87618099968209, 41.46380199979672], [-123.87612799997864, 41.463799000131964], [-123.8757389998162, 41.463825000138776], [-123.87313500030152, 41.46398099996061], [-123.87288900025425, 41.46398600028526], [-123.86511799992144, 41.46400200024454], [-123.8472320000322, 41.464036999805124], [-123.84597599985646, 41.464040000131995], [-123.8188879995565, 41.464095000266234], [-123.8008019996507, 41.464131000108544], [-123.77055099979431, 41.464192999790114], [-123.77052300020523, 41.45706299993398], [-123.7704799996492, 41.44581500021927], [-123.77044100018945, 41.435667000009396], [-123.77043500034166, 41.43422499971008], [-123.77041900044816, 41.42993399968301], [-123.7703459997549, 41.41042200029177], [-123.7703459997549, 41.41037200021026], [-123.7703459997549, 41.410301999762076], [-123.77032900003647, 41.40599099976678], [-123.77034800030306, 41.39970099980693], [-123.77034800030306, 41.399611999719994], [-123.77027999963265, 41.388425999803374], [-123.77023899962478, 41.38077599967645], [-123.75607900042996, 41.38098000025181], [-123.75570299978801, 41.38098700008841], [-123.75117799975065, 41.38105199978667], [-123.74607199993021, 41.38168599990701], [-123.74564599995786, 41.381690000251716], [-123.73545900043138, 41.38175199983433], [-123.71809400005071, 41.38185799967962], [-123.71797600004994, 41.38185899993169], [-123.71761000035205, 41.38186000018376], [-123.69107100004808, 41.38202199969749], [-123.68830199977863, 41.381951999715824], [-123.68794399957837, 41.381951999715824], [-123.68703999975511, 41.38195799987124], [-123.68687800027173, 41.381956000044156], [-123.68466899986896, 41.381927999762475], [-123.68435099985163, 41.38192400010645], [-123.68220300044652, 41.381905000051695], [-123.6817570003827, 41.38190899970894], [-123.66136300033992, 41.38208999978086], [-123.66037699960259, 41.38502100020608], [-123.65903500011144, 41.38586200004322], [-123.65842800038914, 41.38624000017969], [-123.65787900039312, 41.38643599968488], [-123.65723699961238, 41.3869439996686], [-123.65720599965026, 41.38696799979252], [-123.65699999978592, 41.38714399975674], [-123.65698600044055, 41.38715599978286], [-123.65678800007383, 41.38732500008457], [-123.65655200007228, 41.38745800004904], [-123.6565339996306, 41.38746799968572], [-123.65652000028523, 41.38747599966353], [-123.65575500037917, 41.38790700021491], [-123.6554699999738, 41.38842999973345], [-123.65544499985944, 41.388588999956745], [-123.65543999983657, 41.38862099998438], [-123.65543700036183, 41.38863600018144], [-123.65543399998879, 41.388655999764865], [-123.65542300011812, 41.38872800023607], [-123.65540899987444, 41.388819000015566], [-123.65537600026246, 41.3890320002234], [-123.65538700013312, 41.38911400033568], [-123.65539399980582, 41.38912700013854], [-123.65547599982158, 41.38959899992882], [-123.6555610002104, 41.38991399994982], [-123.65566999999035, 41.39030599980639], [-123.65622300018431, 41.391447999844296], [-123.65575700002896, 41.39378399993367], [-123.65600499972608, 41.395307000334775], [-123.6534210003029, 41.39620999982209], [-123.64762900021913, 41.397546000268186], [-123.6475630000969, 41.397554999690286], [-123.64713700012454, 41.3976199996728], [-123.64627000011122, 41.39814499989575], [-123.64625599986753, 41.39815399990883], [-123.64579100043542, 41.39843299969544], [-123.64485999994969, 41.39860400032034], [-123.64164799998949, 41.40018799986609], [-123.64173599985301, 41.404425999712686], [-123.63919799956228, 41.406747000248586], [-123.63891300005524, 41.407365999855145], [-123.63917599982096, 41.40853600026655], [-123.63902900040618, 41.41001700014212], [-123.64042399960077, 41.412193999782076], [-123.64103899971902, 41.413341000112375], [-123.64110400001637, 41.41357700009861], [-123.64117900035943, 41.41380400003567], [-123.64134500004076, 41.414599000179486], [-123.6420150004106, 41.41565799987549], [-123.64301600031821, 41.416460000291856], [-123.6448110004442, 41.418181000294275], [-123.64763000004405, 41.419377000243564], [-123.64855999980654, 41.42082300023097], [-123.64708400042109, 41.42194399980728], [-123.64587299955288, 41.42301600007946], [-123.64372799962251, 41.424709999691814], [-123.6422339997954, 41.42566700024541], [-123.64096599992409, 41.42620600020883], [-123.64070800018123, 41.426342999706264], [-123.64067100037131, 41.42644399973085], [-123.64066600034845, 41.42645700014941], [-123.6406560003027, 41.42648500010945], [-123.64064799990678, 41.42650699997336], [-123.63998500010797, 41.42690999989681], [-123.63922100002681, 41.42704099989481], [-123.63872200025953, 41.42712700011484], [-123.63834200031793, 41.42753799999272], [-123.6377919995987, 41.4280959999452], [-123.6340530002821, 41.42816900004169], [-123.63303499975775, 41.428307999860166], [-123.6300889999363, 41.43000600022232], [-123.62960699988744, 41.430127000228524], [-123.62928200019742, 41.430227000247136], [-123.62907700015802, 41.430320999706574], [-123.6261539999028, 41.43122099972146], [-123.62200899980702, 41.4326350000877], [-123.62172400029998, 41.433053999873884], [-123.62213900040169, 41.43463400022294], [-123.62106999982367, 41.43576799967144], [-123.62018600009192, 41.43722000010053], [-123.61969200034751, 41.43836400004932], [-123.61946800004152, 41.43905700006641], [-123.61940299974421, 41.43955000028318], [-123.61939299969845, 41.439612999929], [-123.61869300008973, 41.44163500010942], [-123.61817400023095, 41.442969999769744], [-123.61719500006465, 41.44352199987181], [-123.61667700003079, 41.44432900006095], [-123.61618099973826, 41.44459200015451], [-123.61601699970672, 41.44467800001783], [-123.61580300034475, 41.44479099995474], [-123.61566699990233, 41.44540099972527], [-123.61563699976509, 41.44554699997005], [-123.61560400015317, 41.445687000228276], [-123.61530000037953, 41.44644700030325], [-123.61313600018259, 41.44809000001046], [-123.61239499966767, 41.448953999915325], [-123.6133970002985, 41.45052400031522], [-123.61387299960127, 41.45081999976875], [-123.61397800008157, 41.450885000318614], [-123.61400099964779, 41.45089899974486], [-123.61434899980233, 41.451116999751015], [-123.61537800019734, 41.45221200012493], [-123.61549700002303, 41.45237599967045], [-123.6155039996957, 41.452385000249336], [-123.61592200017047, 41.45296099968893], [-123.61487799970685, 41.45347900026865], [-123.61398499975425, 41.45510600017796], [-123.61375700014861, 41.455889000121275], [-123.61394200009654, 41.4565010001277], [-123.6130580003648, 41.457148000331266], [-123.61258299998863, 41.4582939998811], [-123.61248500007936, 41.458609999827054], [-123.61243599967557, 41.45876699981784], [-123.61209799956673, 41.459681999821775], [-123.61201599955098, 41.46028699967271], [-123.61162700028687, 41.46157099987197], [-123.61178999959515, 41.46212700001881], [-123.61377999971482, 41.46243600032426], [-123.61512700012716, 41.46253700005907], [-123.61594300008687, 41.46321200023328], [-123.61690800000947, 41.46364400021171], [-123.61794400007717, 41.46374799975178], [-123.61802000024515, 41.4637719997773], [-123.61856800041625, 41.4637310000649], [-123.61960399958566, 41.463654999905586], [-123.61989999986166, 41.46366000025537], [-123.6201919999397, 41.46366400026567], [-123.62024499964316, 41.46367400029034], [-123.62043999963683, 41.463711999696834], [-123.62144700029054, 41.463905000094265], [-123.62272500020758, 41.46477199967627], [-123.62414500041487, 41.46622799985041], [-123.62496999969706, 41.46673200011194], [-123.6261699997963, 41.46682700016452], [-123.62662199970794, 41.466793999999055], [-123.6265070000802, 41.46745400011675], [-123.62692300000683, 41.468342000260755], [-123.62849499965174, 41.47001199983409], [-123.62989599959245, 41.47179399994058], [-123.63083399975085, 41.47275700001976], [-123.63240799994392, 41.47346000003156], [-123.63154299958046, 41.474235999925426], [-123.63112099980603, 41.47539400024456], [-123.63106399990464, 41.4755730000386], [-123.63056699978718, 41.47712300025446], [-123.63205499976652, 41.47776100023022], [-123.63220299990451, 41.47786500000855], [-123.63233400032406, 41.47795800033558], [-123.63387699965668, 41.47904599975581], [-123.6346230001945, 41.480065999996064], [-123.63552799984265, 41.48128900015824], [-123.63748500035034, 41.48224300002671], [-123.6377709996823, 41.48238199976717], [-123.63540300016916, 41.48369600006991], [-123.63484900015028, 41.48467699990456], [-123.63443999989639, 41.48539799990598], [-123.63446300036094, 41.48607500026865], [-123.63516299996967, 41.48667900015011], [-123.6354750001392, 41.488184000314405], [-123.6360319996328, 41.48905100020567], [-123.63592799987573, 41.489599999951324], [-123.63584800040809, 41.490919000163046], [-123.63575100032371, 41.49185300012974], [-123.63648199989461, 41.49327500028388], [-123.63802799960025, 41.49531499967202], [-123.6381079999662, 41.49540200008171], [-123.63820400022566, 41.495505999807094], [-123.6383399997698, 41.49580599986503], [-123.63838499997561, 41.49590499973394], [-123.63854300015936, 41.49614399978619], [-123.63855400003003, 41.49616099971974], [-123.63879000003159, 41.49651600032007], [-123.63891600042827, 41.49678799985012], [-123.63908600030759, 41.497156000087514], [-123.63911300007177, 41.497214999667804], [-123.63930399986748, 41.4979890000978], [-123.63934499987538, 41.498726999904484], [-123.63939900030203, 41.49913200026964], [-123.63943399956382, 41.499389999859424], [-123.6395239999755, 41.499868000274084], [-123.63953999986904, 41.499952999719405], [-123.63986399973412, 41.5008800002467], [-123.63987499960477, 41.5009120001129], [-123.64013700044393, 41.5016549996872], [-123.64022600013239, 41.501678000053225], [-123.64027999966073, 41.50193999993121], [-123.64077699977818, 41.50208999969744], [-123.64098600001557, 41.50327599989551], [-123.64089800015203, 41.504760000100525], [-123.64089300012914, 41.504846000228525], [-123.64086800001479, 41.50496600020063], [-123.64086299999192, 41.50498799968923], [-123.64077299958024, 41.50541900005858], [-123.64064100023407, 41.50623300006508], [-123.6407419996181, 41.507370000033795], [-123.64094400018277, 41.50767699993532], [-123.64263999967626, 41.50869599982945], [-123.64411400031022, 41.50926399970098], [-123.6445079995972, 41.5096270001828], [-123.64488900026201, 41.510578999920476], [-123.64549299961129, 41.511724999991635], [-123.64592000030684, 41.51204899989369], [-123.64613200001897, 41.51242000028752], [-123.64619300011834, 41.51321700023123], [-123.64612500034626, 41.514039999821044], [-123.6461989999661, 41.514261000092176], [-123.6462249999054, 41.51433899988899], [-123.64629799970032, 41.51455900025826], [-123.64621099966169, 41.51470599971527], [-123.64615899978315, 41.51525099974907], [-123.64615799995823, 41.51526399985919], [-123.64614200006471, 41.51542600023676], [-123.64603800030764, 41.51578899979744], [-123.64596499961438, 41.51604399967225], [-123.64595499956867, 41.51609799986504], [-123.64587199972797, 41.516540999920146], [-123.64586900025324, 41.51655600016198], [-123.64585800038259, 41.51661500022747], [-123.64576100029821, 41.51741800005809], [-123.64563699955133, 41.518315999918876], [-123.64574799987942, 41.51841599984392], [-123.64577999966647, 41.51844499996143], [-123.64584699961361, 41.51850599998066], [-123.64581300017673, 41.519004999798355], [-123.64557399980214, 41.51968999982612], [-123.64539200022726, 41.51979099979132], [-123.64522999984557, 41.519881000033685], [-123.64520100043154, 41.519980000088474], [-123.6451210000656, 41.52022599969115], [-123.64511799969256, 41.52023500026587], [-123.6451009999741, 41.52028599991173], [-123.64508400025568, 41.52031800027569], [-123.64513399958608, 41.520366000119296], [-123.64518600036293, 41.52057600019364], [-123.64504499989762, 41.52100500011074], [-123.64421800006728, 41.521723000276644], [-123.6435219997582, 41.52214200024371], [-123.64305899997593, 41.52234999972366], [-123.6430380000595, 41.52235900000297], [-123.64302700018888, 41.52236399985867], [-123.64299799987656, 41.522377999990596], [-123.64297699996014, 41.52238799969869], [-123.64274099995859, 41.52250399969686], [-123.64261999958477, 41.52269900007171], [-123.64279100018733, 41.52300499981677], [-123.64353699982681, 41.52340299969392], [-123.64408099979995, 41.523669000102444], [-123.64431400032676, 41.524031999836225], [-123.64436500038036, 41.524161999996046], [-123.64445200041901, 41.5243899998525], [-123.64448099983301, 41.524466000074455], [-123.64449500007672, 41.5245020000069], [-123.6445079995972, 41.5245359997752], [-123.6445150001682, 41.524555999867914], [-123.64469300044344, 41.52485100018144], [-123.64494100014056, 41.525277999883], [-123.64511799969256, 41.52567000024825], [-123.645402000273, 41.52628299982792], [-123.64540800012078, 41.52629599973965], [-123.6454790002659, 41.5264489996945], [-123.64567599990941, 41.52679099986769], [-123.64570000019883, 41.5268330000711], [-123.64571699991725, 41.526862999815386], [-123.6463169999669, 41.5279050001007], [-123.64632500036282, 41.52791899970634], [-123.64660800022003, 41.52848699969235], [-123.64661499989275, 41.52850099984452], [-123.6466259997634, 41.528524000087955], [-123.6466359998091, 41.528544000292975], [-123.64665000005283, 41.528571999897075], [-123.64680700041166, 41.52888800016159], [-123.64682599977992, 41.528985999883204], [-123.64682999997787, 41.52900899995417], [-123.64683500000076, 41.52903600002707], [-123.64685799956698, 41.52915900021661], [-123.64688000020658, 41.529275000181094], [-123.6468810000315, 41.529315000120604], [-123.64688299968134, 41.5293430000636], [-123.64688900042742, 41.529359000025536], [-123.64688299968134, 41.529384999955276], [-123.64687699983355, 41.52948700025128], [-123.64688400040455, 41.52957099982041], [-123.64689899957487, 41.530024000324346], [-123.64689799974995, 41.53005399993399], [-123.64689799974995, 41.53007399966602], [-123.64689199990215, 41.530262000207294], [-123.64683800037379, 41.531422000303664], [-123.64680200038879, 41.53172399997245], [-123.64675200016006, 41.53213700000707], [-123.64693399973496, 41.53250700029167], [-123.64716100041399, 41.532752000069706], [-123.64717399993447, 41.53275699979478], [-123.64770100018916, 41.53330700014226], [-123.64828199997221, 41.5338600003043], [-123.64826400042887, 41.53433300012188], [-123.64804599997066, 41.535024000075246], [-123.64828000032239, 41.53526600001552], [-123.64917599974969, 41.53602299988185], [-123.64989799999806, 41.5368929997338], [-123.65072700037655, 41.53794800010411], [-123.65098400029449, 41.538068999760384], [-123.65126100030392, 41.53821399988379], [-123.65145299992454, 41.538423999857145], [-123.65219899956402, 41.538874999851814], [-123.65253800039605, 41.53918800000758], [-123.65263600030536, 41.53927800016507], [-123.65279600013893, 41.53939099993895], [-123.65305300005687, 41.53942499995125], [-123.65336299967827, 41.53939300029613], [-123.65381399976498, 41.5392489999711], [-123.65417899963795, 41.53912100023485], [-123.6546609996868, 41.53890500006343], [-123.65472699980904, 41.53882499991648], [-123.65485499985556, 41.53867200031799], [-123.65513400041316, 41.53861499990039], [-123.65551900037761, 41.53863100025862], [-123.65588699972534, 41.53862399993427], [-123.65601200029711, 41.538622000225715], [-123.65641700035306, 41.53861599975478], [-123.65676999963216, 41.53861499990039], [-123.65756100037581, 41.53883600029556], [-123.65836200026689, 41.53910300030414], [-123.65892799998133, 41.53933800020049], [-123.659932000262, 41.539832000214005], [-123.6613199997839, 41.54048000003369], [-123.66155499996054, 41.540495999930464], [-123.66175800035013, 41.54056099997486], [-123.66233900013317, 41.5408920001492], [-123.66350800027028, 41.54107399993557], [-123.6635800002403, 41.5410849999321], [-123.66383399978521, 41.54112499996487], [-123.6641500001527, 41.54116199985545], [-123.6644239997891, 41.541204000141754], [-123.66470599982138, 41.541258999995144], [-123.66479399968493, 41.541273999885895], [-123.6649300001274, 41.54129599980905], [-123.66514199983949, 41.54130599995503], [-123.66539700010762, 41.54131900020971], [-123.6655650003371, 41.541355999989335], [-123.66563099956102, 41.54139999977237], [-123.66565900004842, 41.541417999736076], [-123.66618499957988, 41.54164200006099], [-123.66651699984091, 41.54173099968655], [-123.66673000027623, 41.541877000144176], [-123.66708199973041, 41.54206299972469], [-123.66751000025093, 41.542216999840086], [-123.66783099974297, 41.542289999897676], [-123.66822699957811, 41.54216999986994], [-123.6684729996254, 41.54213800022842], [-123.6687620002287, 41.542139000028335], [-123.66894399980359, 41.542283999767086], [-123.66896100042034, 41.54239299981104], [-123.66898099961351, 41.54252500031535], [-123.66898399998655, 41.54254399975963], [-123.6689930002074, 41.54260599971209], [-123.66921199959218, 41.542814999753766], [-123.66935499970732, 41.542804999841145], [-123.66938400001963, 41.54280300026186], [-123.6695229999368, 41.543022000219736], [-123.66953499963236, 41.54304100019031], [-123.66963199971676, 41.54335500013427], [-123.66968500031852, 41.543680000125654], [-123.6696929998161, 41.54373199989199], [-123.66981199964182, 41.54393900011181], [-123.67003400029797, 41.54408600006038], [-123.67049999955499, 41.544127000023025], [-123.67058199957073, 41.54411500010224], [-123.6709520003649, 41.5440629999716], [-123.67109499958174, 41.54401599999849], [-123.67146200000285, 41.54389400026658], [-123.67172399994368, 41.5437490001039], [-123.6717470004082, 41.543735999665444], [-123.67191300008956, 41.54396600000392], [-123.67215900013687, 41.54397499996548], [-123.67251200031428, 41.543912000208415], [-123.67298400031737, 41.543767000086156], [-123.67329300011384, 41.54362399986505], [-123.67373699962957, 41.543459000147905], [-123.67375500007122, 41.54344499987137], [-123.67390499985905, 41.54334099983521], [-123.67416199977698, 41.54337400000704], [-123.67450400008374, 41.543502999844684], [-123.67501600026984, 41.54382699999068], [-123.6757319997721, 41.544038000333444], [-123.67635299973813, 41.54413500019311], [-123.67694100009217, 41.54416100023473], [-123.67794700002266, 41.54413800017257], [-123.67934899978829, 41.54410099996773], [-123.68045199980313, 41.54401399978431], [-123.68131999964137, 41.54382199977666], [-123.68174899998678, 41.54362200031105], [-123.68223199986052, 41.543203000279], [-123.68254300020516, 41.54305100006643], [-123.68294900008603, 41.543204999845905], [-123.68405899977358, 41.54388399984847], [-123.68483899974824, 41.54436900019128], [-123.68542499955417, 41.54506299975701], [-123.68592599986961, 41.54560399993562], [-123.68612699971105, 41.54617699996944], [-123.68617799976468, 41.54670899998739], [-123.68629300029072, 41.54733800009475], [-123.6868060003017, 41.54801699972326], [-123.6877229996454, 41.54884899970035], [-123.68896299992764, 41.549285999911575], [-123.68945400019732, 41.549513000273976], [-123.68968799965073, 41.54991600017385], [-123.6898130002225, 41.550786999681065], [-123.68970400044257, 41.55135899983666], [-123.68976700019178, 41.55180300013048], [-123.69024599986756, 41.55232000022565], [-123.69128399958511, 41.55244200019254], [-123.69191600032008, 41.55234699997918], [-123.69304100007626, 41.55209099967159], [-123.69388700017319, 41.55185799970779], [-123.69276099969379, 41.55257399967701], [-123.69263099999743, 41.55277499999373], [-123.69256599970012, 41.55304899969636], [-123.69273599957944, 41.55355699993888], [-123.6930650003657, 41.554218999985615], [-123.6933950000786, 41.55480800001609], [-123.69399000010533, 41.555825000043164], [-123.69401000019683, 41.55636399973791], [-123.693888999823, 41.556993000015055], [-123.6931830003665, 41.55751500010369], [-123.6919310003887, 41.55850099982191], [-123.69130299985166, 41.5590109999855], [-123.69053999959542, 41.559453999944104], [-123.69012299984392, 41.55977500021532], [-123.68925199963265, 41.5607560001579], [-123.68864699956015, 41.561805000027086], [-123.68878499965243, 41.56196499981755], [-123.68912699995919, 41.562256999758276], [-123.6893620001358, 41.56253299990716], [-123.6894030001437, 41.5628390000824], [-123.68911799973831, 41.56319600024769], [-123.68902099965396, 41.56331799985018], [-123.68900599958533, 41.563335999760966], [-123.68875899971313, 41.563546000142495], [-123.68852400043482, 41.56373199989124], [-123.6881369999222, 41.564026000180036], [-123.68795100014937, 41.56448700030115], [-123.6877689996762, 41.56584499980684], [-123.68758799992621, 41.56698499971958], [-123.68701899983871, 41.567617999765524], [-123.68644999975123, 41.56770000005991], [-123.6861650002442, 41.56773800027578], [-123.68552699966145, 41.56797799995559], [-123.6851230003287, 41.568202999727745], [-123.68456400028695, 41.56842499986412], [-123.68433900015604, 41.56855099992915], [-123.68378199976414, 41.56880899967953], [-123.68369300007568, 41.56898800001066], [-123.68384100021369, 41.56963199976583], [-123.68391700038167, 41.570079999695544], [-123.68367600035724, 41.570375000033536], [-123.68245699999142, 41.57134900020357], [-123.68182099995681, 41.5716589996843], [-123.68153399990163, 41.57177199998576], [-123.68152700022893, 41.57196400031223], [-123.68310499972164, 41.57293100007563], [-123.68379400035803, 41.57353200009894], [-123.68424399972152, 41.57408099973052], [-123.68463200005901, 41.574209000140435], [-123.68472900014339, 41.574518000037365], [-123.68477099997618, 41.57482499986736], [-123.68481000033427, 41.57510899978763], [-123.68485299999197, 41.57557200003521], [-123.68498799971117, 41.57602099971062], [-123.68548300017882, 41.576778000193045], [-123.68549300022455, 41.57720900014786], [-123.68545100039177, 41.5775899997211], [-123.68557600006524, 41.57804199990146], [-123.68588599968663, 41.57836399980123], [-123.68678200001226, 41.57885799995335], [-123.68721999968018, 41.579149000252244], [-123.68758100025352, 41.579583000190105], [-123.68795699999716, 41.57984100022937], [-123.68857799996317, 41.58038599979943], [-123.68892899959246, 41.58128900032625], [-123.68909500017213, 41.58206799969461], [-123.68887400023917, 41.58270399997476], [-123.68867000002467, 41.58332899984097], [-123.68843300019824, 41.58403299994851], [-123.68823800020454, 41.58479099972743], [-123.68789400024797, 41.58512300032972], [-123.68683300006589, 41.585636999857925], [-123.6863059998112, 41.58572500025318], [-123.68570699958649, 41.58553800019375], [-123.6851149999328, 41.58553800019375], [-123.68455199969308, 41.585736999839696], [-123.68417199975148, 41.58602100015279], [-123.68366999961115, 41.58614000027932], [-123.68318699973739, 41.586074999706675], [-123.6826100001523, 41.586034000149056], [-123.68207200002696, 41.58625099985522], [-123.68153800009955, 41.58653199989581], [-123.68134499975575, 41.58674099967335], [-123.68136599967212, 41.58705399986224], [-123.681518999833, 41.58766300031198], [-123.68266500040387, 41.589786999957155], [-123.68268299994725, 41.589819999929894], [-123.68304399962227, 41.590491000195655], [-123.68343699998263, 41.591370999775286], [-123.68347600034072, 41.5922169996811], [-123.68299099991881, 41.59317599972316], [-123.68263500026666, 41.593690999980126], [-123.68220300044652, 41.59456100030983], [-123.68231999972409, 41.59487499986246], [-123.682588000411, 41.594843999771335], [-123.68308100033047, 41.594698999710836], [-123.68354199956464, 41.59461999975394], [-123.68403399965923, 41.5947009997], [-123.68458000018049, 41.594749999750746], [-123.6857369997237, 41.594727999883375], [-123.68695799973936, 41.59481099967963], [-123.68785800026293, 41.594603000158756], [-123.68912500030935, 41.59392800028453], [-123.69003699963017, 41.59338199978158], [-123.69106799967504, 41.592891999980125], [-123.69171100028069, 41.59275600012443], [-123.69293300012126, 41.59253999980412], [-123.69392099961003, 41.591825000318636], [-123.69492999991361, 41.591407000082924], [-123.69609700040088, 41.59125600007646], [-123.69684800006324, 41.590950999853796], [-123.69758700003004, 41.590943999820745], [-123.69812199978232, 41.591291999776374], [-123.69840800001259, 41.59214700001751], [-123.69856700002124, 41.59252600008192], [-123.69887599981774, 41.59285700018789], [-123.69913199991078, 41.59324400025216], [-123.69900100038952, 41.59384799971213], [-123.6989140003509, 41.59420299981639], [-123.69930900036111, 41.59466299989555], [-123.69902800015372, 41.59525900029853], [-123.69874799977123, 41.5955970000271], [-123.69886599977197, 41.59571799992704], [-123.70006599987121, 41.59547100032333], [-123.70102999996895, 41.59543999984664], [-123.70232700015256, 41.595231999665515], [-123.70308700003575, 41.595508000005935], [-123.70415700043867, 41.59571099973912], [-123.70535599981469, 41.59579400028674], [-123.70653499999753, 41.59569100015779], [-123.70693199965756, 41.59533699982458], [-123.7072019999943, 41.59490999990409], [-123.70805899996188, 41.59466899986617], [-123.70840299991846, 41.59446000022532], [-123.70913199983951, 41.59429200029344], [-123.71029900032681, 41.59418899978304], [-123.71147900033455, 41.593869000207896], [-123.71213399973746, 41.593322000197645], [-123.71238200033291, 41.59277399989451], [-123.71250199998349, 41.59223399990467], [-123.71283500006942, 41.59199299995301], [-123.71369100021208, 41.59217100016027], [-123.71415099962132, 41.5921879997241], [-123.7149880003957, 41.591842999676516], [-123.71567499958564, 41.59131200004886], [-123.71601799971731, 41.59142500022921], [-123.71622000028201, 41.591787999868494], [-123.71707399987653, 41.59270099975062], [-123.71764999963669, 41.59330500026062], [-123.71833099987718, 41.594652000283894], [-123.7185769999245, 41.59482999987697], [-123.71908900011056, 41.59525799997674], [-123.71917399960105, 41.59561299971597], [-123.71900100024699, 41.5961610001013], [-123.7187619998724, 41.59703100005614], [-123.71851400017528, 41.597642999947475], [-123.71844800005303, 41.59796500018163], [-123.71852199967289, 41.598417000153205], [-123.71879700003251, 41.599264000002705], [-123.71854900033541, 41.59990000017145], [-123.7182260002952, 41.60044799975979], [-123.71806300008858, 41.60100399991608], [-123.71778299970609, 41.60146300033541], [-123.71748200030554, 41.60185700004502], [-123.71742700005393, 41.60218000029197], [-123.71752099976528, 41.6028409996736], [-123.71733699964227, 41.60342100002508], [-123.71705700015809, 41.60393699999976], [-123.71659400037582, 41.60472599989065], [-123.71625000041924, 41.60508799978653], [-123.71610899995392, 41.60540999981665], [-123.7161070003041, 41.60619200010849], [-123.71610599958089, 41.60654700015544], [-123.71576199962429, 41.60685300003608], [-123.7148829999154, 41.60692400001168], [-123.71442199978296, 41.60706800000604], [-123.71363900033353, 41.607211999679045], [-123.7131570002847, 41.6073969998227], [-123.71251200002924, 41.60787100032248], [-123.71192200002535, 41.608330000254945], [-123.7114269995577, 41.60891799983546], [-123.71135999961054, 41.609561999687635], [-123.711784999758, 41.61057900012972], [-123.71182699959078, 41.611046000218856], [-123.71173899972726, 41.611674999983286], [-123.71162900012237, 41.612481000210124], [-123.71175499962075, 41.61301299966711], [-123.71163599979509, 41.61354500010945], [-123.71131299975488, 41.61389099969606], [-123.71103300027073, 41.61426200012769], [-123.71103099972257, 41.61501900019649], [-123.71054600019899, 41.615663000257214], [-123.7097839997677, 41.61615399976059], [-123.70904399997598, 41.61633799978663], [-123.70832500010066, 41.61656300029851], [-123.70777699992956, 41.61698900000433], [-123.70723999962917, 41.61756900009663], [-123.70687099955819, 41.61870499974001], [-123.70679500028852, 41.61922800002042], [-123.70649300016474, 41.619704000104534], [-123.70636199974518, 41.62035599985612], [-123.7061240000938, 41.62094399994871], [-123.70570399996922, 41.62147600011335], [-123.70486700009315, 41.621910000213276], [-123.70450100039525, 41.622538000236894], [-123.70426399967047, 41.62290000023904], [-123.7038989997975, 41.62294799980105], [-123.70311600034807, 41.623221000113915], [-123.70275099957678, 41.62338100018072], [-123.70219300025826, 41.62355000014332], [-123.70148500025361, 41.6238469996997], [-123.70108699987034, 41.62420899973961], [-123.70092600021187, 41.624401999789185], [-123.70088199983091, 41.624675999855384], [-123.70065199967718, 41.62484100032856], [-123.70059399995084, 41.62582899997662], [-123.69871299961112, 41.62594100030253], [-123.69746700037942, 41.62674300018935], [-123.69746099963335, 41.62761200024994], [-123.6965559999852, 41.62823599988578], [-123.69705599957737, 41.62969099993281], [-123.6983899995709, 41.631376999830586], [-123.69753099995353, 41.63259600015266], [-123.69663999965078, 41.63386299974346], [-123.6952820002661, 41.63373099987673], [-123.69322199982622, 41.63438300012858], [-123.68607200035778, 41.6347010000994], [-123.68044400030556, 41.633956999849985], [-123.6806099999869, 41.63496300020552], [-123.67992600027168, 41.6370180002482], [-123.6809139997605, 41.63799700030321], [-123.68232399992203, 41.63985900008924], [-123.68508300014574, 41.64396999994085], [-123.68517500020724, 41.64481099978738], [-123.68539899961492, 41.64686799967919], [-123.68701999966363, 41.648214000165616], [-123.68844499989379, 41.652725999730905], [-123.68843499984803, 41.65485899985141], [-123.68828900025818, 41.65752399980159], [-123.68621100027497, 41.6589899997854], [-123.68526499972062, 41.66004800002047], [-123.68534199971349, 41.66033699998907], [-123.68601399973315, 41.66000499984231], [-123.68741300002401, 41.65972600032997], [-123.68860300007752, 41.66017199978036], [-123.68903900009562, 41.661867999807775], [-123.68907400025573, 41.66442000001614], [-123.68853399958225, 41.66532400014656], [-123.68971000029033, 41.66733200006658], [-123.68958300006875, 41.66943399978764], [-123.68695899956427, 41.67086899993809], [-123.6868270002181, 41.67212500000782], [-123.68660100026229, 41.67388899993689], [-123.68585899992244, 41.67521000018962], [-123.68539299976712, 41.676043000177295], [-123.68398400032883, 41.676588000311675], [-123.6833290000276, 41.677180000232894], [-123.68232399992203, 41.678089999922335], [-123.68093999969977, 41.67934300024914], [-123.6800109997622, 41.680185999857066], [-123.67750000013392, 41.680686000006126], [-123.6750680001484, 41.68211200006401], [-123.67476299965153, 41.683541999888114], [-123.67469200040473, 41.68387700028874], [-123.67407300008854, 41.68447999996904], [-123.66981599983976, 41.688635999975155], [-123.66972700015133, 41.68991700032537], [-123.66845699973186, 41.69054100028859], [-123.6671140004158, 41.69168900026379], [-123.66531799956658, 41.691872999967565], [-123.66284299992333, 41.69346799999525], [-123.66306300003136, 41.69456200015045], [-123.66480899975355, 41.69496600021705], [-123.66802800028478, 41.69690300030464], [-123.66921400014031, 41.698677999799884], [-123.67011700013865, 41.699342999945465], [-123.66982300041077, 41.70047900007465], [-123.67007500030584, 41.70172600028215], [-123.66940800030909, 41.703112999858234], [-123.66948000027912, 41.704586000266715], [-123.66916800010956, 41.70647899973983], [-123.66773600020673, 41.706789999678065], [-123.66662899999392, 41.70804999976421], [-123.66433400027572, 41.709322999924474], [-123.6620870002381, 41.71145599981479], [-123.66112099959227, 41.71322299994589], [-123.66020500007347, 41.714055000155525], [-123.66080599994798, 41.71658900024779], [-123.66029799995987, 41.71764600002824], [-123.66042099998351, 41.71871599992549], [-123.65987100016262, 41.72019900014227], [-123.66143699995975, 41.7229310003248], [-123.66106799988883, 41.72409900000133], [-123.66189100041952, 41.725988000227446], [-123.66363399976866, 41.727825999920384], [-123.66560700016989, 41.728398000306875], [-123.66658799998602, 41.7296829999951], [-123.66640700023605, 41.73061299969316], [-123.66610799958701, 41.73215599998999], [-123.66663300019187, 41.732371000203145], [-123.66825900026345, 41.7320749998135], [-123.67241600005481, 41.73374899990984], [-123.67368800012409, 41.734261000058616], [-123.67407599956327, 41.734894999711464], [-123.67413699966265, 41.73627999990654], [-123.67830400039806, 41.7385430002133], [-123.67973999960053, 41.742924999873516], [-123.67916899986322, 41.74413500024856], [-123.67865500002735, 41.74627000013], [-123.67985299957843, 41.748101000163444], [-123.68062500005551, 41.74983899984249], [-123.6807010002235, 41.75035500009059], [-123.68118400009723, 41.75079800019874], [-123.681891000277, 41.75173999993501], [-123.68214800019494, 41.75267300025127], [-123.68234999986132, 41.75497500014676], [-123.68172600042054, 41.75693800000012], [-123.68188600025411, 41.757558000192766], [-123.68258300038814, 41.757897000174516], [-123.6831519995773, 41.75876599993096], [-123.68265700000798, 41.75936900019982], [-123.68186100013976, 41.76102700026249], [-123.68193599958452, 41.76166299982005], [-123.68260000010658, 41.76303900000534], [-123.68257699964202, 41.7647610000211], [-123.68265199998508, 41.76555799967174], [-123.68333800024844, 41.76611400010866], [-123.6836169999077, 41.76719999999546], [-123.6838200002973, 41.76847899992416], [-123.68342100008911, 41.769629999736864], [-123.68420400043685, 41.77070899979907], [-123.68464299992968, 41.77182699992172], [-123.68545800006444, 41.77336500019044], [-123.68552199963855, 41.77438699991521], [-123.68553199968429, 41.77519999987705], [-123.6862079999019, 41.7760130002523], [-123.68661399978276, 41.777356999954215], [-123.68730099987103, 41.778362999855], [-123.68796500039308, 41.77998899987323], [-123.68834000031178, 41.781221000046926], [-123.68724399996962, 41.782097000110895], [-123.68590099975523, 41.78363399986548], [-123.68410599962924, 41.784527000179395], [-123.68130299992293, 41.78487999979895], [-123.67881200038617, 41.78479799977028], [-123.6760409995686, 41.78505500013832], [-123.67460199999304, 41.78562599971895], [-123.6738809995696, 41.78631699980345], [-123.67463200013029, 41.787308000187586], [-123.67556500026583, 41.788362000182204], [-123.67626200039984, 41.78948899987882], [-123.6751330004457, 41.79090499983457], [-123.67392900014849, 41.79210399973982], [-123.67387499972183, 41.79285199985403], [-123.67364799994111, 41.793954999669666], [-123.67310999981575, 41.795009000211685], [-123.67284100020225, 41.79537899990593], [-123.67265799990415, 41.795595999784574], [-123.67210999973305, 41.795989999997744], [-123.67270099956183, 41.79594999995398], [-123.67358099999394, 41.79636099993395], [-123.67392400012562, 41.79681200015752], [-123.67398799969973, 41.79734300031893], [-123.67460100016815, 41.79734300031893], [-123.67532000004344, 41.797344000181404], [-123.67572699974923, 41.79835800002574], [-123.67691900035088, 41.798535000093494], [-123.6780900001378, 41.798705000114474], [-123.67930399958244, 41.798881999893474], [-123.67992600027168, 41.799332999788014], [-123.68066699988827, 41.799728000291196], [-123.6808490003615, 41.800572999753264], [-123.68071999959173, 41.80083100030562], [-123.68108500036304, 41.80077399983693], [-123.6817299997202, 41.80050099984975], [-123.68279299955209, 41.80026800009129], [-123.68404000040532, 41.79990599974587], [-123.68487800010632, 41.79993899990646], [-123.68626300015347, 41.800647999678276], [-123.68652000007144, 41.80107400007838], [-123.68691699973147, 41.801315999798845], [-123.68747599977323, 41.80159000012801], [-123.68845300028971, 41.80170299976852], [-123.68889299960743, 41.802137000162375], [-123.68939899994574, 41.802669000177644], [-123.68995700016256, 41.80315999979165], [-123.68993500042124, 41.80390000002393], [-123.69003099978238, 41.804963000099676], [-123.69021300025561, 41.80568699986471], [-123.69035600037074, 41.80625099973197], [-123.69041599974689, 41.806483999831876], [-123.69113600034541, 41.80685400023513], [-123.69164000013555, 41.80753799988203], [-123.69213300005507, 41.80860499994771], [-123.69217599971277, 41.80869699985477], [-123.69187600013713, 41.809403000115424], [-123.69119800026971, 41.81021799999178], [-123.69210100026801, 41.810693999839614], [-123.69296999993115, 41.811524000006074], [-123.69340900032232, 41.81261500032442], [-123.6939440000746, 41.81379999996463], [-123.6937189999437, 41.814612000019764], [-123.6943750000698, 41.815644999757914], [-123.69507899987649, 41.816347999728755], [-123.69577099998764, 41.81684400008895], [-123.69670499994811, 41.81722900021894], [-123.69785399999371, 41.817262000160646], [-123.69820700017114, 41.81718799982136], [-123.69855699997551, 41.8171170000668], [-123.69916500042105, 41.816996999925614], [-123.69971299969383, 41.817043999784545], [-123.70047500012517, 41.81755099981624], [-123.70147400038296, 41.81837199967574], [-123.70231200008394, 41.81910500026119], [-123.7030419998299, 41.81974899972537], [-123.7033640000452, 41.820368999955775], [-123.7028369997905, 41.82086700029831], [-123.70256800017698, 41.82165600030444], [-123.70207299970934, 41.82269400024231], [-123.70210500039471, 41.823885000204854], [-123.70211500044044, 41.825044000272406], [-123.70210299984657, 41.82650900021688], [-123.70260800035996, 41.82716100005254], [-123.70308000036307, 41.828416000282296], [-123.70376800027623, 41.82911699988142], [-123.70368100023761, 41.82948700007156], [-123.70260699963674, 41.829728000199474], [-123.70023099972768, 41.83080600019482], [-123.69777000032813, 41.8316500000408], [-123.69599500029364, 41.833226999698304], [-123.69500600008156, 41.83413700032825], [-123.69403899961083, 41.834498000046956], [-123.69222199974351, 41.83512600022695], [-123.69026599995905, 41.83559200032551], [-123.68857799996317, 41.83595299986916], [-123.68651400022365, 41.83615499996749], [-123.68559000030895, 41.83612199972333], [-123.68461199996754, 41.8360260000114], [-123.68392400005436, 41.83635500025188], [-123.68306399971374, 41.83654799980321], [-123.682913000101, 41.83713600018546], [-123.68188000040634, 41.83704700004087], [-123.68029000031976, 41.8371670000864], [-123.67920400002333, 41.83685200015628], [-123.67840899998004, 41.837053000182344], [-123.67741999976796, 41.83699699973242], [-123.67661399985404, 41.83690000008005], [-123.67528200040863, 41.835820999712276], [-123.67432699963342, 41.83524899967913], [-123.67336000006101, 41.834999000092914], [-123.67173700036247, 41.83491000032307], [-123.67077999993745, 41.83543199984685], [-123.67076800024189, 41.836205000264506], [-123.67082099994535, 41.83717099972713], [-123.6707769995644, 41.837887000319384], [-123.67087299982389, 41.83884500008529], [-123.67042099991227, 41.83972200008388], [-123.67074300012756, 41.840148000293645], [-123.67078499996032, 41.84063100019741], [-123.67102000013699, 41.841709999776896], [-123.67078300031054, 41.84280399991088], [-123.67097499993112, 41.84403599979249], [-123.6713389999792, 41.844984999754836], [-123.67060800040834, 41.84541200017553], [-123.66941400015685, 41.84606299975359], [-123.66876899990139, 41.84661000007743], [-123.66791899960653, 41.84688300027935], [-123.66732699995283, 41.84763899985466], [-123.66639100034253, 41.84890199988798], [-123.6657560001328, 41.849384999958225], [-123.66499200005165, 41.85010099972247], [-123.66458199997281, 41.85120299978213], [-123.6636570002332, 41.851895000263376], [-123.66246299998174, 41.852416999745614], [-123.66273099977033, 41.853141999988964], [-123.6626219999904, 41.85459799974488], [-123.66197500008509, 41.85591799982937], [-123.66153400004414, 41.85647299973575], [-123.6609959999188, 41.85627100021517], [-123.65923299957984, 41.85647999967126], [-123.65694200005963, 41.85705000006909], [-123.65549000006529, 41.857587999782204], [-123.65501600041236, 41.85802200015011], [-123.6538869995599, 41.858181999675296], [-123.65235900029593, 41.858760999792636], [-123.6506810003458, 41.859451999897004], [-123.65003500026539, 41.85996699970323], [-123.64947600022366, 41.86031999981836], [-123.64934599962902, 41.86062600005097], [-123.64995900009744, 41.86048200004519], [-123.65051800013919, 41.860747999783534], [-123.65099000014227, 41.861173999821084], [-123.65151599967373, 41.8617299998035], [-123.65175099985038, 41.86294500016779], [-123.65203999955537, 41.86424100017454], [-123.65227599955695, 41.865537000002604], [-123.65199500024785, 41.86586699981677], [-123.65134800034257, 41.866662999851464], [-123.65096000000506, 41.86750799982118], [-123.65110899996796, 41.86862699979882], [-123.65099000014227, 41.86917399981924], [-123.65062400044438, 41.86988200026406], [-123.65019199972592, 41.87079099994795], [-123.65054599972827, 41.87168500016042], [-123.65139500019822, 41.872909000163986], [-123.6511680004175, 41.87350400021883], [-123.65072700037655, 41.874010999861056], [-123.64962099998861, 41.8748379998693], [-123.64955300021656, 41.87503199970075], [-123.64865299969297, 41.87540199993956], [-123.64816300014651, 41.875769000115916], [-123.6472740003919, 41.87605100000972], [-123.64662300028864, 41.8763759998976], [-123.646500000265, 41.87664800016951], [-123.6466890004109, 41.87702899993427], [-123.64714799999518, 41.87735500015062], [-123.64784400030427, 41.87766700012979], [-123.6486479996701, 41.87797199966613], [-123.64917599974969, 41.87804100025843], [-123.64990999969362, 41.87803200012728], [-123.6506749995997, 41.8781029998644], [-123.65131800020532, 41.8783740002085], [-123.65163899969737, 41.87853800003631], [-123.6521969999142, 41.87869599986383], [-123.652314999915, 41.87879400028025], [-123.65231300026515, 41.87892199968322], [-123.65198699985193, 41.87908899988266], [-123.65161799978098, 41.879254999724466], [-123.65080099999636, 41.87984400008769], [-123.65032899999328, 41.88042000029778], [-123.65027100026695, 41.88066099986689], [-123.65022500023622, 41.8808779996948], [-123.64989700017317, 41.881181000175715], [-123.64777599963394, 41.88236300025631], [-123.64705900030675, 41.88277599979402], [-123.64677700027441, 41.882893999935966], [-123.6462900002027, 41.882995000190434], [-123.64582499987229, 41.88309499975535], [-123.64523599969333, 41.8835489999585], [-123.64469400026834, 41.88422099997106], [-123.64468300039768, 41.88423399994145], [-123.64445599971864, 41.8845169997726], [-123.64445099969576, 41.88486399975951], [-123.6445429997573, 41.88518699997917], [-123.64396600017221, 41.88634999978412], [-123.64360799997192, 41.88650799969002], [-123.64315000021251, 41.886858000307946], [-123.64302499964074, 41.887275999863384], [-123.64290800036318, 41.887904000207605], [-123.64302999966358, 41.88839599995118], [-123.64293099992939, 41.88854800015519], [-123.64302600036396, 41.88870200021301], [-123.6428120001037, 41.88935299982103], [-123.64219100013769, 41.88974200013375], [-123.6411719997884, 41.890096000096], [-123.6402839998587, 41.890394000258624], [-123.63987399977988, 41.890357999998685], [-123.63940099995185, 41.89029799974318], [-123.63931700028627, 41.89023300001577], [-123.63908100028472, 41.89005300006546], [-123.63845000027297, 41.88966099969661], [-123.63826000030215, 41.88937700015129], [-123.63820000002771, 41.88902199978], [-123.6379029999268, 41.88870599997507], [-123.63761800041975, 41.888292000201595], [-123.63742900027387, 41.887951999941585], [-123.63685000014064, 41.887713000030956], [-123.63625900031182, 41.88756300009764], [-123.6356450000185, 41.8875180001159], [-123.63500700033406, 41.88758399972164], [-123.63450900039167, 41.887709000206726], [-123.63363399998245, 41.88780599971911], [-123.632996000298, 41.887945000108004], [-123.63261899983112, 41.88794999970263], [-123.63201600030676, 41.887888000288214], [-123.63134799958678, 41.8878179998416], [-123.63081799985736, 41.88790199996709], [-123.63032199956479, 41.887929999984365], [-123.62979400038351, 41.887908999805376], [-123.6281730003348, 41.888112000132], [-123.6276660001716, 41.888140000057284], [-123.62726600013849, 41.88819299985825], [-123.62693100040275, 41.88819800010222], [-123.62638200040676, 41.88815200011702], [-123.62617599964409, 41.88811800016481], [-123.62582500001483, 41.88815299989896], [-123.6255139996702, 41.888201999895834], [-123.62523599983587, 41.888275999710665], [-123.62491399962057, 41.88836500013356], [-123.62446300043219, 41.888431000201834], [-123.62407599991957, 41.88830400023277], [-123.62371000022168, 41.88790299975295], [-123.62350400035737, 41.88739599997604], [-123.62314600015706, 41.88668100029436], [-123.62268300037479, 41.88613500010997], [-123.62203399992137, 41.88522000032585], [-123.621720000102, 41.884737999891605], [-123.6212680001904, 41.88428800015015], [-123.62056799968335, 41.883800000272586], [-123.61971800028678, 41.883174999963416], [-123.61885700012124, 41.882727000317146], [-123.61786700008427, 41.88223899988702], [-123.6170500002997, 41.881806999806074], [-123.6161360004307, 41.88150400028711], [-123.61490000034645, 41.881139000055754], [-123.61386900030162, 41.88088500030266], [-123.61260200025521, 41.88088100005096], [-123.61016600007169, 41.88103399996954], [-123.60935099993692, 41.88109299966975], [-123.60807300001989, 41.88092799981576], [-123.60718099989221, 41.88069800013935], [-123.60630100035843, 41.88077299984851], [-123.60562599996572, 41.88112099999591], [-123.60521000003912, 41.881846999725724], [-123.60490200006754, 41.88262899991314], [-123.60461500001236, 41.88322600015246], [-123.60427500025374, 41.884160999970675], [-123.60411700006999, 41.88506299974008], [-123.60416200027583, 41.88556999997457], [-123.60434700022377, 41.88635800027127], [-123.60474800008177, 41.887281999974704], [-123.60491100028835, 41.887788999987556], [-123.60480499998314, 41.888094999813156], [-123.60415200023009, 41.88852400018224], [-123.6037229998847, 41.888823000093524], [-123.60319800017812, 41.88909099980879], [-123.6024909999984, 41.88948700004494], [-123.60214899969164, 41.88993900012436], [-123.60180800010808, 41.89060900031157], [-123.60156299988572, 41.89098800028187], [-123.60075899962159, 41.89140900009339], [-123.60036199996155, 41.89145899999783], [-123.59975100004127, 41.89162999977652], [-123.59928999990882, 41.8918970000289], [-123.59883100032452, 41.892397000179514], [-123.59845700023071, 41.893058999680186], [-123.59831900013843, 41.8935260000452], [-123.5981269996195, 41.893719999980576], [-123.59763399970001, 41.89401100011613], [-123.59737699978204, 41.89417299988594], [-123.59747600041456, 41.8946559996957], [-123.59813500001542, 41.895829000266104], [-123.59842600026855, 41.89623799972163], [-123.59877100005005, 41.896631999815035], [-123.59910499996089, 41.89696099991625], [-123.59945200029054, 41.89780500020079], [-123.59950800036702, 41.898399999796574], [-123.59940299988672, 41.89900399971926], [-123.59908200039467, 41.89937600010566], [-123.59881500043097, 41.89983599988037], [-123.59835500012346, 41.900303999762336], [-123.5975840003696, 41.90069300024413], [-123.5969940003657, 41.90093600006274], [-123.59646899976084, 41.90122800032754], [-123.59579500009139, 41.90178499981325], [-123.59538800038561, 41.90228599967392], [-123.59499400020032, 41.90305999999436], [-123.5945990001901, 41.90376099998804], [-123.59442900031078, 41.90431699991211], [-123.59414100043068, 41.904679999712755], [-123.59382099986523, 41.90520499998946], [-123.59363000006954, 41.905889999742804], [-123.59360999997804, 41.90625199979278], [-123.5934810001066, 41.90631699993161], [-123.59340499993863, 41.906131999671196], [-123.59307000020289, 41.90559299985331], [-123.59238099956647, 41.90529000016303], [-123.59143599973538, 41.90521199993723], [-123.59065199956271, 41.90510999985817], [-123.58954500024821, 41.90490400017164], [-123.58824499969154, 41.904683000288244], [-123.58677299960573, 41.90450200008313], [-123.58554800029044, 41.90437699970103], [-123.58323900032855, 41.90423100024997], [-123.58202599981048, 41.90421100028088], [-123.58127400032325, 41.904164999793274], [-123.58071500028149, 41.90404599996233], [-123.58015600023974, 41.90387900014578], [-123.57974799981073, 41.90371099968542], [-123.57930699976978, 41.90359100013663], [-123.57905900007266, 41.903414999900086], [-123.57854299968862, 41.90311900007967], [-123.5779629997305, 41.90298400015542], [-123.57660000032295, 41.90319700018808], [-123.5751740002679, 41.90380499968707], [-123.57429399983576, 41.904121999874306], [-123.5733930003856, 41.90422899985221], [-123.57177099961363, 41.90414499980345], [-123.57090100012559, 41.90403499974764], [-123.5701479999151, 41.903698999874415], [-123.56921300012974, 41.903379999837014], [-123.56786999991532, 41.903376000325245], [-123.5672470002995, 41.90329700022196], [-123.56637600008821, 41.903147000112405], [-123.56544200012775, 41.903141000154186], [-123.5644119999078, 41.90344200026039], [-123.56353300019894, 41.90378299984134], [-123.56312599959485, 41.90403400021428], [-123.56290100036227, 41.90438900005321], [-123.56240900026765, 41.90492100002813], [-123.56172200017942, 41.90514100024027], [-123.5608540003412, 41.90540899968112], [-123.56009199990986, 41.90574099988315], [-123.5594919998602, 41.90596799980886], [-123.55931000028535, 41.90617800007877], [-123.55908599997936, 41.90672599973933], [-123.55899100044311, 41.90746700018722], [-123.55857499961819, 41.90827300020984], [-123.55837299995183, 41.908797000228866], [-123.55795600020033, 41.90942599967854], [-123.55764700040383, 41.91014299966752], [-123.55738000044013, 41.9107880000968], [-123.55693100000326, 41.911328999682574], [-123.55637399961135, 41.911958000254835], [-123.55583899985905, 41.91245099994789], [-123.55529200041116, 41.9128950001116], [-123.55452099975902, 41.91340400013701], [-123.55403899971017, 41.91373600020687], [-123.5537390001345, 41.91412300031934], [-123.55356900025522, 41.91465500006404], [-123.55345200007932, 41.9152269997932], [-123.55346499959983, 41.91576599982161], [-123.55374599980723, 41.91656199994929], [-123.55389800014316, 41.91694000030876], [-123.55413599979455, 41.91749499976649], [-123.55450300021569, 41.91801700031856], [-123.55466399987414, 41.91821799990349], [-123.55469999985914, 41.91923999974904], [-123.55466999972194, 41.920061000106585], [-123.55480100014152, 41.920752999775765], [-123.55486800008866, 41.92165500011376], [-123.55471300027794, 41.92354700025316], [-123.55468300014073, 41.924279000296096], [-123.55461000034578, 41.9251250001176], [-123.55437500016914, 41.925697000241925], [-123.55405499960371, 41.92628600009826], [-123.55372300024099, 41.92672100029905], [-123.55327399980409, 41.927342000189114], [-123.55350200030803, 41.928162999892606], [-123.55364399969996, 41.92902400017147], [-123.55425899981819, 41.92980300008509], [-123.55438900041285, 41.9300520001376], [-123.55424999959737, 41.93023000002761], [-123.55356300040741, 41.93054499973077], [-123.55260799963226, 41.93096699981676], [-123.5519640001, 41.93120199979625], [-123.55105299970575, 41.931688000141015], [-123.54973399978084, 41.93254400017831], [-123.54884500002622, 41.93332799992672], [-123.548373999848, 41.93406200014549], [-123.54802200039381, 41.93480299998035], [-123.54777600034653, 41.935287000193576], [-123.54765999999556, 41.936140999978775], [-123.54772699994271, 41.9370179998004], [-123.5478590001872, 41.93786300007581], [-123.54781700035441, 41.938192999851786], [-123.54766699966824, 41.93843500025044], [-123.54700200021963, 41.938717999772706], [-123.54579899974733, 41.93896299981586], [-123.54525200029948, 41.939166000207685], [-123.54460899969384, 41.9396429998722], [-123.54415900033035, 41.94016700024775], [-123.54421399968362, 41.94054499975037], [-123.54441899972302, 41.94101200022591], [-123.54473199971747, 41.941518000301656], [-123.54490499996983, 41.94193600018272], [-123.54473500009053, 41.942330999804504], [-123.54416600000303, 41.942751000228206], [-123.54316900029339, 41.943445999760534], [-123.5420439996389, 41.94435100001098], [-123.54142199984797, 41.94509300012267], [-123.54073800013273, 41.94606099970286], [-123.5402989997416, 41.9468429999205], [-123.53976399998929, 41.94773000006541], [-123.53944400032216, 41.94841499970107], [-123.53912399975673, 41.9490999999936], [-123.53881300031041, 41.94950299991991], [-123.5381799997505, 41.94995600015933], [-123.53765500004396, 41.9503360000424], [-123.53697999965125, 41.951110000210505], [-123.53629500011114, 41.952046000210814], [-123.53532000014279, 41.95313500001946], [-123.53457000030534, 41.953949999871526], [-123.53380899969893, 41.95461199970423], [-123.53333699969582, 41.954887000327915], [-123.53325100038042, 41.95516900024532], [-123.53329499986303, 41.95538600005717], [-123.53353300041273, 41.95577199998992], [-123.53356699984958, 41.95646399972119], [-123.53353699971237, 41.957244999879904], [-123.53337699987877, 41.958026999843604], [-123.53327200029682, 41.958759000307694], [-123.5330899998236, 41.95921100022451], [-123.53297400037098, 41.95979099989635], [-123.53285800002003, 41.96067600026174], [-123.53286999971559, 41.96125599995906], [-123.53302299987647, 41.961972000015784], [-123.53321899969505, 41.96296199993746], [-123.53334900028969, 41.96354100026429], [-123.53360899968237, 41.964015000120945], [-123.53368499985038, 41.964562000089224], [-123.53382700014058, 41.96540700000551], [-123.53395699983695, 41.965607999878614], [-123.5345180004268, 41.96640399990348], [-123.53510099985967, 41.96721500020018], [-123.53537100019642, 41.9677300001936], [-123.536404999716, 41.9685240000358], [-123.53693299979561, 41.96910200005952], [-123.53695600026015, 41.96946400013296], [-123.53699100042024, 41.96969999966716], [-123.53698999969701, 41.96971800013347], [-123.5370320004281, 41.970027000109646], [-123.53717299999514, 41.97048599970658], [-123.5371520000787, 41.97062300006429], [-123.53693899964338, 41.97138799997034], [-123.53658700018919, 41.972266000274395], [-123.53614799979806, 41.97288799988421], [-123.53588099983438, 41.973580000070896], [-123.53575399961277, 41.974120000325286], [-123.53582999978072, 41.974643000033744], [-123.53606900015531, 41.975511000050666], [-123.53616700006461, 41.975817000072276], [-123.53628900026335, 41.97732199980178], [-123.53647300038637, 41.977521999759865], [-123.53659200021207, 41.97798100010701], [-123.5366359996947, 41.978246000312694], [-123.53684099973408, 41.97842300018363], [-123.53746500007318, 41.978776000087095], [-123.5380040000234, 41.97926399978653], [-123.53805900027498, 41.97974700000358], [-123.53789900044144, 41.980198000263954], [-123.53784599983966, 41.98058499980658], [-123.53786900030421, 41.981075999987716], [-123.53781900007549, 41.98240399997162], [-123.53806599994769, 41.98264499982888], [-123.53846599998077, 41.983006000091855], [-123.53964000014076, 41.98383999993161], [-123.54028600022114, 41.98407199982323], [-123.54095499986772, 41.984890999683586], [-123.54093399995132, 41.98531299995529], [-123.5407199996911, 41.98576400018847], [-123.54044799970453, 41.98636200027183], [-123.53988799983789, 41.987067000005766], [-123.5393620003064, 41.98760899986308], [-123.53856499971496, 41.98824200024111], [-123.53792299983256, 41.988597000217275], [-123.53624800025548, 41.9896070002297], [-123.53558700010649, 41.99002300015527], [-123.53488699959944, 41.9904950002198], [-123.53426099961055, 41.99093300019584], [-123.53383200016347, 41.99103899994746], [-123.53329400003814, 41.99102400001851], [-123.53245700016203, 41.990994000150025], [-123.5312939998727, 41.99107800001319], [-123.5304560001717, 41.991263999792636], [-123.5296460000598, 41.99160700030822], [-123.52889799987219, 41.991937999738504], [-123.52845900037934, 41.99226100022206], [-123.52809299978313, 41.99241499971435], [-123.52771799986442, 41.99253400028076], [-123.52770500034394, 41.992538000211795], [-123.52751500037311, 41.9925989999632], [-123.526935000415, 41.992690000074724], [-123.5268450000033, 41.99269799991691], [-123.52681499986609, 41.99270099969055], [-123.52655999959796, 41.99272300025177], [-123.52527900020615, 41.99298399995678], [-123.52282999960387, 41.99394099973309], [-123.52235799960079, 41.99439299971715], [-123.52190599968915, 41.99458700009651], [-123.52088499969005, 41.99481499975891], [-123.5198539996452, 41.995163999815354], [-123.51970399985738, 41.99541399971229], [-123.51956499994021, 41.99565499972481], [-123.51974800023831, 41.995694999732805], [-123.52012499980687, 41.995855000180875], [-123.52047100031157, 41.9967960001969], [-123.52039799961833, 41.99782699969384], [-123.52023799978477, 41.99823799967191], [-123.5195509996965, 41.99881899987348], [-123.51911100037876, 41.999174000275666], [-123.5185430001162, 41.9998390002597], [-123.51831399978734, 42.00013099976857], [-123.51817900006812, 42.000303000077615], [-123.51815999980154, 42.00032700006826], [-123.518143999908, 42.00034799996919], [-123.51811299994587, 42.00038799969776], [-123.51802300043252, 42.000501999921084], [-123.51794399989149, 42.000581999827006], [-123.51791100027951, 42.00075600029315], [-123.51873399991189, 42.00075999970739], [-123.51911899987637, 42.00075999970739], [-123.52360100025604, 42.000767999870384], [-123.52602900004364, 42.00076699985005], [-123.52844799961036, 42.00077600003232], [-123.53001400030584, 42.000778000072636], [-123.53023199986573, 42.00077900009279], [-123.5307580002955, 42.000778000072636], [-123.53329400003814, 42.00078700025335], [-123.53437600013659, 42.00078700025335], [-123.53479899973588, 42.00078700025335], [-123.5352089998147, 42.00078700025335], [-123.53814200011567, 42.00075999970739], [-123.54029100024401, 42.000732999817565], [-123.54298900036834, 42.00069400032741], [-123.54378199986348, 42.00068400011191], [-123.54410599972859, 42.00067699996011], [-123.5443740004155, 42.00067299987308], [-123.54459399962522, 42.00066899978573], [-123.54504899990987, 42.00066100027793], [-123.54519200002503, 42.00066100027793], [-123.54787199970768, 42.000669999807606], [-123.5484869998259, 42.000669999807606], [-123.54981199959863, 42.00067199985125], [-123.55206799985709, 42.00067799998186], [-123.55274099970164, 42.00068400011191], [-123.5548029997913, 42.000691000262925], [-123.55636699993863, 42.00068900021983], [-123.55726300026429, 42.00068900021983], [-123.55979700035707, 42.00069699972416], [-123.56249499958308, 42.000705999916335], [-123.56420400039369, 42.000705999916335], [-123.56478900037467, 42.00069699972416], [-123.56736100010231, 42.00066100027793], [-123.56930500019124, 42.00062600016631], [-123.56938399983393, 42.00062500014375], [-123.56983599974554, 42.000617999985465], [-123.5703520001296, 42.00060999980366], [-123.5717399996515, 42.00058799996606], [-123.57192600032263, 42.000584999896624], [-123.57222599989832, 42.00057999978048], [-123.5736059999226, 42.00055999997971], [-123.57406100020727, 42.000552999814275], [-123.57619400044209, 42.00052199974008], [-123.5771180003568, 42.000508000067676], [-123.57874600007821, 42.00048100007097], [-123.58316200033565, 42.000409000246144], [-123.58342299955324, 42.000409000246144], [-123.58811699964502, 42.000336999672264], [-123.59159800011707, 42.00028800032921], [-123.59209000021166, 42.000279000077974], [-123.5923889999624, 42.00027399993778], [-123.59281199956172, 42.00026499968451], [-123.59306299963187, 42.00025600009756], [-123.59752400009513, 42.00019300028288], [-123.59801000034193, 42.00018400001815], [-123.60219999974524, 42.00011199985732], [-123.60296499965129, 42.00010300024873], [-123.60687700011859, 42.00004000028257], [-123.60774900015478, 42.00002199970856], [-123.6098849998643, 41.99999200007574], [-123.61009300027676, 41.999990000010676], [-123.61022299997312, 41.99998799994559], [-123.61051800042422, 41.99998399981524], [-123.61160700019538, 41.999967999958756], [-123.61253399958484, 41.99995000003197], [-123.61447199982598, 41.99991800029789], [-123.61570500043548, 41.99989900032303], [-123.6161830002864, 41.99989000001673], [-123.61632899987625, 41.99988699991434], [-123.61731800008829, 41.99987800027392], [-123.62006600044133, 41.999830999979956], [-123.62096400041679, 41.99981700015552], [-123.62210500006648, 41.99979800015051], [-123.62223800013587, 41.99979600007935], [-123.6223510001138, 41.999794000008166], [-123.62322999982264, 41.99978200024726], [-123.62384199956784, 41.9997729999244], [-123.62402200039122, 41.9997699998165], [-123.62516499969072, 41.99960799978807], [-123.62540400006533, 41.99957399980391], [-123.62560099970884, 41.99954600003892], [-123.62616499977344, 41.999468000247205], [-123.62696800021266, 41.99935700030175], [-123.62757099973702, 41.999270999928235], [-123.63030400002145, 41.99888000028091], [-123.63151099979338, 41.99871000023643], [-123.63183300000867, 41.99866399980073], [-123.63500800015898, 41.99822400016467], [-123.63669799980465, 41.997980999738324], [-123.63971099957324, 41.9975579999229], [-123.64049999976876, 41.99744699998386], [-123.64155500010305, 41.99729700028188], [-123.6444239999316, 41.99689300013612], [-123.64641099967822, 41.99661400023542], [-123.64919900021422, 41.996217999826904], [-123.65126700015172, 41.99593000010642], [-123.65398299981939, 41.99554399980473], [-123.65612399955181, 41.995247000076965], [-123.65721200039636, 41.99509400020231], [-123.65872299994192, 41.99513000012736], [-123.66098000002526, 41.995193000281034], [-123.66344399979786, 41.99525599970467], [-123.66583700032368, 41.99531899973363], [-123.66717399979196, 41.995355000199], [-123.66816600037706, 41.995381999700164], [-123.67069299989882, 41.995445000272035], [-123.67289599955551, 41.99550800011385], [-123.6755490003723, 41.99557099989335], [-123.67756799990597, 41.995658000026715], [-123.68040599977239, 41.99570600016452], [-123.68193399993471, 41.995741999743395], [-123.68376599987062, 41.99583899995389], [-123.68532499999506, 41.99592200000283], [-123.69031500036284, 41.99605399991404], [-123.69530499983232, 41.99618700031136], [-123.70029600002502, 41.99631899967293], [-123.70053600022452, 41.99632500021399], [-123.70509300004895, 41.99644600032258], [-123.7098900000729, 41.996573000051214], [-123.7100459997085, 41.99657699972841], [-123.71468799992174, 41.99670000019404], [-123.71813599988351, 41.99679099978303], [-123.71837400043322, 41.99679899977738], [-123.71863999967368, 41.996805000273184], [-123.72142800020967, 41.99687800025155], [-123.72816900032254, 41.99705599981116], [-123.73260999979598, 41.99698500019655], [-123.7335039995735, 41.99697099974599], [-123.73363699964288, 41.99696800017361], [-123.73516700035333, 41.99694400025136], [-123.75108900006218, 41.99669300027161], [-123.75394000034738, 41.99661400023542], [-123.75422200037967, 41.99660600021786], [-123.7574629997539, 41.99651400027716], [-123.75807899969705, 41.99649600004101], [-123.76232099987723, 41.996373999938065], [-123.76587900034218, 41.99627300017937], [-123.76598700029719, 41.99626899981545], [-123.76717900000054, 41.996235000050184], [-123.77203899977366, 41.99609699995241], [-123.77474000027101, 41.99601899993897], [-123.77495500035619, 41.996015000226706], [-123.78750100007328, 41.995834000132504], [-123.78848899956209, 41.99581599970397], [-123.78918999989406, 41.99579599974119], [-123.78956300016299, 41.995784999992615], [-123.78978200044608, 41.99578000016695], [-123.78991399979225, 41.99577599977208], [-123.79020699969522, 41.995768000316765], [-123.79116099974715, 41.99574100031172], [-123.79126500040255, 41.99573800001378], [-123.79149700020612, 41.99573200008496], [-123.79226100028731, 41.9957099998962], [-123.79364799998427, 41.99567300019889], [-123.7938110001909, 41.995667999696785], [-123.79598200006056, 41.99560399991188], [-123.80096700040545, 41.995457000183116], [-123.80419699990902, 41.99536200026859], [-123.80424999961248, 41.99536000005806], [-123.80470599972206, 41.99534700002318], [-123.80485999970783, 41.99534200016315], [-123.80611599988356, 41.99530500025184], [-123.81090799988465, 41.995163999815354], [-123.81099300027347, 41.99516800024869], [-123.81170799995083, 41.99519399972128], [-123.81295599973063, 41.995241000101906], [-123.81355699960518, 41.995262999785155], [-123.81479000021469, 41.99530699979647], [-123.81529599965468, 41.995329000124585], [-123.81561299984706, 41.99534100005755], [-123.81777500039419, 41.99542299998401], [-123.81855299982072, 41.995452000331674], [-123.81867500001947, 41.995457000183116], [-123.82033500042625, 41.99551899991031], [-123.82145500015955, 41.99556000010589], [-123.82204099996548, 41.99558000014288], [-123.82642600026078, 41.99574700023969], [-123.82804599958627, 41.99580800025373], [-123.82808699959416, 41.995808999684314], [-123.83115399978941, 41.99592500029214], [-123.83296999983183, 41.995993000135776], [-123.83448499957534, 41.99605000020397], [-123.8360250003315, 41.996051999725196], [-123.83783499962782, 41.996055000008376], [-123.84126099984827, 41.996059999812445], [-123.8426860000784, 41.996064000189506], [-123.84576599979415, 41.99606899999282], [-123.8475369996307, 41.9960720002752], [-123.85063599961305, 41.99607700007793], [-123.85238800008135, 41.99607999969231], [-123.85550600033021, 41.99608500016199], [-123.85611899990033, 41.99608699968217], [-123.85723899963362, 41.99608799977599], [-123.8574620001147, 41.996088999869855], [-123.86609899973759, 41.99608099978625], [-123.86701199978165, 41.99607999969231], [-123.87011099976397, 41.99606500028369], [-123.87057299972133, 41.996063000095255], [-123.87122299999967, 41.996059999812445], [-123.87190699971488, 41.99605800029143], [-123.87496399986439, 41.996042000115466], [-123.87670299991389, 41.99603500012071], [-123.87981600013991, 41.9960210001288], [-123.88155600001433, 41.996015000226706], [-123.88340800004174, 41.99600800022893], [-123.88531600014565, 41.99599900003994], [-123.88598999981512, 41.99599699984941], [-123.88640900011475, 41.99599699984941], [-123.89125899984217, 41.99598399994465], [-123.89323600044133, 41.99597800003908], [-123.89498600036151, 41.99597400032424], [-123.89611100011767, 41.995974999752264], [-123.90817599961085, 41.995955999935305], [-123.91205499956783, 41.995947999835025], [-123.91372300037054, 41.995951000123114], [-123.9155369998648, 41.99594199992606], [-123.92039900018605, 41.99594199992606], [-123.92526099960901, 41.99594199992606], [-123.92861200038473, 41.995940999829884], [-123.93012100028047, 41.995946999738955], [-123.93480799980124, 41.99595700003124], [-123.93631300039732, 41.9959629999388], [-123.93967900034332, 41.99596999994152], [-123.94172299999134, 41.99597800003908], [-123.94222799960643, 41.995974999752264], [-123.9445499999871, 41.99598399994465], [-123.9489989998565, 41.995995999754115], [-123.94942099963087, 41.99599699984941], [-123.954292000173, 41.99600999975153], [-123.95636699978317, 41.99601099984656], [-123.95915399959593, 41.99601199994163], [-123.964021999765, 41.99601400013169], [-123.96693400014955, 41.996015000226706], [-123.96704600030253, 41.996015000226706], [-123.96708899996024, 41.996015000226706], [-123.96782600027721, 41.99601600032172], [-123.968337999565, 41.99601600032172], [-123.968889999934, 41.99601600032172], [-123.9737580001031, 41.99601799984401], [-123.97863299994482, 41.9960210001288], [-123.98350799978654, 41.996023999745816], [-123.9883829996283, 41.99602700003032], [-123.99075299968958, 41.99602700003032], [-123.99325199962226, 41.996028000125136], [-123.99924799992054, 41.99613799977563], [-123.99990200039682, 41.99615000022373], [-124.00118299978863, 41.99614499975911], [-124.01568099999055, 41.99620399987529], [-124.03308900002892, 41.99627499969358], [-124.04582399989191, 41.99637899971707], [-124.04658899979796, 41.99637899971707], [-124.05771299965795, 41.99634500001052], [-124.05785400012329, 41.996347000190156], [-124.06755600012617, 41.996460000221], [-124.07727599967244, 41.996573000051214], [-124.07940300005946, 41.99659800019924], [-124.07943499984651, 41.99659900028509], [-124.08493700040036, 41.99666200031981], [-124.08495599976862, 41.99666200031981], [-124.08724600036227, 41.9966520001383], [-124.08737799970844, 41.9966409998701], [-124.08748800021161, 41.996649999968305], [-124.08764100037249, 41.996685999680835], [-124.08775799965001, 41.99675899979566], [-124.08784300003883, 41.99679099978303], [-124.0879669998874, 41.996807999853246], [-124.10037600023546, 41.99671199986849], [-124.10046999994678, 41.99676099996227], [-124.10059299997043, 41.99678499995353], [-124.10070500012343, 41.99679199986584], [-124.10099499965335, 41.996770000043504], [-124.10130900037103, 41.99678499995353], [-124.1016109995965, 41.996807999853246], [-124.10171400042695, 41.996788000202166], [-124.10180399994033, 41.996744999963056], [-124.10185699964379, 41.99671400003658], [-124.10200099958384, 41.996685999680835], [-124.10214899972183, 41.99669200018728], [-124.10238899992135, 41.996748000213564], [-124.10253200003649, 41.99681000001828], [-124.10265400023523, 41.99689300013612], [-124.10278300010664, 41.99702600011528], [-124.10402300038886, 41.997073999888926], [-124.10455700031623, 41.99709400011774], [-124.11652499972503, 41.997037999728306], [-124.11878600000635, 41.9970270001944], [-124.12111500005973, 41.99701599999101], [-124.12133000014488, 41.99701499991171], [-124.12136500030499, 41.99701499991171], [-124.14158199989744, 41.99725599987008], [-124.14294299965518, 41.99729299998232], [-124.14640300021084, 41.997337999999644], [-124.1466120004482, 41.99734200029633], [-124.16226299999542, 41.99761000024274], [-124.16800200037574, 41.9977079996773], [-124.17806599987857, 41.99788099992524], [-124.17879200032489, 41.99789300004463], [-124.18160000005408, 41.99794099983196], [-124.18697700003615, 41.99803399977582], [-124.18873000032933, 41.99806400033171], [-124.19270399982258, 41.99813600013939], [-124.19284299973975, 41.998138000262735], [-124.19293399997638, 41.99813900032433], [-124.19296999996138, 41.99813900032433], [-124.19302500021296, 41.99813999971835], [-124.1931199997492, 41.99814099977997], [-124.19654599996966, 41.99820000004848], [-124.19666999981823, 41.998202000169755], [-124.19679299984189, 41.998204000290976], [-124.19684700026855, 41.99820499968398], [-124.19688999992624, 41.99820599974457], [-124.19692799956108, 41.99820599974457], [-124.19694099997987, 41.99820599974457], [-124.19696100007134, 41.9982069998051], [-124.1970620003537, 41.998208999926206], [-124.19850599995209, 41.99823300003901], [-124.19854799978488, 41.99823400009915], [-124.20828300029807, 41.99840099990759], [-124.20829699964347, 41.99840099990759], [-124.20959800002505, 41.99842499994797], [-124.21160499986316, 41.99845999993504], [-124.21199300020068, 41.998458999878444], [-124.21525799986433, 41.998451000092814], [-124.21702700005108, 41.99844699986579], [-124.21776000017007, 41.99844499975221], [-124.23322999996734, 41.99841199987162], [-124.25120000042048, 41.99836200032336], [-124.25120100024539, 41.99834299988387], [-124.32883499981199, 41.99833400002509], [-124.32829199966379, 41.99807300022867], [-124.32727200038791, 41.997734000115074], [-124.31794100010575, 41.99463699994014], [-124.30699499962269, 41.99290600013404], [-124.30473500006457, 41.98871599990917], [-124.30118400017064, 41.98298400017877], [-124.29459500039376, 41.97547000029835], [-124.2885780001791, 41.96956399983858], [-124.28727400032277, 41.96397099985719], [-124.28476899964399, 41.956833999796274], [-124.28781400009792, 41.95178800008823], [-124.28992600041633, 41.94543199988781], [-124.29163600015352, 41.93739100019436], [-124.29164799984909, 41.93733500008992], [-124.29167999963614, 41.9363460000578], [-124.29193900010222, 41.928498000163536], [-124.28993899993681, 41.92005700030302], [-124.28568699971089, 41.91291600009707], [-124.28066399973116, 41.90701200000481], [-124.27612000032553, 41.90305200026192], [-124.27637600041858, 41.8989010001387], [-124.27782699968967, 41.891105000233104], [-124.27965899962558, 41.88029600017092], [-124.28073200040153, 41.87483599988868], [-124.28027899976671, 41.87483599988868], [-124.27964899957985, 41.87483599988868], [-124.28104200002292, 41.8708629997546], [-124.28503099958479, 41.85948699994377], [-124.28924900037381, 41.860139999902685], [-124.29364899983942, 41.860421999835594], [-124.29800399999748, 41.86067000002522], [-124.30447399994866, 41.86014899987707], [-124.31193599958665, 41.85878800029417], [-124.32998100038289, 41.874749999992986], [-124.33003499991123, 41.87479400028071], [-124.33008900033789, 41.87483899985963], [-124.33298400010574, 41.876999999865276], [-124.33861299998286, 41.879789000223376], [-124.3476470001641, 41.88315400022782], [-124.35655599977353, 41.885144999817264], [-124.36519900014251, 41.88656800016141], [-124.37205800025615, 41.88674600029208], [-124.37349199980882, 41.88688300003988], [-124.37620500000173, 41.88695399997421], [-124.37620500000173, 41.88699899968451], [-124.38879099990181, 41.88676400010486], [-124.40124200008266, 41.88558800011869], [-124.41131700035447, 41.88205599985165], [-124.41864799957291, 41.874836999878994], [-124.42233200043454, 41.872290999901274], [-124.42610799956105, 41.86877599994904], [-124.43091999965361, 41.86291199969152], [-124.435015000419, 41.85650699979771], [-124.43772299969075, 41.84932099982461], [-124.44070700004534, 41.838740000133775], [-124.44041400014237, 41.83120400009388], [-124.43949699990034, 41.82712200012388], [-124.4389090004446, 41.824503999776766], [-124.43503299996233, 41.81658099992686], [-124.42918499980208, 41.80972599989208], [-124.42239600000863, 41.8037069998162], [-124.41752600018977, 41.80001700003587], [-124.41619300002112, 41.79691600002608], [-124.4142349996885, 41.79300400013528], [-124.41075699958951, 41.788312000033805], [-124.40571500024149, 41.78314099986276], [-124.39950999970588, 41.77786200020018], [-124.39205499974057, 41.772377000124116], [-124.38437100034473, 41.768233999903224], [-124.37619900015395, 41.765569000260925], [-124.37619999997887, 41.76462800017142], [-124.37472600024323, 41.76437600022916], [-124.37288900028445, 41.763968000042894], [-124.36997699989989, 41.763456000237625], [-124.36918799970438, 41.7634119997706], [-124.365507999939, 41.75967100010972], [-124.3610380001532, 41.75595400027731], [-124.35598800040928, 41.752234999828545], [-124.35236800002005, 41.74984099970859], [-124.35228900037733, 41.74978099967743], [-124.34537599983703, 41.74458599983168], [-124.3306090000216, 41.733792999931026], [-124.31611300036779, 41.72839000018186]]]}, "properties": {"GEOID": "06015", "NAME": "Del Norte County"}}]}