{"type": "FeatureCollection", "features": [{"type": "Feature", "geometry": {"type": "Polygon", "coordinates": [[[-120.07333100024981, 38.7010900002102], [-120.07332399967882, 38.700930999900585], [-120.07331100015831, 38.700629999783885], [-120.07330100011261, 38.700399000139434], [-120.07266300042814, 38.699159000151354], [-120.07236999962684, 38.69936400009211], [-120.07235299990843, 38.69656199966079], [-120.07233299981695, 38.69298700033052], [-120.07236799997703, 38.690869999740606], [-120.07241099963474, 38.68964899974233], [-120.07241099963474, 38.68931299986813], [-120.07241599965762, 38.687624000143714], [-120.07241599965762, 38.687470000274786], [-120.07241800020577, 38.68570600025324], [-120.07242800025149, 38.67979200033895], [-120.07243199955114, 38.67780400026603], [-120.07245400019075, 38.66435200009866], [-120.07245300036585, 38.664227999825464], [-120.07246199968836, 38.65903000020208], [-120.07247199973412, 38.65344600033011], [-120.07247900030512, 38.64928900019853], [-120.07248000013004, 38.64792699970092], [-120.07248699980272, 38.64384299965276], [-120.07249000017578, 38.642482000009785], [-120.07249500019864, 38.63921900024017], [-120.07250199987133, 38.635423999973895], [-120.07250199987133, 38.63532299997197], [-120.07250199987133, 38.635095999781754], [-120.07250199987133, 38.63503899998898], [-120.07250199987133, 38.634982000150806], [-120.07251100009218, 38.62943200015305], [-120.07251699993996, 38.62617000007692], [-120.07252000031299, 38.62490900031759], [-120.07252000031299, 38.61661399981542], [-120.07252000031299, 38.6161850003164], [-120.07252100013791, 38.61393099975867], [-120.07252100013791, 38.60355900007479], [-120.07252199996283, 38.59527600023927], [-120.07252199996283, 38.59160799989103], [-120.07252199996283, 38.59148900003866], [-120.07252199996283, 38.5913699999891], [-120.07252199996283, 38.59130100033022], [-120.07252199996283, 38.591231999902874], [-120.07252199996283, 38.59113500023816], [-120.07252199996283, 38.591037999740195], [-120.07252199996283, 38.58623000004298], [-120.07252199996283, 38.58502999970635], [-120.07252299978772, 38.58431099993108], [-120.07252299978772, 38.57658399973551], [-120.07250199987133, 38.576246000334926], [-120.07242999990133, 38.57505099996517], [-120.07242700042659, 38.57502400019969], [-120.07242800025149, 38.57406299998713], [-120.07242900007641, 38.573941999684976], [-120.07242999990133, 38.572063000157286], [-120.07243099972622, 38.57068299981075], [-120.0724349999242, 38.56665999995616], [-120.0724509998177, 38.55160900030662], [-120.0724509998177, 38.548716000178096], [-120.07245199964262, 38.547475000305106], [-120.07245300036585, 38.546953999904275], [-120.07245599984059, 38.544138999724375], [-120.07245599984059, 38.544079999747666], [-120.07246900025939, 38.5301420003275], [-120.0724709999092, 38.527880999913926], [-120.07248799962764, 38.509990000189354], [-120.07248400032799, 38.50986900029605], [-120.0724779995819, 38.509712000143054], [-120.07246199968836, 38.50924399988115], [-120.07246000003855, 38.509156000345314], [-120.07246099986347, 38.5090880000552], [-120.07248500015291, 38.50552199966251], [-120.07252500033586, 38.499910999731455], [-120.07250299969625, 38.49482499972304], [-120.07248799962764, 38.49126000028572], [-120.0724919998256, 38.48864399967638], [-120.07250500024439, 38.48079699971049], [-120.07251000026729, 38.47818199974432], [-120.07251000026729, 38.478150000127194], [-120.07251100009218, 38.47732999973086], [-120.07251500029012, 38.47487299970977], [-120.07251699993996, 38.47405400008308], [-120.07251699993996, 38.47385200032142], [-120.07251799976486, 38.47324499967237], [-120.07251899958978, 38.47304399983509], [-120.07252500033586, 38.4695100002103], [-120.0725429998792, 38.45904599980347], [-120.07254200005431, 38.45901999967806], [-120.07255100027515, 38.45517899968205], [-120.07255100027515, 38.4550999996909], [-120.07255100027515, 38.453443000297504], [-120.07256200014578, 38.45162900004834], [-120.07257600038949, 38.45160599979195], [-120.072556000298, 38.451559999960686], [-120.072556000298, 38.45122399987554], [-120.072556000298, 38.45117700011997], [-120.07255700012291, 38.45103800003498], [-120.07255799994783, 38.45099199984161], [-120.07256100032089, 38.4507009999423], [-120.07256799999358, 38.450167000280004], [-120.07257399984137, 38.449831000040014], [-120.07258100041237, 38.44954199979016], [-120.07258100041237, 38.44951099983099], [-120.07258300006221, 38.44942099969238], [-120.07258499971199, 38.44939100009024], [-120.07258600043524, 38.44934199972836], [-120.07258800008505, 38.449196999970084], [-120.07258999973489, 38.449148999888855], [-120.0725909995598, 38.449083999786595], [-120.07259300010794, 38.448891999673094], [-120.07259499975775, 38.448827999756205], [-120.07258899990997, 38.44847800004236], [-120.07257100036662, 38.44743000003066], [-120.07256600034376, 38.447081000309446], [-120.07232600014424, 38.44717399976107], [-120.0716609997973, 38.44743200019957], [-120.07160899991877, 38.44745900001218], [-120.07138299996296, 38.447582000046886], [-120.07112500022008, 38.44772200018586], [-120.07096299983837, 38.44780899974347], [-120.07067199958523, 38.44790099993782], [-120.06926999981965, 38.44802999967637], [-120.06799199990259, 38.448082000100236], [-120.0668300003365, 38.448099000325385], [-120.0666689997797, 38.44812700031505], [-120.06625600022612, 38.44839000016485], [-120.06622899956363, 38.44840800003659], [-120.06620199979945, 38.448433000046485], [-120.06572700032163, 38.448866999822215], [-120.06545299978693, 38.44900000019555], [-120.06534800020493, 38.4491140002199], [-120.06534900002984, 38.449288000095024], [-120.06531200021992, 38.44951599975721], [-120.06493300010322, 38.450207999714365], [-120.06475400000308, 38.45045600013731], [-120.06410500044798, 38.45085500017785], [-120.06300200043312, 38.45066299985188], [-120.06276399988342, 38.45091100011809], [-120.06230600012401, 38.451120999682665], [-120.06218899994816, 38.45136399998389], [-120.0619959996043, 38.45151899988753], [-120.06094000034341, 38.45182700005591], [-120.05993600006276, 38.45236700019285], [-120.05863100038151, 38.4526110001798], [-120.05637099992511, 38.45342999992978], [-120.05597699973984, 38.45371300010011], [-120.05562899958527, 38.45399799985088], [-120.05513700038898, 38.45505599993437], [-120.05457400014929, 38.455014000109735], [-120.05422500016984, 38.455258000290165], [-120.05365000023457, 38.45560699985774], [-120.0535959998079, 38.455565999973885], [-120.05357800026455, 38.45555400031233], [-120.04576599992389, 38.45033900034183], [-120.04574500000749, 38.450324999722206], [-120.04216599962615, 38.447936000195085], [-120.03638899961099, 38.44406899982471], [-120.03531599973336, 38.443368999678505], [-120.03521299980119, 38.44330300020901], [-120.02682100040069, 38.4378500000803], [-120.026695000004, 38.437768999679136], [-120.022780000062, 38.4352260002009], [-120.01997599963245, 38.43353600011278], [-120.01995100041643, 38.43352099982663], [-120.01950899965223, 38.43314700003474], [-120.0186540002328, 38.432429999837225], [-120.018572000217, 38.43235000033347], [-120.0144449996646, 38.429994000329806], [-120.01368200030667, 38.4295780000123], [-120.01363799992572, 38.429543000001466], [-120.01325799998415, 38.42934700004957], [-120.01308999975463, 38.42925600011726], [-120.01292300024838, 38.42916400008461], [-120.01284600025551, 38.42912199996954], [-120.01276900026258, 38.429079999830044], [-120.0116700004457, 38.42848100029236], [-120.01057099973048, 38.42788200000859], [-120.00982199971791, 38.427474000264944], [-120.0090729997054, 38.42706600032754], [-120.00835999967786, 38.42667699987761], [-120.00802800031516, 38.42648800004788], [-120.00461299996536, 38.42453999983694], [-120.00283000043322, 38.4235229998186], [-120.00243299987488, 38.42329599975787], [-120.0015409997472, 38.42278799985543], [-119.99061400042902, 38.416559000296154], [-119.98868100021075, 38.41546199991111], [-119.98823400032201, 38.41521000031624], [-119.97852300009826, 38.40969799986889], [-119.97847399969444, 38.40966999975718], [-119.97466599988256, 38.40750999966751], [-119.9741820001839, 38.40723399989273], [-119.973696999762, 38.406959000060965], [-119.9709280003909, 38.405383999936795], [-119.96815800029654, 38.40380899998438], [-119.96805100016643, 38.40374799983493], [-119.96685799973987, 38.403070000108386], [-119.96566500021162, 38.40239100000166], [-119.96450600012027, 38.401732000124284], [-119.96334799985382, 38.40107400024544], [-119.96170900026175, 38.400144000038246], [-119.95923200007036, 38.398725999968036], [-119.95914500003173, 38.39867600001495], [-119.95905700016816, 38.39862600002729], [-119.95812999988041, 38.3980950001506], [-119.95803100014619, 38.398039000078114], [-119.9390580001356, 38.387178000224694], [-119.93699900041895, 38.38601399999014], [-119.93498699965967, 38.38482399994579], [-119.93056999957734, 38.382315000270786], [-119.92532800021279, 38.379333999854204], [-119.92260300032427, 38.37778599980652], [-119.91752599991784, 38.37489600028689], [-119.91642600027603, 38.3742260000736], [-119.90929500017583, 38.37015199986787], [-119.90253399997151, 38.36631199972646], [-119.89757899976381, 38.363499000350146], [-119.88800499980744, 38.35803499999214], [-119.8878609998674, 38.357957999937526], [-119.8847490003646, 38.356185000152266], [-119.88469199956488, 38.356263000269216], [-119.88281000029855, 38.35887100014368], [-119.882498000129, 38.3593019998241], [-119.8787580000892, 38.36172600032224], [-119.87831600022334, 38.36202000009218], [-119.87630600001216, 38.363359999870895], [-119.87601300010918, 38.363551999834286], [-119.87309400005195, 38.36547000000991], [-119.86966700000657, 38.36759700007141], [-119.86647799961257, 38.36856899990557], [-119.86625900022777, 38.36863600016172], [-119.86486499995976, 38.36906700015831], [-119.85840000003144, 38.37137899989365], [-119.8560740003511, 38.372211999961884], [-119.85497800000894, 38.372478999734135], [-119.85182200012518, 38.37435100025302], [-119.85161700008581, 38.37454800012004], [-119.85124200016706, 38.37491100006825], [-119.83755099970399, 38.38241099981783], [-119.83221100043015, 38.383568000203695], [-119.82494600043565, 38.38513399990237], [-119.82009699963484, 38.386188999691456], [-119.81567999955253, 38.387144999819114], [-119.81499199963937, 38.387447000109844], [-119.8146910002388, 38.387516000204485], [-119.81345699980436, 38.38890299981869], [-119.80545000036834, 38.39789999977362], [-119.80481000013573, 38.39861999968849], [-119.80449299994334, 38.39878000010381], [-119.8043649998968, 38.398787000131506], [-119.80425100009401, 38.398811000020146], [-119.80380500003017, 38.399087000278726], [-119.80278300020616, 38.40002599998622], [-119.80242500000587, 38.4002069997783], [-119.8017370000927, 38.40132100011473], [-119.80164800040424, 38.40139500008512], [-119.8013920003112, 38.40149299968194], [-119.80087699975208, 38.40163000008814], [-119.80075499955333, 38.40164799964946], [-119.80026099980893, 38.401742999919435], [-119.7998859998902, 38.401815000137205], [-119.79965800028457, 38.40187199976008], [-119.7986609996766, 38.40211699970229], [-119.79613699962952, 38.40260000025366], [-119.79233800003848, 38.40332599976814], [-119.79095700018928, 38.403589000195794], [-119.78699700004144, 38.4043680001916], [-119.78670300031355, 38.40442699986552], [-119.78448499968994, 38.40487499976759], [-119.77988900040576, 38.40771399989477], [-119.77930400042474, 38.40758499992151], [-119.77778399976005, 38.40724599984365], [-119.77775000032318, 38.407238999931174], [-119.77659500042975, 38.40698199975935], [-119.77487300009874, 38.40660299972551], [-119.77393900013824, 38.40637000030254], [-119.7728650004357, 38.40632500010688], [-119.77055300010073, 38.40666299998403], [-119.76907900036512, 38.407628000172814], [-119.76903099978622, 38.407628999752696], [-119.76884800038643, 38.40761800014942], [-119.76882300027208, 38.40761300013714], [-119.76868000015695, 38.40758699978641], [-119.76854299988959, 38.40759899967871], [-119.76838300005602, 38.407675000123554], [-119.76825300035968, 38.40777399993482], [-119.76807799955918, 38.40792300024123], [-119.76784099973273, 38.40804499977675], [-119.76759700023358, 38.408179000310184], [-119.76755899970044, 38.40825099974821], [-119.76738299997335, 38.408410999963316], [-119.76722300013975, 38.408632999692635], [-119.76715399964446, 38.40876600027551], [-119.7670780003748, 38.4088269997094], [-119.76701700027543, 38.40886500000003], [-119.76687199961215, 38.40888799979577], [-119.76670400028098, 38.40892999970985], [-119.76651400031021, 38.40904100027041], [-119.76626200041511, 38.409223999833046], [-119.76610199968323, 38.40924299987652], [-119.7658039997574, 38.409314999662286], [-119.76558299982445, 38.40937999967132], [-119.7653689995642, 38.40949100024455], [-119.76510199960052, 38.40971199992068], [-119.76494199976696, 38.409857000146864], [-119.76464399984113, 38.41022000026721], [-119.76446100044132, 38.41037199978762], [-119.76426300007459, 38.41054400034122], [-119.76407200027892, 38.410665999675416], [-119.76381299981283, 38.410876000170155], [-119.76347700025214, 38.411207000351155], [-119.76331700041858, 38.41124600032794], [-119.76302699999034, 38.41130699978009], [-119.76291999986023, 38.41137099987699], [-119.76284399969222, 38.41142499971666], [-119.76282799979873, 38.41153199974902], [-119.7628889998981, 38.41168800023593], [-119.7629049997916, 38.411765999649226], [-119.76109899979497, 38.41272200016503], [-119.75348099962306, 38.41675899968623], [-119.75338299971378, 38.416727000271514], [-119.75309300018385, 38.41661299977781], [-119.75284100028875, 38.41661299977781], [-119.7525130002257, 38.4166780002604], [-119.75210099959875, 38.41679999979546], [-119.75180400039616, 38.41687199979368], [-119.75159799963352, 38.41693700004324], [-119.75145299986855, 38.41707000012253], [-119.75135400013434, 38.41713900009898], [-119.75106700007919, 38.41726299986037], [-119.75101199982757, 38.41728699994855], [-119.75093400000978, 38.417326000162824], [-119.75064399958157, 38.41739100000386], [-119.75052899995383, 38.41739499989472], [-119.7504000000824, 38.41736000031435], [-119.75024699992152, 38.417368000099295], [-119.7501330001187, 38.417326000162824], [-119.75001099991998, 38.417238000317255], [-119.74991899985847, 38.417154000268745], [-119.74963699982615, 38.41705899984478], [-119.7496259999555, 38.417039999744986], [-119.74922500009752, 38.417010000058845], [-119.74900199961642, 38.41699399970499], [-119.7464089999724, 38.417112999656574], [-119.7249849997097, 38.41809899975842], [-119.72057900039633, 38.4183029996526], [-119.72054699971096, 38.418303999788655], [-119.71554800002065, 38.41840100025258], [-119.71436700018798, 38.418422999693874], [-119.71289299955406, 38.418452000066935], [-119.71213799969374, 38.418088999776394], [-119.7120380001346, 38.41807799965382], [-119.7118620004075, 38.41804399984015], [-119.71170199967563, 38.41800500001349], [-119.71158000037522, 38.417971000165515], [-119.71119899971038, 38.41794100016213], [-119.71101499958735, 38.41791399986692], [-119.71087800021833, 38.417879999976066], [-119.7106570002854, 38.41779899969554], [-119.71048099965999, 38.417760999880244], [-119.71035900035956, 38.41773499966169], [-119.71006200025865, 38.417638999856486], [-119.70972599979967, 38.41755099968837], [-119.70951200043773, 38.417525000098095], [-119.70930599967508, 38.417525000098095], [-119.7090320000387, 38.41751299974258], [-119.70868100040943, 38.41741000001134], [-119.708580999952, 38.41743699979113], [-119.70845200008057, 38.41743699979113], [-119.70823100014763, 38.41736499965214], [-119.70808600038268, 38.41733399995148], [-119.70790999975725, 38.41730399968357], [-119.70760500015875, 38.41720400010826], [-119.70749800002861, 38.41714000025115], [-119.70740599996711, 38.41705200017902], [-119.70734499986773, 38.41697500029195], [-119.70726899969975, 38.416894999856154], [-119.70718500003417, 38.416838000116286], [-119.70707100023134, 38.4167499996763], [-119.70700199973605, 38.416655000128785], [-119.70686500036702, 38.41649099992697], [-119.70675800023693, 38.41642599997994], [-119.7065520003726, 38.41632300010667], [-119.70639900021172, 38.416269999868625], [-119.70627000034028, 38.416269999868625], [-119.70610899978348, 38.416247000310975], [-119.70601000004926, 38.416258000008554], [-119.70583500014709, 38.416247000310975], [-119.70565900042, 38.416213000339454], [-119.70552200015265, 38.41616299981405], [-119.7053849998853, 38.41610200023829], [-119.70527799975518, 38.416029000009004], [-119.70517099962505, 38.41597600025914], [-119.70509500035541, 38.415918999794215], [-119.70496499976075, 38.415831000346415], [-119.70481999999578, 38.41577399976704], [-119.70475899989641, 38.4157590000146], [-119.7046369996977, 38.41573600029429], [-119.70450700000131, 38.41566299969526], [-119.70433200009914, 38.41554500034498], [-119.70412600023481, 38.415423000098336], [-119.7040419996709, 38.41532400020835], [-119.70402699960233, 38.41516699964962], [-119.7040190001047, 38.41501899968024], [-119.70395800000533, 38.414876999805145], [-119.70385099987521, 38.41472099986844], [-119.703752000141, 38.414587999687996], [-119.70367599997304, 38.414457999830724], [-119.70353100020809, 38.414370000011125], [-119.70337800004721, 38.41431699974814], [-119.70319499974909, 38.414236999888494], [-119.70290500021918, 38.41407999978312], [-119.70263800025549, 38.41387000015354], [-119.70253100012538, 38.413686999686995], [-119.70247000002601, 38.413542000107505], [-119.70243200039117, 38.41341700009081], [-119.70229500012381, 38.41327900000142], [-119.70214199996293, 38.4131379997297], [-119.70201999976422, 38.41292100011177], [-119.70195100016723, 38.41285599976853], [-119.70180600040227, 38.41280599973541], [-119.70176799986912, 38.412809999880125], [-119.70164599967039, 38.4127910000707], [-119.70155500033209, 38.4127910000707], [-119.70140200017121, 38.41281400002461], [-119.70115799977376, 38.41281800016887], [-119.70100499961288, 38.412763999962436], [-119.70089099981007, 38.41270699977899], [-119.7006470003109, 38.41266900010092], [-119.70058600021153, 38.412634999853424], [-119.7005550002494, 38.41256200034447], [-119.7005550002494, 38.41249300022013], [-119.70057799981561, 38.41236799979648], [-119.7005550002494, 38.412276000072886], [-119.70051699971626, 38.412172999914446], [-119.70044800011928, 38.41207000031303], [-119.7003719999513, 38.411981999696714], [-119.70034900038506, 38.41189099970655], [-119.7003569998827, 38.41179499987886], [-119.70031099985194, 38.41167300033913], [-119.70026499982119, 38.41153199974902], [-119.70021200011774, 38.41125400008589], [-119.70015799969104, 38.411132000336664], [-119.70006700035277, 38.41101699992863], [-119.6998149995594, 38.41075399978273], [-119.69976199985594, 38.41062800033183], [-119.69965499972581, 38.410524999935966], [-119.69952500002948, 38.41042999994638], [-119.69934199973136, 38.410337999867075], [-119.69912099979842, 38.41024999995707], [-119.69899100010207, 38.41013599980233], [-119.69890700043649, 38.41005199994371], [-119.69877000016916, 38.409949000134624], [-119.69867100043494, 38.409838000264834], [-119.6986399995745, 38.40973200009056], [-119.6986250004042, 38.409606000265505], [-119.69858699987104, 38.409472000266355], [-119.69847999974093, 38.40929300026329], [-119.6984639998474, 38.40919800006192], [-119.69849499980954, 38.409091000093085], [-119.69850999987814, 38.40897599995652], [-119.69848700031193, 38.408850000221165], [-119.69845700017468, 38.40872799993282], [-119.69844200010608, 38.408598999657826], [-119.6984649996723, 38.40852999997276], [-119.6984639998474, 38.40847699964968], [-119.69849499980954, 38.40839999977506], [-119.69857900037343, 38.408248000330325], [-119.6986250004042, 38.40818300000709], [-119.69877000016916, 38.408004000330855], [-119.69883799994119, 38.40790099971455], [-119.69889200036788, 38.40777500021662], [-119.69890700043649, 38.40764100034198], [-119.69889200036788, 38.40752700029505], [-119.69886100040574, 38.40735099985708], [-119.69884600033714, 38.4071990003178], [-119.69880000030638, 38.40707300029997], [-119.698739000207, 38.406984999933734], [-119.6986250004042, 38.40690099993211], [-119.69857900037343, 38.406854999772555], [-119.69854800041131, 38.40678700012575], [-119.69850999987814, 38.40672599967391], [-119.69842600021255, 38.40667199984251], [-119.69836500011318, 38.40662699983489], [-119.69833499997597, 38.40656599995191], [-119.69833499997597, 38.40651599979017], [-119.69868599960523, 38.40613799972891], [-119.69873300035924, 38.40607599983184], [-119.69782899963766, 38.4018130001126], [-119.6972520000526, 38.39909000007679], [-119.69515800017584, 38.38921699993683], [-119.69429299981236, 38.38513399990237], [-119.69398999986365, 38.38232299970977], [-119.69362199961762, 38.378898999835144], [-119.69375899988495, 38.37861000022835], [-119.69550999963003, 38.37491100006825], [-119.70002899981962, 38.365215000321456], [-119.69949400006732, 38.36495299995449], [-119.69483599996056, 38.3623539998674], [-119.67967999998268, 38.35389899966812], [-119.67473399999582, 38.351130000185094], [-119.67460699977424, 38.35106000025169], [-119.66952400041835, 38.34828800020707], [-119.66324600008778, 38.34360999998273], [-119.65742499969167, 38.33956099967346], [-119.65255200039805, 38.336170000073515], [-119.6524760002301, 38.33611700027585], [-119.65182099992887, 38.33567199971438], [-119.6511809996963, 38.33521500002218], [-119.63920499989158, 38.32687999999558], [-119.63908699989081, 38.32709999980794], [-119.63871699999494, 38.32713000014704], [-119.63798899989881, 38.327854000242276], [-119.63777299998874, 38.32790899969503], [-119.6372070002743, 38.32791200033027], [-119.63717299993911, 38.32792600000432], [-119.63716000041865, 38.327930999887265], [-119.6365250002089, 38.32807699984066], [-119.6361140003052, 38.32842000016203], [-119.63543999973739, 38.328672999833394], [-119.63503899987938, 38.32898499992777], [-119.63489199956632, 38.32928100005855], [-119.6348549997564, 38.32990999975779], [-119.63476799971775, 38.330391999766256], [-119.63476000022013, 38.33102899986384], [-119.63421700007193, 38.33141200027819], [-119.63378699990163, 38.331609999948896], [-119.63352199958774, 38.33242999999312], [-119.63318199982913, 38.33288800024666], [-119.63286600035994, 38.33363600026742], [-119.63237900028821, 38.33426899977432], [-119.63185299985844, 38.33474100015021], [-119.63171399994127, 38.33599900006864], [-119.6317449999034, 38.33675800019977], [-119.6319609998135, 38.337445999878184], [-119.63187600032299, 38.33846300024842], [-119.63165500039003, 38.339034000271745], [-119.63168999965183, 38.33951799981909], [-119.63216000000511, 38.34023100016958], [-119.63245799993095, 38.340799000248396], [-119.63233099970934, 38.34121000031057], [-119.63237799956501, 38.34148400023091], [-119.63233699955713, 38.34234000031537], [-119.63212900004295, 38.34263699991778], [-119.6318910003916, 38.342901000264305], [-119.63185700005641, 38.34314299985418], [-119.63206799994362, 38.34420200002894], [-119.63014899996905, 38.345929999700836], [-119.62990899976953, 38.34635600030401], [-119.62910799987844, 38.34673699987692], [-119.62886699985404, 38.3472760003447], [-119.62853799996608, 38.34742600030779], [-119.628105000321, 38.34778599979703], [-119.6279079997792, 38.34805100009762], [-119.62829500029181, 38.34973299966476], [-119.62890000036433, 38.35020599970216], [-119.6293149995677, 38.350516000033224], [-119.62978900011895, 38.35093900004628], [-119.63060699972846, 38.3515270000569], [-119.63099400024106, 38.35161100027249], [-119.63182000024649, 38.35161799993385], [-119.632461000304, 38.351712000050505], [-119.6332220000121, 38.35202400026752], [-119.6338699997423, 38.35240100035065], [-119.63437299970754, 38.352969999730526], [-119.63495699986363, 38.35357199980654], [-119.63544399993536, 38.353835999745016], [-119.63546999987462, 38.35385000004578], [-119.63554799969242, 38.353892999845584], [-119.63557500035492, 38.35390799975334], [-119.63303700006418, 38.354565999741], [-119.63240299967934, 38.35470599980621], [-119.63183000029223, 38.354830000282014], [-119.6313569995659, 38.355109000223926], [-119.63077900015588, 38.35566100002415], [-119.63043799967404, 38.35593300033814], [-119.62834399979731, 38.35859600023245], [-119.62792200002292, 38.358858999913224], [-119.6260049996982, 38.359352000230544], [-119.62486400004848, 38.360011999823165], [-119.62378299977493, 38.36074800020011], [-119.62278299969222, 38.3614859998692], [-119.62141799973655, 38.3620740001645], [-119.62065100018064, 38.362491999961506], [-119.61877900006175, 38.363767000054615], [-119.6170290001416, 38.364624999835705], [-119.61667000011641, 38.364758999840475], [-119.61444800019314, 38.365593000201315], [-119.61156099992293, 38.36603299999369], [-119.6100310001108, 38.36622399975775], [-119.60739499991074, 38.36645799980675], [-119.60661999995894, 38.36718199988643], [-119.60656499970736, 38.36782700009097], [-119.60689299977044, 38.368233999807394], [-119.60810100026558, 38.36867599998025], [-119.60866699998002, 38.369464999681306], [-119.6092150001511, 38.37058500017574], [-119.60998500008003, 38.371827999693764], [-119.61092200041354, 38.372951999771274], [-119.61226300007979, 38.37386400025682], [-119.61349999998897, 38.3749120001005], [-119.61406999990135, 38.375818999727635], [-119.61468699966942, 38.3770020000046], [-119.61478700012685, 38.377906000219376], [-119.6147000000882, 38.37911600018456], [-119.61477100023332, 38.37995599964844], [-119.61582300019455, 38.38054499983233], [-119.61745699976379, 38.381033999821774], [-119.61843500010514, 38.38183200011055], [-119.61880099980307, 38.382739000301704], [-119.61851799994584, 38.38409199969098], [-119.61878300025973, 38.38567500014879], [-119.61918099974464, 38.387220000078976], [-119.62014900004031, 38.38811499999435], [-119.62006200000168, 38.38936499993687], [-119.62035599972954, 38.39101300008191], [-119.6210229997263, 38.39228500027991], [-119.62191599967889, 38.39333300010364], [-119.62209300012923, 38.39387500004058], [-119.620852999847, 38.39519599970617], [-119.61879199958223, 38.39695599986326], [-119.61580999977576, 38.39891700001959], [-119.61377100015062, 38.398966000106306], [-119.6129119996349, 38.399176999798506], [-119.61150800021947, 38.39897199971236], [-119.60983600011713, 38.3998390002074], [-119.60707900044157, 38.40100299966511], [-119.60415600018634, 38.402384000322954], [-119.60308999998139, 38.40359399978242], [-119.60288300029217, 38.40428500029432], [-119.60266400000904, 38.40501900022752], [-119.60121200001473, 38.405354000338825], [-119.59879500009781, 38.403938999992725], [-119.59711899979752, 38.40272400032636], [-119.59599599969111, 38.40128599978841], [-119.5951620001881, 38.400407999755316], [-119.59240899981219, 38.398877000024775], [-119.58901899957674, 38.397753000062366], [-119.58633899989407, 38.39694899965828], [-119.58368900034864, 38.39694299988434], [-119.58338700022485, 38.39823999974696], [-119.58262800016657, 38.39934700015021], [-119.58078799983471, 38.400486000079205], [-119.57837299956762, 38.40146299987694], [-119.57822600015284, 38.401523000178486], [-119.5754130004008, 38.40227399975167], [-119.5723870002134, 38.402975999818715], [-119.56961000044637, 38.40400199994514], [-119.56754599980854, 38.4051149999054], [-119.56602000019437, 38.40642600025661], [-119.56433800004628, 38.40795300018073], [-119.56302800034216, 38.40899899971693], [-119.56199499974919, 38.41073399989571], [-119.56199300009936, 38.41236300011286], [-119.56201800021374, 38.41359800013493], [-119.5620299999093, 38.414178999969984], [-119.56188599996923, 38.415760000185884], [-119.56178399986199, 38.41728400020189], [-119.56172199993769, 38.41880799974168], [-119.56136200008758, 38.41982999985895], [-119.5616370004472, 38.420558999732904], [-119.56185699965691, 38.42084300009348], [-119.56486799977569, 38.42174300014494], [-119.56506500031749, 38.42180199970893], [-119.56579400023857, 38.42257499997066], [-119.56644000031893, 38.42529599968927], [-119.56605600017937, 38.42775000013679], [-119.56781600014527, 38.429193999649165], [-119.56803200005534, 38.4297599996544], [-119.56820199993466, 38.43020200029357], [-119.56816000010187, 38.43063899980849], [-119.56837500018702, 38.431075000238145], [-119.56876199980131, 38.43272200015871], [-119.56881399967985, 38.43273599997096], [-119.56880500035732, 38.43339799975515], [-119.56894000007654, 38.433963999880945], [-119.56939399963797, 38.43435500031064], [-119.56978899964818, 38.43455999994176], [-119.57000899975621, 38.43486000005182], [-119.5697119996553, 38.43493799977778], [-119.56913800044326, 38.43519999993622], [-119.56869400002923, 38.43533200026291], [-119.56834900024775, 38.4354349997691], [-119.56766299998439, 38.43564799972331], [-119.56679199977312, 38.43601200031793], [-119.5662269998836, 38.43632200029748], [-119.56518999999098, 38.4368050001847], [-119.5647060002923, 38.43713999997715], [-119.56380199957074, 38.4376089997489], [-119.56321400011501, 38.43814499987842], [-119.56264699967734, 38.438591999829825], [-119.56214100023738, 38.43907999995521], [-119.5617780000142, 38.43945599965876], [-119.5614039999204, 38.43994500011228], [-119.56120999975163, 38.440654000242084], [-119.5611520000253, 38.441178000336414], [-119.56110400034473, 38.44174199965173], [-119.5612209996223, 38.44211400033611], [-119.5612859999196, 38.44262299987979], [-119.56074000029668, 38.442974000343725], [-119.56071600000722, 38.44298399969449], [-119.56014500026991, 38.443250999859615], [-119.56000899982749, 38.44349200035161], [-119.55993000018478, 38.44406400022462], [-119.55984200032121, 38.44456400002661], [-119.55938700003655, 38.44501200009831], [-119.55869800029845, 38.445402000029254], [-119.55819299978509, 38.44579299971883], [-119.55817500024172, 38.445805000300204], [-119.55812500001304, 38.44584300013454], [-119.55810800029458, 38.445855999758535], [-119.55807899998227, 38.44587599977084], [-119.55799600014159, 38.4459389997381], [-119.55796799965418, 38.44596000018399], [-119.55751300026783, 38.446304000253], [-119.55733599981751, 38.44652799980912], [-119.55671700039962, 38.447071999856895], [-119.55642600014649, 38.44746499981281], [-119.5566320000108, 38.44804699991378], [-119.55682899965431, 38.44860599973663], [-119.55701600015036, 38.44907500028738], [-119.55709800016615, 38.44976200034361], [-119.55695699970084, 38.45042200009001], [-119.55692599973868, 38.450572000053874], [-119.55682500035468, 38.451082999813465], [-119.55685899979152, 38.451624000268524], [-119.55707700024972, 38.45210200002484], [-119.55721199996894, 38.452675999918895], [-119.55720899959589, 38.45358799996536], [-119.55709800016615, 38.45428899981955], [-119.55715900026551, 38.45505599993437], [-119.55725499962665, 38.45548400013628], [-119.55760299978121, 38.45613300034994], [-119.55777000018577, 38.45663399984731], [-119.55773400020077, 38.45698900020866], [-119.55753599983407, 38.45730200033049], [-119.55760500032935, 38.45751200028703], [-119.55810499992154, 38.457443999791884], [-119.55857299972668, 38.457569000280294], [-119.5586520002677, 38.45776299969771], [-119.55874000013124, 38.45806200015679], [-119.55877399956813, 38.45853899988815], [-119.5586659996131, 38.458997999943364], [-119.55874000013124, 38.45949899994345], [-119.55886700035285, 38.45995200005238], [-119.5589829998055, 38.46043699988517], [-119.55883300001769, 38.46090300016105], [-119.55860399968881, 38.461256999668635], [-119.55839500034976, 38.461617999819374], [-119.55823799999091, 38.4619469997958], [-119.5581090001195, 38.46242200010969], [-119.55805100039316, 38.462945999705894], [-119.55798299972278, 38.46341399967606], [-119.55794099989, 38.464269000152875], [-119.55790200043026, 38.464849000070046], [-119.55787599959268, 38.46528300027516], [-119.55786300007217, 38.46551100003338], [-119.5577219996069, 38.46606600029126], [-119.55752900016137, 38.46676699987092], [-119.55709999981596, 38.467538000173896], [-119.5567009996078, 38.468398000315084], [-119.55639500018432, 38.46914599976952], [-119.55623399962755, 38.469734000163434], [-119.5558629999068, 38.47024200027944], [-119.55525600018446, 38.47036299991913], [-119.55424100003314, 38.47072599972994], [-119.55322500005694, 38.47115299968513], [-119.55232399970842, 38.47141999970468], [-119.55106500005795, 38.47168399984245], [-119.54989699974573, 38.47206099995651], [-119.54879799992885, 38.472608999832666], [-119.54775000016556, 38.47310800007155], [-119.54686700025871, 38.47352099964868], [-119.54607300004034, 38.4740950000074], [-119.54577900031248, 38.47471399982222], [-119.54558900034168, 38.47514000001929], [-119.54545899974701, 38.47571999970777], [-119.54542100011219, 38.476276000194034], [-119.54545500044735, 38.476745000188096], [-119.54516800039217, 38.477572999649325], [-119.54474499989456, 38.4779090000712], [-119.54408899976843, 38.47814500007584], [-119.54344199986315, 38.478445999735456], [-119.54332300003747, 38.47889699968127], [-119.54321400025752, 38.47942099981841], [-119.54277700041452, 38.4800629999448], [-119.54245199982621, 38.48064899996267], [-119.54233200017559, 38.48122099989035], [-119.5423670003357, 38.48165699992891], [-119.54259499994133, 38.48211000008816], [-119.54283500014084, 38.48249899993203], [-119.54291999963135, 38.48295199972174], [-119.54307399961715, 38.483605999960744], [-119.54329100025042, 38.484181000110055], [-119.54390299999562, 38.484944999725826], [-119.54430300002869, 38.48550499971225], [-119.54472200032835, 38.48624299990416], [-119.54489700023055, 38.48684900020782], [-119.54494599973602, 38.48743400001808], [-119.54498500009407, 38.48789099993134], [-119.54506600028492, 38.48867399982817], [-119.54511800016346, 38.48933599971831], [-119.54532900005069, 38.489579999794415], [-119.5453740002565, 38.49003200023075], [-119.54526499957825, 38.49054000005005], [-119.54502000025418, 38.49122400012841], [-119.54475900013827, 38.491672999924766], [-119.5443530002574, 38.492227000065895], [-119.54416400011152, 38.49262099989425], [-119.54382799965255, 38.4933280002214], [-119.54373800013917, 38.49393199971647], [-119.54379199966752, 38.49445700000768], [-119.54398900020935, 38.49496699982127], [-119.5441349997992, 38.49547700024304], [-119.54419900027162, 38.49601800023883], [-119.54411899990568, 38.496654999988955], [-119.54368100023774, 38.49730499992528], [-119.54349799993965, 38.49756100013782], [-119.5430569998987, 38.49817899976899], [-119.54287500032382, 38.498790999973814], [-119.54281699969918, 38.49925800025453], [-119.54286199990503, 38.49969400013679], [-119.5432190002804, 38.49975399966242], [-119.54376999992623, 38.499733999826105], [-119.54445600018957, 38.49955400034616], [-119.54530599958612, 38.49938399968218], [-119.5460920003069, 38.499350000204245], [-119.54682600025082, 38.499452999710556], [-119.54725300004812, 38.49953700029777], [-119.54869800036971, 38.499910000023156], [-119.5491979999619, 38.50063000012209], [-119.54971000014797, 38.50106600013593], [-119.55030599999965, 38.5012669998646], [-119.55167000013043, 38.5012669998646], [-119.55316200030772, 38.50156799996932], [-119.5552090003288, 38.501701999854205], [-119.55661600011729, 38.501701999854205], [-119.55750999989478, 38.502137999706065], [-119.55772300033011, 38.50311000012992], [-119.55836199983948, 38.50398199983146], [-119.55874500015413, 38.50512200016992], [-119.55921399978419, 38.50549099986561], [-119.55887200037574, 38.505893000074096], [-119.55840299984737, 38.50602700034789], [-119.5580599997157, 38.50639600032731], [-119.55840200002245, 38.50740200013523], [-119.55840000037263, 38.50850799968461], [-119.55834400029613, 38.509054000237505], [-119.55826999977796, 38.50978199968943], [-119.55809900007374, 38.51078799999326], [-119.55750099967393, 38.511759999651304], [-119.55668999973715, 38.51276599973252], [-119.55617699972616, 38.51404000031128], [-119.55604799985473, 38.51541500031643], [-119.55621699990911, 38.516621000203806], [-119.55654900017014, 38.51695400006465], [-119.55662500033812, 38.5170299999373], [-119.55668600043748, 38.51709099995271], [-119.55762299987268, 38.51752700011358], [-119.55776400033801, 38.51759699979346], [-119.55877399956813, 38.51809599988679], [-119.55962600041114, 38.51977299979232], [-119.56013900042213, 38.520802000333404], [-119.56047800035586, 38.52148200005145], [-119.56066300030378, 38.522079999676734], [-119.56069799956553, 38.52219500022441], [-119.56082099958921, 38.52259399965487], [-119.56090299960498, 38.52285699987718], [-119.56083999985579, 38.52419600029875], [-119.56081599956633, 38.5247340001172], [-119.56094299978793, 38.52553899992388], [-119.56154000036284, 38.526007999723824], [-119.56303199964181, 38.52624300025724], [-119.5644390003286, 38.526443999985005], [-119.56537800031195, 38.526376999903846], [-119.56593200033082, 38.526007999723824], [-119.56593300015574, 38.52580700018383], [-119.56613300017227, 38.525513999943136], [-119.56623199990646, 38.52537100027996], [-119.56635999995301, 38.52527000001244], [-119.56687100031417, 38.52527000001244], [-119.56682799975815, 38.525907000350315], [-119.56669899988668, 38.52741499975883], [-119.56678199972738, 38.53049899985306], [-119.56712200038432, 38.531537999951524], [-119.5679729996058, 38.53428700021118], [-119.56814199966021, 38.53606400028598], [-119.56805600034478, 38.53700300005756], [-119.56805499962155, 38.537706999951695], [-119.56843899976113, 38.53800900007222], [-119.56937699991954, 38.53837699996172], [-119.57001600032721, 38.53894699988142], [-119.57031400025305, 38.53975200017908], [-119.57065499983658, 38.54062300028037], [-119.57069699966938, 38.541126000270566], [-119.57086800027191, 38.54149500020709], [-119.57099499959521, 38.54172900021417], [-119.57133699990197, 38.54172900021417], [-119.57210500018108, 38.541595000351315], [-119.57217200012825, 38.54156799996072], [-119.57253100015343, 38.54142700025443], [-119.57304300033952, 38.541126000270566], [-119.57347000013678, 38.540857000313856], [-119.57411000036939, 38.540823999886825], [-119.57411000036939, 38.540991000146434], [-119.57428000024869, 38.54172900021417], [-119.57474899987875, 38.542701000093246], [-119.57577200042599, 38.543237000343375], [-119.57602699979581, 38.54410900019479], [-119.57611200018461, 38.54457799979353], [-119.57636800027765, 38.54531600029151], [-119.57705000034302, 38.54571800011255], [-119.57794599977035, 38.54595199972862], [-119.57879799971506, 38.54668899971391], [-119.57909700036411, 38.5471249997049], [-119.5791390001969, 38.54776199975089], [-119.57939399956672, 38.54870099996444], [-119.58041799993887, 38.549505000260936], [-119.5808790000713, 38.54967200003378], [-119.58208099982039, 38.55010800020387], [-119.5836159996554, 38.55124799996911], [-119.58429799972079, 38.552017999991484], [-119.58446900032332, 38.55289000014637], [-119.58463900020263, 38.55396299967637], [-119.58472399969313, 38.554767000141865], [-119.58485099991475, 38.55550500003572], [-119.58519200039659, 38.55637599971602], [-119.58561800036894, 38.55697999995553], [-119.58583099990598, 38.55771700000147], [-119.58591600029477, 38.55812000033944], [-119.5861299996567, 38.558286999770274], [-119.58672700023159, 38.55835400033726], [-119.58736699956586, 38.55835400033726], [-119.58732399990816, 38.558654999859726], [-119.58710999964791, 38.560131000045615], [-119.58706600016531, 38.5615390002269], [-119.58672499968347, 38.56261199990445], [-119.5864679997655, 38.563684999717864], [-119.58659499998711, 38.564991999827434], [-119.58672300003361, 38.566064999927946], [-119.58689299991292, 38.56653400029524], [-119.58719199966369, 38.566902999782], [-119.58757599980324, 38.566936000180554], [-119.58795999994278, 38.56713699998226], [-119.58830100042464, 38.56713699998226], [-119.58864200000818, 38.567069999876665], [-119.58889200025344, 38.56705099996116], [-119.58911200036145, 38.567036000061336], [-119.58945299994501, 38.5675049997102], [-119.59022200004904, 38.56817599968231], [-119.59051999997487, 38.568677999917405], [-119.59039199992833, 38.569382000150966], [-119.59051999997487, 38.570120000287226], [-119.59009099962947, 38.571428000063435], [-119.59004799997173, 38.572031000117626], [-119.58962100017449, 38.57280200024651], [-119.58940699991423, 38.5734060000977], [-119.58930700035515, 38.57356300033329], [-119.58966300000728, 38.573941999684976], [-119.59038799973037, 38.5746789999619], [-119.59085800008366, 38.57558399973515], [-119.59107099962067, 38.57682400027668], [-119.59149800031626, 38.57732599978146], [-119.59154000014905, 38.578165000349784], [-119.59154000014905, 38.57863399968592], [-119.5926490000117, 38.5789020001388], [-119.59499599960843, 38.580073999667945], [-119.59572100022986, 38.581046000066095], [-119.59589000028424, 38.58150299979978], [-119.59601999998058, 38.58185100019136], [-119.5955499996273, 38.583828999734116], [-119.59499399995859, 38.58583999971056], [-119.59465199965183, 38.5876510000129], [-119.5952910000595, 38.58922600003044], [-119.59554700015255, 38.59033299983477], [-119.59648600013591, 38.5905330003221], [-119.5972119996839, 38.590935000023485], [-119.59810800000953, 38.591604999672924], [-119.5985339999819, 38.592075000243746], [-119.5987049996861, 38.592611000237646], [-119.59981500027197, 38.59334799992654], [-119.60160700002494, 38.59371600018859], [-119.60241799996176, 38.59371499967721], [-119.60429699975334, 38.59394900030459], [-119.60493699998595, 38.594083000164346], [-119.60613200006233, 38.59414899984617], [-119.6079680001962, 38.59451700021486], [-119.60886399962352, 38.594718000075595], [-119.60941900036562, 38.5952539999954], [-119.61023000030244, 38.59652700017626], [-119.61125399977625, 38.597967999874655], [-119.61193699966654, 38.59951000016754], [-119.61253400024145, 38.60048200004503], [-119.61398600023577, 38.60138600000511], [-119.61419899977281, 38.60185599972095], [-119.61501100043284, 38.60225900029291], [-119.6154800000629, 38.60249200005802], [-119.61718700032534, 38.602759000241775], [-119.6182119996241, 38.60299300016971], [-119.61906600011693, 38.60352900007526], [-119.61923699982115, 38.60450100027936], [-119.61881000002388, 38.605003999710085], [-119.61876700036619, 38.605674999665474], [-119.61846799971713, 38.60617799999301], [-119.61846799971713, 38.60691500007968], [-119.61953499974699, 38.60738399976726], [-119.62004799975797, 38.60838900000698], [-119.62024000027691, 38.60938999973982], [-119.62024399957656, 38.6094110002719], [-119.62025600017041, 38.60947399972534], [-119.62026100019331, 38.60949500023282], [-119.62051700028634, 38.61066900004091], [-119.62055200044645, 38.611472999786265], [-119.62060299960174, 38.612613000219056], [-119.6210289995741, 38.61351799991385], [-119.62107200013013, 38.61442300012446], [-119.62051700028634, 38.614691999870615], [-119.62004699993305, 38.61516099996145], [-119.61996200044257, 38.616167000256766], [-119.61983500022096, 38.61683700021036], [-119.61979099984, 38.617072000036835], [-119.61940699970044, 38.618045000142025], [-119.6190500002234, 38.6186730002661], [-119.61876599964296, 38.61891699972971], [-119.61846699989222, 38.6193189997798], [-119.61846699989222, 38.62012400028233], [-119.61868100015248, 38.620761000257374], [-119.61914999978251, 38.62139700006411], [-119.61944900043159, 38.622168000020224], [-119.61953499974699, 38.62283800006442], [-119.61957699957978, 38.623508000165586], [-119.61945399955614, 38.62424399969859], [-119.61944900043159, 38.62427899988495], [-119.61923599999625, 38.62441299995917], [-119.61876599964296, 38.624547999864525], [-119.61786900039073, 38.62478299969132], [-119.61783500005555, 38.62490700016458], [-119.61736700025041, 38.625267000142514], [-119.61698399993575, 38.6255049999231], [-119.61664500000204, 38.62590999972733], [-119.61673200004067, 38.62611100008566], [-119.61681999990421, 38.626480000125326], [-119.61694999960059, 38.62671499993677], [-119.616825999752, 38.62738699968978], [-119.6167909995919, 38.62842900002979], [-119.61632899963455, 38.62967500019491], [-119.61650299971181, 38.63011099973319], [-119.61697899991287, 38.63091499980283], [-119.61698099956273, 38.631184000150604], [-119.61715399981505, 38.631417999997446], [-119.61758300016045, 38.63161699968612], [-119.61792499956893, 38.63164899983485], [-119.61826900042381, 38.63184900026553], [-119.61822800041591, 38.63211799991577], [-119.61814399985204, 38.63228599988964], [-119.61793200013992, 38.63262399999759], [-119.61733700011317, 38.633130999978434], [-119.61699700035454, 38.633503000249824], [-119.61678499974413, 38.633772999962176], [-119.61572399956202, 38.63482099974767], [-119.6157269999351, 38.63525700026897], [-119.61568599992721, 38.6355939997739], [-119.61530599998562, 38.63633499973687], [-119.61509699974825, 38.63697499997901], [-119.61493400043994, 38.63815200015393], [-119.61499700018915, 38.63838100026691], [-119.61511000016704, 38.638789999843475], [-119.61545699959835, 38.639460000339206], [-119.61597299998239, 38.639859999859056], [-119.61623200044846, 38.64029599990127], [-119.61627699975601, 38.64053100003414], [-119.61623599974811, 38.64073200009765], [-119.61610900042481, 38.640935000005136], [-119.61598100037831, 38.64106999967363], [-119.61598200020323, 38.641237999716736], [-119.61572799976003, 38.64160900017094], [-119.61607300043981, 38.64194299976349], [-119.61620399996109, 38.64231199970717], [-119.61642200041929, 38.64298300007904], [-119.61656899983406, 38.64362600004366], [-119.61657200020709, 38.64364000026458], [-119.61658200025285, 38.64368399983861], [-119.61658599955251, 38.643698999862636], [-119.61658800010063, 38.64370999992503], [-119.61659599959825, 38.64374300010207], [-119.6165989999713, 38.643754999971314], [-119.61685699971413, 38.643989000177505], [-119.616861999737, 38.64462699982624], [-119.61677800007142, 38.644930000065145], [-119.61656800000917, 38.64546900029658], [-119.61644199961245, 38.64570500009147], [-119.61610199985381, 38.64611000014279], [-119.61614700005966, 38.6463450001538], [-119.61640499980253, 38.646579000321516], [-119.61642200041929, 38.64667799964975], [-119.6164940003893, 38.64708299981429], [-119.61624300031912, 38.647890000322406], [-119.61599300007386, 38.64876600004803], [-119.61582300019455, 38.648967999906695], [-119.61552400044383, 38.64910400031738], [-119.61522599961967, 38.64920700001814], [-119.61497000042495, 38.64927600011631], [-119.61458499956215, 38.64937900027137], [-119.61424300015373, 38.64941400011323], [-119.6140730002744, 38.64948200027836], [-119.61394600005279, 38.64965099997583], [-119.61386300021212, 38.650087999807106], [-119.61395000025077, 38.65029000014798], [-119.61425099965133, 38.65052300034081], [-119.61442499972861, 38.65085800019344], [-119.61451500014027, 38.65149599971637], [-119.61439100029172, 38.65216899977056], [-119.61405400000785, 38.652977000203485], [-119.6139309999842, 38.65368399985862], [-119.613423999821, 38.65466099984524], [-119.61338000033838, 38.654827000274175], [-119.61313299956787, 38.65577200021798], [-119.61313900031394, 38.656679000237375], [-119.61335900042198, 38.65755200025992], [-119.61342999966878, 38.65812900027372], [-119.61343399986673, 38.65816099980898], [-119.61344599956227, 38.65825800004466], [-119.61344999976025, 38.658290999834556], [-119.6134949999661, 38.658693999677], [-119.61354299964665, 38.6593650002566], [-119.61363300005837, 38.65997000007014], [-119.61333699978235, 38.6605090000886], [-119.6132129999338, 38.66111500033148], [-119.61288099967277, 38.66204599995694], [-119.6128770003731, 38.6620580002679], [-119.61288499987074, 38.6631000001953], [-119.6134029999046, 38.66387000029805], [-119.61383600044796, 38.66460599994269], [-119.61435399958347, 38.66520799972494], [-119.61465800025542, 38.66587900029534], [-119.61432099997153, 38.66651899968966], [-119.613980000388, 38.666755999773], [-119.61333900033048, 38.666827000186835], [-119.61261000040943, 38.666596000113515], [-119.61166700022815, 38.666466999930456], [-119.61063799983313, 38.666170000109915], [-119.60991099956189, 38.666140999851244], [-119.60901099993661, 38.66591099987487], [-119.6079120001197, 38.666219999681815], [-119.60743099989577, 38.66635600030469], [-119.60606599994009, 38.667069999687314], [-119.60495700007742, 38.66754599999622], [-119.60446699963265, 38.667995000089704], [-119.60445400011217, 38.66800599992852], [-119.60441599957902, 38.66804199996322], [-119.60440399988346, 38.66805399997078], [-119.60410699978254, 38.66832399995939], [-119.60338200005944, 38.66869800023064], [-119.60265599961312, 38.66893699974092], [-119.60188700040743, 38.669075999896194], [-119.60030599964335, 38.669554999958414], [-119.59932599965212, 38.67023300008689], [-119.59864699995981, 38.67094200010731], [-119.59780099986287, 38.67249299996391], [-119.59764100002928, 38.674107000052004], [-119.59743099996703, 38.67461200020857], [-119.59713499969101, 38.675151000121126], [-119.59666600006095, 38.67538899975623], [-119.5962819999214, 38.67566000020419], [-119.59598499982047, 38.67603099982907], [-119.5959930002164, 38.67717399984747], [-119.59621199960121, 38.67787899969601], [-119.59587100001765, 38.67814899979844], [-119.59540300021251, 38.67855500017531], [-119.59455100026783, 38.67906399989532], [-119.5938259996464, 38.679404000280456], [-119.59318700013706, 38.67991200026371], [-119.59297500042494, 38.680214999914654], [-119.59297799989969, 38.68066799979132], [-119.59297100022697, 38.68077199968026], [-119.59297000040208, 38.68080800030792], [-119.59296399965595, 38.68086000016954], [-119.5929300002191, 38.68109999974265], [-119.59289099986101, 38.68137200029614], [-119.59289199968593, 38.681602999675924], [-119.59209199961977, 38.681904999898855], [-119.59175600005912, 38.68210600028125], [-119.59146099960802, 38.68217400026192], [-119.59133599993456, 38.682538999940604], [-119.59108700041251, 38.68310300031149], [-119.59096299966566, 38.68350100025293], [-119.59113300044326, 38.6839969997667], [-119.5913459999803, 38.684328000320335], [-119.59134799963012, 38.6847580000305], [-119.59114199976578, 38.68545400010597], [-119.59101700009231, 38.6858530002215], [-119.59118799979655, 38.68624999967122], [-119.59165399995187, 38.68647900029674], [-119.59199200006066, 38.686677000004856], [-119.5920990001908, 38.68697299967999], [-119.59212400030515, 38.687443000040545], [-119.59213199980275, 38.68861600027878], [-119.59209499999282, 38.68942100002484], [-119.59184399992265, 38.69012599982732], [-119.5909939996278, 38.69086800002639], [-119.59022899972172, 38.69137500011182], [-119.58908300004916, 38.69225299977764], [-119.58844500036469, 38.6926569997013], [-119.58793700037656, 38.69333099976102], [-119.58717499994526, 38.69420599982708], [-119.58666799978204, 38.694912999752425], [-119.5868410000344, 38.69534800002428], [-119.58693200027098, 38.69611800030547], [-119.58693700029387, 38.696888999782665], [-119.58706799981512, 38.69752499979048], [-119.58719900023468, 38.697926000109454], [-119.5869049996085, 38.69849700013312], [-119.58648000035937, 38.69890200029159], [-119.58609799986965, 38.69917200029158], [-119.58486599998335, 38.70011800005465], [-119.58422900012381, 38.70062300033672], [-119.58295399968148, 38.7015349999558], [-119.58151000008309, 38.70264800002072], [-119.58049400010685, 38.70406100017288], [-119.57989900008009, 38.70500800011837], [-119.57986800011794, 38.705059000258466], [-119.5795180003136, 38.70560899973279], [-119.57947599958248, 38.7066530000604], [-119.58016299967075, 38.707462000013905], [-119.58162300006099, 38.70854100030354], [-119.58274000031956, 38.70934900032495], [-119.58377100036441, 38.71019100031276], [-119.58441499989664, 38.71133599982633], [-119.5849320001056, 38.712211999969476], [-119.58543699972066, 38.71321200032618], [-119.58706600016531, 38.714344999863975], [-119.58717400012034, 38.71443599969422], [-119.58742199981747, 38.71464399997267], [-119.58747399969599, 38.71468800007529], [-119.58750800003118, 38.71469500024843], [-119.58764699994835, 38.71472699972948], [-119.59021200000328, 38.71647300029525], [-119.59403700043191, 38.71909900011553], [-119.59430100002257, 38.719280000010244], [-119.6002730000314, 38.72337999984394], [-119.6093699999618, 38.72962499985505], [-119.61319899969008, 38.73223000033909], [-119.61960199969413, 38.736585999797974], [-119.62085399967192, 38.73743699969108], [-119.62186600034852, 38.73812600000923], [-119.62460999960528, 38.73999299980407], [-119.62586300030627, 38.740845000299814], [-119.62600399987328, 38.740941000004675], [-119.62684199957425, 38.741529999872235], [-119.62977800024828, 38.74359400028882], [-119.63075700041459, 38.74428200024873], [-119.63146399969601, 38.74477899977311], [-119.63358600006016, 38.74627000000971], [-119.63423899981325, 38.74672899980307], [-119.63429200041502, 38.746769999737204], [-119.63504700027532, 38.74735500009488], [-119.63833899970318, 38.749904000186646], [-119.64211300007818, 38.752497000278254], [-119.65657899959474, 38.762436000156114], [-119.66107699986796, 38.76559500034322], [-119.66321299957748, 38.76709599987511], [-119.66391399990944, 38.767579999956226], [-119.66601799983192, 38.76903399973855], [-119.66662600027747, 38.769453999661444], [-119.6667199999888, 38.76951900013726], [-119.66678100008816, 38.76956099974518], [-119.666966999861, 38.76969000028737], [-119.66702899978529, 38.76973299994931], [-119.66903800017154, 38.77112100018357], [-119.67506799990667, 38.77528800015409], [-119.67707800011785, 38.77667800026353], [-119.67744600036387, 38.77693199966967], [-119.67855000020363, 38.7776950002072], [-119.67891799955137, 38.77795000023281], [-119.67955799978394, 38.77839200021823], [-119.68147900030664, 38.779719999874295], [-119.68212000036415, 38.78016300010274], [-119.68389700004849, 38.78139099993682], [-119.68923100037286, 38.78507799981933], [-119.69100899988209, 38.786306999660745], [-119.69143499985447, 38.78660100002199], [-119.69176499956733, 38.78682700008053], [-119.69529100024522, 38.78926700025094], [-119.69534599959852, 38.7893049999123], [-119.69538199958352, 38.78932999971531], [-119.6954579997515, 38.78938199975361], [-119.69546799979723, 38.78938900030793], [-119.69550499960715, 38.78941499996022], [-119.69556099968366, 38.789453000242894], [-119.7038140000653, 38.79515799986619], [-119.72590399960153, 38.81042499978167], [-119.72679300025446, 38.81104000026564], [-119.72932399997423, 38.81278999999904], [-119.74190800022448, 38.821485999806136], [-119.74404999978181, 38.822968000033676], [-119.74435600010356, 38.82318000017768], [-119.74997699958476, 38.827029000088096], [-119.75003100001145, 38.827065999857325], [-119.7510069998047, 38.82777799987973], [-119.75390300029578, 38.82977599976239], [-119.75396500022005, 38.829819000272984], [-119.75465700033118, 38.830297000001096], [-119.75673600013931, 38.83173100022059], [-119.75742900007536, 38.832209999683535], [-119.75761800022124, 38.83234100017765], [-119.76040800040705, 38.83426800019636], [-119.76050299994331, 38.8343340003032], [-119.76355099987198, 38.83643700012904], [-119.76463100032065, 38.83718299986781], [-119.76483299998701, 38.83732300016105], [-119.76966799964578, 38.84066099974331], [-119.77902700041533, 38.847126000227874], [-119.77912899962426, 38.84719600007284], [-119.78668999989475, 38.85241500031536], [-119.7867500001692, 38.85245599965308], [-119.79079399998265, 38.85524799992919], [-119.79094200012067, 38.855350000266476], [-119.7973679996909, 38.85977599991495], [-119.79745300007973, 38.85983599980839], [-119.80259700043331, 38.86337599973964], [-119.80352499964766, 38.86401999995204], [-119.81054399959486, 38.86882300006077], [-119.8135229999266, 38.870860999846926], [-119.8141999999691, 38.8713249997333], [-119.81670899994758, 38.87301899991753], [-119.82095799980041, 38.87589400028271], [-119.82106099973255, 38.87595700004889], [-119.82208400027979, 38.87668599987491], [-119.83037100009831, 38.882583999987865], [-119.831187000058, 38.88316100014603], [-119.83196799985761, 38.88371500019319], [-119.83200399984261, 38.88373999971982], [-119.83244499988356, 38.884052999678], [-119.83359599957899, 38.884832999990124], [-119.83363800031013, 38.88486100033337], [-119.83514200018297, 38.88587899967525], [-119.83828499964791, 38.888006000146795], [-119.83954699967143, 38.88885900014175], [-119.83984899979524, 38.88906399989677], [-119.83993900020693, 38.88912500011897], [-119.84063700016581, 38.889596999987226], [-119.8430010003793, 38.891196999883114], [-119.8437899996765, 38.891730999890314], [-119.84426000002979, 38.892049000179185], [-119.84567000019132, 38.893003000194405], [-119.84614100036951, 38.8933220001998], [-119.84627500026382, 38.8934129996647], [-119.84702599992617, 38.893920999852185], [-119.84968399986751, 38.895720000227605], [-119.85057000014744, 38.89631999970633], [-119.85059199988874, 38.89633499983806], [-119.85198600015673, 38.897278000129674], [-119.8574550002003, 38.90103400027146], [-119.85749299983516, 38.90105999970399], [-119.86448900021614, 38.905866000102186], [-119.8645009999117, 38.905874000029456], [-119.870204000307, 38.90977599969684], [-119.87601099956106, 38.913748000179524], [-119.87777300007511, 38.91496199990212], [-119.87782099975568, 38.91499499991101], [-119.88724499992425, 38.921486999728195], [-119.88971000042008, 38.923198999887774], [-119.8971059999358, 38.92833599991463], [-119.89957200025654, 38.930048999720945], [-119.89977599957271, 38.93019100022685], [-119.90039099969097, 38.93061700003897], [-119.90059599973037, 38.93076000009622], [-119.90065099998199, 38.93079799969154], [-119.90081699966332, 38.93091299974044], [-119.90087299973979, 38.930951999939545], [-119.901560999653, 38.93142599983878], [-119.90362600011571, 38.93284900005671], [-119.90431499985381, 38.933323999809986], [-119.90441100011326, 38.93212999989626], [-119.90435099983881, 38.93111199976141], [-119.90445799996894, 38.93093100021131], [-119.90465499961243, 38.93060200016282], [-119.90481500034431, 38.92995499969222], [-119.90478100000912, 38.92965600017025], [-119.9048930001621, 38.92945400023328], [-119.90514699970703, 38.929049000017415], [-119.90534000005088, 38.9287329998633], [-119.90539899960213, 38.928336999938416], [-119.90522100022518, 38.9280869998428], [-119.90479699990266, 38.92783100007853], [-119.90417699976156, 38.927711999794376], [-119.90337199967253, 38.92754599978105], [-119.90256099973568, 38.92670999989706], [-119.90231800006144, 38.92590300023774], [-119.90220099988557, 38.92575000026993], [-119.9014839996601, 38.924809000232926], [-119.90027799971307, 38.92450200006275], [-119.90012999957506, 38.92437000014803], [-119.89958700032517, 38.92350899968199], [-119.89932600020926, 38.92300900022361], [-119.89919099959172, 38.92299300003737], [-119.8987939999317, 38.92301899981399], [-119.89839800009658, 38.92304500027999], [-119.89819200023226, 38.92299799983388], [-119.89786099979615, 38.92290200004535], [-119.89761300009903, 38.92277399965926], [-119.89735199998312, 38.92241200017846], [-119.89726400011955, 38.92167699997369], [-119.8972320003325, 38.92152399997775], [-119.89663999978048, 38.92102600006346], [-119.89546099959763, 38.920498000319725], [-119.89432400014589, 38.92005900011864], [-119.89347499967593, 38.919602000150704], [-119.89338500016257, 38.91952399983155], [-119.89289399989289, 38.91909600019213], [-119.89212599961378, 38.91841999977494], [-119.8915509996785, 38.91814199988722], [-119.89119699967617, 38.918231000060324], [-119.89085799974245, 38.91830499974228], [-119.89038599973937, 38.918565000279756], [-119.89019199957059, 38.91863300004816], [-119.88984900033725, 38.91875499996259], [-119.88962599985615, 38.91883500004467], [-119.88932499955729, 38.91885099977071], [-119.88913100028685, 38.91886200010445], [-119.8890149999359, 38.91853099967223], [-119.88899300019459, 38.91829699981814], [-119.88860200038235, 38.91838699996088], [-119.88823099976324, 38.918413000027435], [-119.88816999966386, 38.918399999995344], [-119.88764300030749, 38.918295000186426], [-119.88731000022156, 38.91794100018509], [-119.88715100021292, 38.91736000019531], [-119.88707500004492, 38.916884000296555], [-119.88635799981944, 38.916183999990224], [-119.88604300017518, 38.91547500002042], [-119.88583999978559, 38.91452999983255], [-119.88606499991647, 38.91306700004574], [-119.88584300015864, 38.91256799994726], [-119.88544899997332, 38.91216500030039], [-119.88533000014766, 38.91151199997814], [-119.88496600009958, 38.91114200032976], [-119.88466499980069, 38.91081199980958], [-119.88404200018485, 38.91017600018564], [-119.8837350000382, 38.90922499968206], [-119.88378899956658, 38.908278999853415], [-119.8836010001439, 38.90792500022144], [-119.8832789999286, 38.90768400024196], [-119.88317199979848, 38.907166999843355], [-119.88327300008085, 38.90560799986749], [-119.88326399985998, 38.90451800018411], [-119.88248600043345, 38.90393900010046], [-119.88209200024816, 38.90361000002216], [-119.88204799986724, 38.90321399969942], [-119.88219900037828, 38.90274499989909], [-119.88107899974666, 38.9019340001499], [-119.87986399957879, 38.89941900018604], [-119.88008799988481, 38.8991030002102], [-119.88048600026804, 38.898690000104054], [-119.88116400013546, 38.897119999748526], [-119.88155099974978, 38.89661700032725], [-119.88192999986644, 38.8963169996796], [-119.88310999987421, 38.895795000090104], [-119.88351099973221, 38.89566399970071], [-119.88365300002243, 38.89546099969265], [-119.8838050003584, 38.89517799971528], [-119.8840389998118, 38.89478899988992], [-119.88423200015566, 38.89449800022167], [-119.8844470002408, 38.89433500023004], [-119.88448800024868, 38.89420600025462], [-119.88433099988985, 38.89397999978162], [-119.88411400015488, 38.893828000018004], [-119.8836990000532, 38.89346999968506], [-119.88320100011082, 38.89303999991123], [-119.88135300028134, 38.89131099993885], [-119.88101000014969, 38.89085999997936], [-119.88037400011505, 38.888640999906684], [-119.88040000005432, 38.888091000080344], [-119.88016099967973, 38.88783400018404], [-119.8797360004306, 38.88740800015817], [-119.87951600032258, 38.887021000244324], [-119.87954300008674, 38.886535999767965], [-119.87987899964742, 38.88604200019261], [-119.88102500021832, 38.8850680003061], [-119.88185600024661, 38.883967999807844], [-119.88186999959198, 38.883950000011545], [-119.88235800038694, 38.88309899973564], [-119.88238599997602, 38.88271999986307], [-119.88234800034121, 38.88193600021596], [-119.8825390001369, 38.88128900011607], [-119.88281399959821, 38.880988999762074], [-119.88376799965015, 38.88046800011168], [-119.8847640004332, 38.880132999667595], [-119.8861729998715, 38.87992499999575], [-119.88774500041475, 38.879481999882465], [-119.88844400019859, 38.87930100012434], [-119.88880300022377, 38.87914599966753], [-119.88875999966776, 38.878976999993355], [-119.88858399994066, 38.878889000281106], [-119.88818200025776, 38.87873699969498], [-119.88721099958906, 38.87836999997616], [-119.88677700011911, 38.87824999995223], [-119.88617600024456, 38.87784099971794], [-119.88584399998354, 38.87747100014368], [-119.88572000013498, 38.87736699998455], [-119.88470300033384, 38.87651399978129], [-119.8840310003142, 38.876154000189516], [-119.8832360002709, 38.87588300028454], [-119.88263799987112, 38.875764000322306], [-119.88176699965982, 38.87578200009428], [-119.88169100039018, 38.87578400022407], [-119.88090600039263, 38.875504999756885], [-119.88022500015212, 38.8753620002634], [-119.8795389998888, 38.87532000007388], [-119.87935999978865, 38.875310000058406], [-119.87902900025085, 38.87520600023353], [-119.87864599993623, 38.87490600007446], [-119.8783709995766, 38.87445199992446], [-119.87789799974857, 38.87358100007639], [-119.87755100031727, 38.87240700020304], [-119.87724800036854, 38.87146899978156], [-119.87728699982831, 38.87019300011178], [-119.87768299966342, 38.86943700016813], [-119.87771100015081, 38.86938499982467], [-119.87774999961057, 38.86831100017655], [-119.87809100009243, 38.8679070002769], [-119.878503999646, 38.867431999854375], [-119.87855899989756, 38.86736800004218], [-119.87907100008366, 38.86679499971409], [-119.87949600023107, 38.86615500025941], [-119.87992100037853, 38.86548200001697], [-119.88030299996994, 38.86477600014818], [-119.8807440000109, 38.86440800015753], [-119.88111399990674, 38.864100999683046], [-119.88188200018588, 38.86362800018288], [-119.88320500030876, 38.86298500016218], [-119.8849119996729, 38.86200500025797], [-119.88683099964746, 38.86068799982661], [-119.88828199981687, 38.85984299973435], [-119.89020400016449, 38.859096000149314], [-119.89052499965653, 38.85872100010454], [-119.89101299955315, 38.85815300020477], [-119.8919089998788, 38.85734399986123], [-119.89348800009472, 38.85669899970962], [-119.89362000033921, 38.856688000238734], [-119.89524100038793, 38.856558000130434], [-119.89643899993905, 38.85672100004545], [-119.89792400044365, 38.8568410000402], [-119.89802200035292, 38.85684899989276], [-119.89909199985753, 38.85697900016861], [-119.8996059996934, 38.85721200029979], [-119.90076099958681, 38.857408000302314], [-119.90101699967985, 38.85720599974155], [-119.90195599966319, 38.8568999999809], [-119.90281000015604, 38.85659400030261], [-119.90358000008499, 38.85669200017373], [-119.90499000024649, 38.85638400032392], [-119.90631199964619, 38.85550500014909], [-119.90677899962641, 38.8546640000787], [-119.90690300037328, 38.85355600027783], [-119.90698299984092, 38.852179000067494], [-119.9069610000996, 38.851598000018654], [-119.90693500016033, 38.850870000077656], [-119.90726900007118, 38.84875300009853], [-119.90781899989209, 38.84740800012265], [-119.90807400016021, 38.84710500019096], [-119.90854100014043, 38.84613000004901], [-119.90862099960806, 38.84495399995904], [-119.90861800013333, 38.84398100004906], [-119.9086159995852, 38.84357800026801], [-119.90822999979581, 38.843209999729254], [-119.90818399976506, 38.84243800031629], [-119.90820999970433, 38.838342999982174], [-119.90828500004741, 38.83739399975967], [-119.90841300009392, 38.83579000017493], [-119.90849299956156, 38.834345999679904], [-119.90909000013644, 38.83394100000482], [-119.91049799974984, 38.83329700034061], [-119.91186299970552, 38.83268700017919], [-119.91327200004214, 38.83227900023025], [-119.91532200043626, 38.831699000002835], [-119.91758600019233, 38.83135400008719], [-119.9207470000989, 38.83077000002748], [-119.92215600043552, 38.830361000283204], [-119.92270999955609, 38.829955000317334], [-119.92309200004581, 38.82935000029839], [-119.92343099997954, 38.82857600022885], [-119.92325699990226, 38.82807299994335], [-119.92299699961127, 38.82723499975029], [-119.92299599978635, 38.82689899966836], [-119.92342000010888, 38.82619200026558], [-119.9237590000426, 38.825451999841384], [-119.92380000005046, 38.824948999878536], [-119.92362799962302, 38.82471400029047], [-119.92285400039445, 38.82371099997299], [-119.92139499982913, 38.82234099966409], [-119.92130699996555, 38.821737000153675], [-119.92186000015953, 38.82096199976753], [-119.92361000007969, 38.82045099983491], [-119.924216999802, 38.82013799983073], [-119.92578500014727, 38.81933399983782], [-119.9286370002574, 38.816769999929846], [-119.93093799982336, 38.81518199965694], [-119.93174600028544, 38.81413799977141], [-119.93150400043614, 38.81351100004991], [-119.9314969998651, 38.81320600020161], [-119.93149100001735, 38.81313099999294], [-119.93147699977361, 38.812937999858214], [-119.93144900018451, 38.812420000055674], [-119.93149900041324, 38.81223600032173], [-119.93152299980437, 38.81214400027655], [-119.93163900015533, 38.81206800008875], [-119.93176200017896, 38.81198899973386], [-119.93196399984532, 38.81187100021908], [-119.9325110001915, 38.81160799968952], [-119.93297700034681, 38.81119600034656], [-119.93340800034206, 38.810737999775256], [-119.93395999981279, 38.81008700029945], [-119.93448399969442, 38.809786999854595], [-119.93501000012421, 38.80930200033653], [-119.93535800027875, 38.80888899995087], [-119.93562500024242, 38.808374000342695], [-119.93577300038044, 38.807941999722075], [-119.9360660002834, 38.80727900015921], [-119.93673400010509, 38.80676800005407], [-119.93735300042127, 38.80640400027547], [-119.937756999754, 38.80619500022373], [-119.93826899994009, 38.805875999883746], [-119.9387700002555, 38.80550100006503], [-119.93918700000704, 38.805210000324095], [-119.93990500005742, 38.804550999904556], [-119.94046699957391, 38.80402899992428], [-119.94054199991697, 38.803706999952475], [-119.94064999987201, 38.80357800004037], [-119.94094799979784, 38.80339599993534], [-119.94157600033486, 38.80319800020091], [-119.94210799971411, 38.80310999983118], [-119.94251600014312, 38.8026339997023], [-119.94276100036551, 38.801970999749315], [-119.94311299981969, 38.80125400006391], [-119.9431479999798, 38.80047799969862], [-119.9431189996675, 38.79999799986884], [-119.94328799972186, 38.799739999683304], [-119.94343699968479, 38.79920599976717], [-119.94349100011148, 38.79859699994255], [-119.94337200028579, 38.79787600017393], [-119.94352999957121, 38.797544999719946], [-119.94358300017298, 38.797119999746734], [-119.94371500041744, 38.79695500029321], [-119.94390500038824, 38.79688299980093], [-119.94397599963507, 38.796829000084124], [-119.94394200019816, 38.79671700002245], [-119.9437539998772, 38.796641000180394], [-119.94323699966824, 38.79653499989683], [-119.9423529999365, 38.79642600011457], [-119.94155399969526, 38.79617900002323], [-119.94097999958487, 38.79596199969011], [-119.94033500022775, 38.79561499998165], [-119.93995000026327, 38.79531600000773], [-119.93964899996438, 38.794906999674495], [-119.9395850003903, 38.79437100033387], [-119.93977299981294, 38.79355999992258], [-119.9403109999383, 38.79305600034804], [-119.94090500014016, 38.792710000327475], [-119.94122800018035, 38.7924639997972], [-119.94141999980096, 38.79222500009411], [-119.94216700016366, 38.79107700028269], [-119.94256999967149, 38.79008299983984], [-119.9427689998631, 38.789393999703194], [-119.94311700001766, 38.78893499984215], [-119.94346199979915, 38.78879000019933], [-119.94410200003176, 38.78856499995231], [-119.94483799962549, 38.78823799995185], [-119.94538499997167, 38.78796500002321], [-119.94577099976104, 38.78768700023473], [-119.9458030004464, 38.78766299975888], [-119.94584199990618, 38.78759900031763], [-119.94620000010644, 38.787030000045895], [-119.94637300035882, 38.78687099982888], [-119.94647499956774, 38.78677800002643], [-119.9466190004061, 38.7866459998274], [-119.94689399986741, 38.78639900015659], [-119.94709999973172, 38.78604000029712], [-119.94727100033425, 38.78561700021051], [-119.94765499957552, 38.78515799983999], [-119.94784700009446, 38.78486399983055], [-119.94782899965277, 38.784466999825625], [-119.94772099969776, 38.78375500029969], [-119.94777799959915, 38.782212999915], [-119.94781899960704, 38.78179800011784], [-119.94792699956207, 38.78164200010106], [-119.94805799998163, 38.78158800004267], [-119.94860199995478, 38.781445000144394], [-119.94946499977013, 38.78132299979879], [-119.95041200014937, 38.78114600025797], [-119.9508509996422, 38.780927999681715], [-119.95144400001914, 38.78076699986262], [-119.95254500038416, 38.78048099998791], [-119.95338999975789, 38.77991499967055], [-119.95456999976562, 38.77905699965997], [-119.95521300037127, 38.77866599971468], [-119.95611100034674, 38.778525000322546], [-119.95733800021014, 38.778563000106665], [-119.95803399962094, 38.77856900029192], [-119.95888200026597, 38.778696999921145], [-119.95923500044339, 38.778717999827435], [-119.9594610003992, 38.778655000090005], [-119.95962899973038, 38.778389000118224], [-119.96014599993934, 38.77771000015158], [-119.96082499963167, 38.77720799997306], [-119.96131300042661, 38.77693499983097], [-119.96211900034058, 38.776627000122026], [-119.9637400003893, 38.7762900000695], [-119.96494799998615, 38.775985999944375], [-119.9739200002431, 38.769898000073006], [-119.9740359996957, 38.76981899989585], [-119.9741460001989, 38.76974499970373], [-119.97735899998402, 38.76755699990224], [-119.97755599962751, 38.76742300017106], [-119.97775399999423, 38.76728799999919], [-119.9939579997354, 38.75625799973749], [-119.99407900010922, 38.75617600023594], [-120.00101500021574, 38.7515490000776], [-120.00348099963817, 38.74990599965079], [-120.00507200044797, 38.748605999875046], [-120.00508999999131, 38.74860399967389], [-120.00548500000153, 38.74831400004332], [-120.00672699993356, 38.74744399968846], [-120.00714200003524, 38.74715400025025], [-120.00734500042485, 38.747010999984894], [-120.00737999968663, 38.74698699983391], [-120.00796999969052, 38.746602000045655], [-120.0081789999279, 38.74646699971923], [-120.0082569997457, 38.746415999700794], [-120.01102299964208, 38.74453600008402], [-120.01955399985808, 38.73874099987659], [-120.02231599955648, 38.73686499965246], [-120.02239799957226, 38.73680900020608], [-120.02445700018723, 38.73540200023178], [-120.03063699971017, 38.731182000086974], [-120.03269700015007, 38.7297760000087], [-120.03574699972854, 38.727692000246385], [-120.0449009995604, 38.72144299966368], [-120.04795199986215, 38.7193600002126], [-120.06139399990487, 38.710259000235276], [-120.0676200003569, 38.70601499991901], [-120.07093799972404, 38.70375700017903], [-120.07120399986282, 38.70357600023531], [-120.07239200026648, 38.7027669997786], [-120.07239100044156, 38.70267500012456], [-120.07238899989343, 38.70241600018849], [-120.07238200022074, 38.701390999792935], [-120.07238200022074, 38.7012819997689], [-120.07247599993207, 38.70128100005734], [-120.07287799961496, 38.70128100005734], [-120.07301400005743, 38.70128100005734], [-120.07323599981525, 38.70114700002344], [-120.07333100024981, 38.7010900002102]]]}, "properties": {"GEOID": "06003", "NAME": "Alpine County"}}]}