{"type": "FeatureCollection", "features": [{"type": "Feature", "geometry": {"type": "Polygon", "coordinates": [[[-120.88250700041027, 41.18400999976117], [-120.88264100030456, 41.18400999976117], [-120.90740700022384, 41.18408100001463], [-120.9078459997167, 41.18408199992243], [-120.90786300033344, 41.18408199992243], [-120.90872299977576, 41.184083999737986], [-120.92231700015444, 41.18412099969499], [-120.92804099956783, 41.184137000236376], [-120.92848300033201, 41.18413900005025], [-120.9307219999737, 41.18414400026076], [-120.93075799995873, 41.18414400026076], [-120.93391399984246, 41.18415400000448], [-120.9349370003897, 41.18415699972449], [-120.93619699986507, 41.18416000012045], [-120.93664700012687, 41.18416100002704], [-120.93765899990515, 41.18416399974674], [-120.93790099975449, 41.184165000329344], [-120.93875400042239, 41.18416800004879], [-120.94410899976486, 41.18418200009018], [-120.94431200015445, 41.18418299999643], [-120.94439199962207, 41.18418299999643], [-120.94586100023315, 41.18418700029734], [-120.94711900005872, 41.184190999921974], [-120.95042999975314, 41.18419999975259], [-120.95056399964744, 41.18419999975259], [-120.958557999563, 41.184223000290565], [-120.96036799975761, 41.184224000196195], [-120.96398399994887, 41.18423700032014], [-120.97088800026835, 41.184255999872576], [-120.97140899977693, 41.18425699977771], [-120.97145200033293, 41.18425799968282], [-120.97661000003191, 41.18427300028587], [-120.97777999999394, 41.18427600000043], [-120.97888600038185, 41.18427899971485], [-120.98018699986513, 41.18428200010522], [-120.98021500035252, 41.18428399991461], [-120.9806859996324, 41.18428399991461], [-120.98119000032088, 41.18428499981932], [-120.98210900021274, 41.18428900011404], [-120.98287699959353, 41.18429199982787], [-120.9829229996243, 41.18429199982787], [-120.98301399986089, 41.18429299973244], [-120.98308900020395, 41.18429299973244], [-120.98316299982379, 41.18429299973244], [-120.98341899991684, 41.18429400031309], [-120.99008300003676, 41.184310000136136], [-120.99447400017985, 41.18432199966279], [-120.99455500037072, 41.18432199966279], [-120.99565199963946, 41.18432500005119], [-120.99567299955588, 41.18432500005119], [-120.99598200025068, 41.18432500005119], [-120.99618999976482, 41.18432599995526], [-120.99648600004085, 41.18432699985932], [-120.99668500023246, 41.18432799976337], [-121.00085500044258, 41.18433999996281], [-121.00690600009413, 41.18434999967666], [-121.02855499958945, 41.18436399967907], [-121.03476799962269, 41.18436799996893], [-121.03701600038353, 41.18436999977575], [-121.04036800008583, 41.18437200025859], [-121.04146400042801, 41.18437300016194], [-121.05042400009106, 41.18437900025785], [-121.05610099964879, 41.184376999775225], [-121.06303099990754, 41.18439899967204], [-121.06308699998404, 41.1843860002563], [-121.06615699965403, 41.18438999986878], [-121.06632499988353, 41.18438999986878], [-121.0665910000223, 41.18438999986878], [-121.06820399967512, 41.184388999965684], [-121.06864399989118, 41.184388999965684], [-121.06902800003074, 41.184388999965684], [-121.06958600024754, 41.184388999965684], [-121.0724900002362, 41.184388000062576], [-121.07278899998693, 41.184388000062576], [-121.07427799979116, 41.18438700015945], [-121.0760670000694, 41.184388000062576], [-121.07940799990105, 41.184388999965684], [-121.08369399956383, 41.184388999965684], [-121.08482000004322, 41.184388000062576], [-121.0851000004257, 41.184388000062576], [-121.08541599989488, 41.184388000062576], [-121.08584400041538, 41.184388000062576], [-121.0863239999161, 41.184388999965684], [-121.0949980002472, 41.18438399977389], [-121.09592200016193, 41.18438399977389], [-121.09918500017578, 41.18438299987069], [-121.10242600044833, 41.184388999965684], [-121.10491600016019, 41.184388999965684], [-121.11079899958223, 41.184388999965684], [-121.11094099987245, 41.184388999965684], [-121.12603699957586, 41.18437200025859], [-121.13285899987957, 41.18437900025785], [-121.13303999962953, 41.18436799996893], [-121.13305800007122, 41.18437900025785], [-121.13312099982038, 41.18437900025785], [-121.1331979998133, 41.18437900025785], [-121.13321299988189, 41.18437900025785], [-121.13328499985192, 41.18437900025785], [-121.13336900041583, 41.18436999977575], [-121.13339299980696, 41.18437900025785], [-121.13860400010768, 41.18438499967706], [-121.15307600037033, 41.18439899967204], [-121.15395699972903, 41.184402999959765], [-121.15407800010288, 41.18439599996312], [-121.15421299982208, 41.18439500006012], [-121.15429400001292, 41.18439400015709], [-121.15576600009875, 41.18438399977389], [-121.15587700042683, 41.18438299987069], [-121.1559529996965, 41.1843860002563], [-121.15602800003958, 41.184388000062576], [-121.15697600024376, 41.184418999756176], [-121.15709000004655, 41.18442300004272], [-121.15722200029103, 41.18442300004272], [-121.15816899977197, 41.184418999756176], [-121.15818200019079, 41.184422000140124], [-121.1582619996584, 41.1844259997504], [-121.15833399962841, 41.1844259997504], [-121.15846500004797, 41.1844259997504], [-121.15930100009919, 41.18443000003647], [-121.15944800041227, 41.1844259997504], [-121.15959499982702, 41.184422000140124], [-121.15983000000367, 41.184418999756176], [-121.16006600000522, 41.18441600004817], [-121.16010700001311, 41.18441600004817], [-121.16241500015009, 41.184388000062576], [-121.1624500003102, 41.184388000062576], [-121.162484999572, 41.184388000062576], [-121.16422299979656, 41.184388999965684], [-121.16773500023078, 41.18439099977187], [-121.16864099970384, 41.18439099977187], [-121.16873000029058, 41.18439099977187], [-121.17070399961844, 41.18439199967493], [-121.19323500009398, 41.184403999862646], [-121.1957080000874, 41.18440499976552], [-121.19572700035397, 41.18440499976552], [-121.19574300024748, 41.18440499976552], [-121.19751599973387, 41.184405999668364], [-121.19860500040335, 41.18440700024728], [-121.19911099984333, 41.18440700024728], [-121.19933099995134, 41.18440700024728], [-121.20985399993683, 41.18441400024275], [-121.209880999701, 41.184420000334896], [-121.21009300031142, 41.18441600004817], [-121.2103319997877, 41.184417999853515], [-121.21048499994858, 41.184418999756176], [-121.21059999957629, 41.184420000334896], [-121.21087999995879, 41.18442100023751], [-121.2109589996015, 41.184422000140124], [-121.21099499958653, 41.184422000140124], [-121.21102200024902, 41.1845139999035], [-121.22810300004923, 41.18442399994529], [-121.25415500028147, 41.1843819999675], [-121.26258900041309, 41.18423499983317], [-121.26330200044062, 41.184223000290565], [-121.26332199963377, 41.184226999913], [-121.2636949999027, 41.18421600027463], [-121.26375699982697, 41.18421399978708], [-121.26387300017791, 41.184211999975496], [-121.26393500010218, 41.18421100006969], [-121.266204999706, 41.18416999986173], [-121.2680059996798, 41.18413800014332], [-121.26908600012845, 41.18411899988056], [-121.26927799974908, 41.18411600015886], [-121.26940900016864, 41.1841139996682], [-121.26957499985, 41.18411099994623], [-121.26985100003454, 41.1841059997332], [-121.27185899969756, 41.184071000259706], [-121.27283100019115, 41.18405399979398], [-121.28560200003913, 41.1838299996878], [-121.28610900020236, 41.183820999806336], [-121.28815100020056, 41.183786000180525], [-121.28849400033224, 41.183787000092835], [-121.2885079996776, 41.183787000092835], [-121.28859600043948, 41.183787000092835], [-121.2895139996081, 41.18378899991739], [-121.30990500017614, 41.18383499992186], [-121.31010099999473, 41.18383499992186], [-121.32061300010956, 41.18386100032164], [-121.32075799987452, 41.18386100032164], [-121.32263500001628, 41.183865999877234], [-121.32995000023948, 41.1838840003026], [-121.32998299985142, 41.1838840003026], [-121.32999700009513, 41.1838840003026], [-121.3308330001463, 41.1838840003026], [-121.33129799957841, 41.18388799994574], [-121.33157499958783, 41.1838860001242], [-121.33178600037334, 41.1838860001242], [-121.33179100039621, 41.18200099986851], [-121.33179100039621, 41.179137000128165], [-121.331789999673, 41.1758480002197], [-121.33179100039621, 41.173955000042504], [-121.33179100039621, 41.17265299983831], [-121.33179100039621, 41.171692000267704], [-121.33179100039621, 41.17167999977941], [-121.33179499969587, 41.1711579997379], [-121.33179499969587, 41.17113700023216], [-121.33179499969587, 41.17111600004347], [-121.33179499969587, 41.17109399974191], [-121.33179499969587, 41.17107200010924], [-121.33179499969587, 41.1710489996862], [-121.33179499969587, 41.17102599993131], [-121.33179499969587, 41.17100200006086], [-121.33179499969587, 41.17097800018156], [-121.33179499969587, 41.17095400029353], [-121.33179499969587, 41.170929000288105], [-121.33179499969587, 41.17090400027315], [-121.33179499969587, 41.17087900024864], [-121.33179499969587, 41.170854000214604], [-121.33179499969587, 41.17082800006084], [-121.33179499969587, 41.1708019998968], [-121.33179499969587, 41.17077599972245], [-121.33179499969587, 41.17075000021399], [-121.33179499969587, 41.17072400001896], [-121.33179499969587, 41.17069799981365], [-121.33179499969587, 41.17067200027424], [-121.33179499969587, 41.1706460000483], [-121.33179499969587, 41.17061999981203], [-121.33179499969587, 41.17059400024162], [-121.33179499969587, 41.17056900009883], [-121.33179499969587, 41.170543999946496], [-121.33179499969587, 41.17051899978462], [-121.33179499969587, 41.17049400028938], [-121.33179499969587, 41.17047000022406], [-121.33179499969587, 41.17044600014992], [-121.33179499969587, 41.170422000067006], [-121.33179499969587, 41.17039900009195], [-121.33179499969587, 41.17037600010886], [-121.33179499969587, 41.170354000235086], [-121.33179499969587, 41.170331999677714], [-121.33179499969587, 41.17031099990715], [-121.33179499969587, 41.170290000129924], [-121.33179499969587, 41.1702699997884], [-121.33179499969587, 41.17025000011701], [-121.33179499969587, 41.17023099988254], [-121.33179499969587, 41.17021200031874], [-121.33179499969587, 41.17019400019309], [-121.33179499969587, 41.17017600006249], [-121.33179499969587, 41.170159000047306], [-121.33179499969587, 41.17014200002772], [-121.33179499969587, 41.17012600012453], [-121.33179499969587, 41.17011000021749], [-121.33179499969587, 41.17009499975166], [-121.33179499969587, 41.17007999995862], [-121.33179499969587, 41.170066000283924], [-121.33180599956653, 41.16976400000372], [-121.33181999981021, 41.167641999722235], [-121.331797000244, 41.16565599985463], [-121.331797000244, 41.16564199991093], [-121.331797000244, 41.1656279999642], [-121.331797000244, 41.165615000204255], [-121.331797000244, 41.16560199976545], [-121.331797000244, 41.1655900001904], [-121.331797000244, 41.1655790001272], [-121.331797000244, 41.16556800006211], [-121.331797000244, 41.16555699999522], [-121.331797000244, 41.1655470001172], [-121.331797000244, 41.165537000237705], [-121.331789999673, 41.1650710002373], [-121.33179399987095, 41.16505599997038], [-121.331789999673, 41.15962199989113], [-121.33181599961226, 41.15616499984763], [-121.33181300013753, 41.15478099989196], [-121.33181200031264, 41.15424199973902], [-121.33180599956653, 41.152699999714656], [-121.33179800006891, 41.14924800004759], [-121.33179200022113, 41.14634700022874], [-121.33179100039621, 41.146041000305715], [-121.33178899984807, 41.14572299980112], [-121.331789999673, 41.1454820002124], [-121.33180100044197, 41.14056399985326], [-121.33180599956653, 41.138340999713805], [-121.33180599956653, 41.138315000192186], [-121.33178899984807, 41.132352999884475], [-121.33177299995455, 41.12655400010424], [-121.33177299995455, 41.126533999950595], [-121.33177399977947, 41.12642400001133], [-121.33177399977947, 41.12641099992021], [-121.33177499960436, 41.12637700019022], [-121.33177499960436, 41.1263650002017], [-121.33177600032761, 41.1262920001115], [-121.33178100035047, 41.12586800021577], [-121.33178800002318, 41.12493200011776], [-121.33179600041908, 41.12220999980955], [-121.331797000244, 41.12070500033208], [-121.331797000244, 41.12056399998389], [-121.331797000244, 41.12053299985713], [-121.33179499969587, 41.117654999732046], [-121.33179499969587, 41.11764199993404], [-121.331797000244, 41.11748900019188], [-121.33179499969587, 41.11683400014821], [-121.33179499969587, 41.115558000017934], [-121.33179399987095, 41.11494700006864], [-121.33179399987095, 41.114806999821084], [-121.33179399987095, 41.11442099984479], [-121.33179300004605, 41.113393000278826], [-121.33179300004605, 41.113292000064625], [-121.33179399987095, 41.1132620001989], [-121.33179499969587, 41.11324000010815], [-121.33179499969587, 41.11322599980048], [-121.33179499969587, 41.113210999854225], [-121.33179499969587, 41.11319599990459], [-121.33179600041908, 41.11312600031977], [-121.33179600041908, 41.11298299997882], [-121.33179399987095, 41.109729999874084], [-121.33179399987095, 41.10788199979411], [-121.33179100039621, 41.10118699972651], [-121.33178700019826, 41.098370999923], [-121.3317839998252, 41.09787600027167], [-121.3317839998252, 41.09785700004929], [-121.3317820001754, 41.09754500013715], [-121.33173299977157, 41.09354999990762], [-121.33168599991592, 41.08944300016554], [-121.33161700031896, 41.08365199972578], [-121.33158700018173, 41.08125500016954], [-121.3315789997858, 41.080537000058534], [-121.3315169998615, 41.073565000214046], [-121.33151299966356, 41.0728779996887], [-121.33146400015805, 41.07168500005476], [-121.33146300033313, 41.071632000071176], [-121.33142800017308, 41.07075699978915], [-121.33143499984577, 41.07022500012867], [-121.331432000371, 41.06988799979071], [-121.33143700039389, 41.06961499996872], [-121.33142300015018, 41.067779999792954], [-121.3314380002188, 41.06622899983366], [-121.3314449998915, 41.06595399968768], [-121.33144700043964, 41.06587300002143], [-121.33127800038523, 41.05548999980439], [-121.331276999662, 41.05546600033499], [-121.331276999662, 41.05545199990664], [-121.331276999662, 41.05543899999006], [-121.33127599983709, 41.05537299985293], [-121.3312750000122, 41.05528899982888], [-121.33116299985919, 41.04835000014944], [-121.3311929999964, 41.047473999731814], [-121.33120499969199, 41.04707400024732], [-121.33114500031584, 41.04558399970534], [-121.33114000029295, 41.04549900006677], [-121.33113899956975, 41.04541600029779], [-121.33109000006424, 41.04209700029771], [-121.33103800018573, 41.03802099987112], [-121.33099100033004, 41.034304000071394], [-121.33098799995699, 41.03408599971042], [-121.33100700022358, 41.029810999822416], [-121.3310230001171, 41.0167240001844], [-121.33104700040656, 41.01410299980126], [-121.33105400007923, 41.01324600006508], [-121.33105400007923, 41.01323200014454], [-121.33107900019358, 41.01047200011415], [-121.33110400030795, 41.00770800016535], [-121.33111799965334, 41.00475099985514], [-121.33111900037659, 41.00434699999723], [-121.33111900037659, 41.004275999786465], [-121.33111900037659, 41.004165999881785], [-121.33112000020148, 41.00396199994227], [-121.33112699987419, 41.001759999919855], [-121.33117200008003, 40.99406900028622], [-121.33118100030084, 40.99400200022212], [-121.33118100030084, 40.99391199996811], [-121.33119999966911, 40.98994400018001], [-121.33121100043809, 40.98877699987619], [-121.33123999985209, 40.98583599996309], [-121.33128800043096, 40.97938600025624], [-121.33128000003506, 40.97826899990838], [-121.33122999980633, 40.97506800014905], [-121.3312189999357, 40.97193300012727], [-121.3312189999357, 40.97189200023158], [-121.33118200012575, 40.965440999843985], [-121.33118200012575, 40.96541600026341], [-121.33118200012575, 40.96536400002009], [-121.33115399963835, 40.960496000226904], [-121.33113299972196, 40.95537200009886], [-121.33113199989704, 40.95525900001209], [-121.33111000015575, 40.95352100009328], [-121.33110900033083, 40.95349199995482], [-121.33110900033083, 40.95347100003377], [-121.3311009999349, 40.95284900027945], [-121.33104800023145, 40.95229900008482], [-121.33105599972907, 40.95204800015845], [-121.33109799956188, 40.95155399994081], [-121.33105699955398, 40.94682600000971], [-121.331064000125, 40.94680100016369], [-121.33105999992702, 40.94631099991316], [-121.33105400007923, 40.94566800019172], [-121.33099100033004, 40.9385900000032], [-121.33098999960684, 40.93841599967236], [-121.33097299988839, 40.934572000337], [-121.33109699973696, 40.92739800031836], [-121.3311009999349, 40.92715700029044], [-121.33110699978269, 40.92672999975277], [-121.33113199989704, 40.92493899969232], [-121.33113799974483, 40.92449899978846], [-121.33118600032373, 40.92099399997066], [-121.33120800006503, 40.920768000060725], [-121.33121399991283, 40.920698000004], [-121.33125400009578, 40.920242999864385], [-121.33178499965013, 40.91475999974093], [-121.33178800002318, 40.91473100023254], [-121.33178899984807, 40.91472000025187], [-121.331797000244, 40.91463400021627], [-121.33192100009256, 40.91335799991583], [-121.33233799984407, 40.90539400020476], [-121.33120200021725, 40.905436000058494], [-121.32339800027252, 40.90575500009771], [-121.31997600025001, 40.905885999921374], [-121.3201109999692, 40.90290599984839], [-121.32017600026654, 40.90161600014317], [-121.32017700009145, 40.90159700029532], [-121.32017799991637, 40.901538999904005], [-121.32018600031226, 40.90138800025053], [-121.32028900024443, 40.89933100030981], [-121.32029699974206, 40.899168999837755], [-121.32031600000863, 40.898783999798034], [-121.32038899980357, 40.897223000169426], [-121.3208080001032, 40.89441800030768], [-121.32081700032404, 40.894359999732835], [-121.32081999979879, 40.89434099983787], [-121.32086199963157, 40.89405900014773], [-121.32118600039499, 40.88870200004966], [-121.32117999964889, 40.88801499996094], [-121.32117899982399, 40.88791400013538], [-121.32117899982399, 40.88790099976336], [-121.32117899982399, 40.88787299968476], [-121.32117899982399, 40.887849000287105], [-121.32117799999904, 40.88782199985076], [-121.32117600034925, 40.88763200021645], [-121.32112899959525, 40.88263400027164], [-121.32118600039499, 40.87931300024298], [-121.32118600039499, 40.87928499992688], [-121.32118700021991, 40.87925899986528], [-121.32118700021991, 40.87924800009736], [-121.32118700021991, 40.87923800012158], [-121.32119700026563, 40.878690999889734], [-121.32120399993833, 40.87806700018156], [-121.32119700026563, 40.87795500013375], [-121.32116700012841, 40.87717300025646], [-121.32108599993754, 40.87461500023917], [-121.32109199978532, 40.87418100022567], [-121.32119999974036, 40.866091999843896], [-121.32119700026563, 40.865416000151754], [-121.32119700026563, 40.86539000007808], [-121.32119300006768, 40.86169900016972], [-121.32119300006768, 40.86164899993022], [-121.32119100041785, 40.85992200031402], [-121.32118700021991, 40.85845399971151], [-121.32117200015128, 40.846467999870924], [-121.32117100032636, 40.84606600015494], [-121.32116600030349, 40.83921000031476], [-121.32116200010555, 40.83274200001458], [-121.32099200022624, 40.82620200021322], [-121.32099300005113, 40.825342999871175], [-121.32099999972382, 40.8192529999144], [-121.32099999972382, 40.81906600007239], [-121.3210189999904, 40.803440000108885], [-121.32104199955661, 40.786541000328064], [-121.32104199955661, 40.7864840003348], [-121.32104099973172, 40.78622000030058], [-121.32104099973172, 40.786202999664695], [-121.32104099973172, 40.78617000025834], [-121.32104099973172, 40.7860279999875], [-121.32103300023411, 40.78558400011327], [-121.32103999990682, 40.785571000063], [-121.32104499992967, 40.78252399981881], [-121.32104699957951, 40.78120799988373], [-121.32104699957951, 40.78108000005347], [-121.32104699957951, 40.78091900000171], [-121.32104699957951, 40.78072899984842], [-121.32104699957951, 40.7805209998594], [-121.32104800030272, 40.78049000019769], [-121.32104800030272, 40.78045999976529], [-121.32104800030272, 40.78040499984424], [-121.32104800030272, 40.780311999973115], [-121.32104999995256, 40.77950400029388], [-121.32104999995256, 40.779475999973926], [-121.32104800030272, 40.77929300004559], [-121.32104699957951, 40.77927299985188], [-121.32104699957951, 40.77925500021657], [-121.32104699957951, 40.7792190002511], [-121.32104699957951, 40.77918600009559], [-121.32104699957951, 40.7791580003218], [-121.32104699957951, 40.77913600019971], [-121.32104699957951, 40.77907300030453], [-121.32104599975459, 40.77899900026495], [-121.32104599975459, 40.77896500005366], [-121.32104599975459, 40.77894499976119], [-121.32104599975459, 40.778932999718855], [-121.32106900021911, 40.77639800017062], [-121.32106400019624, 40.77378199991553], [-121.32106099982319, 40.77216299976406], [-121.32105800034846, 40.770544000300845], [-121.32106199964811, 40.767546999744546], [-121.32106599984606, 40.764550000097195], [-121.32107000004403, 40.76153299992769], [-121.32107099986895, 40.759770999885326], [-121.32107199969386, 40.759597999774684], [-121.32107400024198, 40.7585160002594], [-121.32107400024198, 40.758284000076436], [-121.32107599989182, 40.7567349999646], [-121.32108599993754, 40.751713000197796], [-121.32108799958738, 40.750821999769954], [-121.32108799958738, 40.75080800003305], [-121.32109000013551, 40.749970000301346], [-121.32119200024276, 40.737030000086285], [-121.32119600044072, 40.73701500027163], [-121.32119600044072, 40.736984999951495], [-121.32119600044072, 40.736966999752894], [-121.32119700026563, 40.73694200026314], [-121.32119700026563, 40.73691299980862], [-121.32139599955896, 40.71157999983372], [-121.32143999993988, 40.70903299991641], [-121.32143999993988, 40.70898900023358], [-121.321470999902, 40.70556199990314], [-121.32160800016939, 40.689670000046796], [-121.3216099998192, 40.68949099991011], [-121.32158399987992, 40.68648500007561], [-121.32180800018592, 40.66675299998413], [-121.32180800018592, 40.666719999893445], [-121.32180900001083, 40.66665699979892], [-121.32191000029317, 40.65495700004447], [-121.32191100011809, 40.65483700003619], [-121.32216499966299, 40.629187999912645], [-121.32221800026475, 40.62578399991554], [-121.32227900036409, 40.621899000317], [-121.32228100001394, 40.621787000251466], [-121.32288000023864, 40.58491600017605], [-121.32288400043659, 40.58468400032068], [-121.32284099988058, 40.56611800009084], [-121.32283900023077, 40.565192000025526], [-121.32283699968264, 40.564226000180746], [-121.32283199965974, 40.56199199997175], [-121.32280599972047, 40.55066299997824], [-121.32280599972047, 40.5504680002088], [-121.32279300020001, 40.54479900016008], [-121.32279099965187, 40.544160000028256], [-121.32279099965187, 40.544039000233404], [-121.32279099965187, 40.54400799969228], [-121.32279099965187, 40.543987999820025], [-121.32279099965187, 40.54395100024532], [-121.32279099965187, 40.543937000050406], [-121.32278900000206, 40.54125100008672], [-121.32278900000206, 40.540966000193684], [-121.32278499980409, 40.54087200029605], [-121.32283000000996, 40.53146399993347], [-121.32283199965974, 40.53104200004019], [-121.32288299971337, 40.52055500015437], [-121.32292500044449, 40.51183799968497], [-121.32294299998783, 40.50811899982906], [-121.32295300003359, 40.50725200016054], [-121.32296300007933, 40.50638500021224], [-121.32296499972915, 40.50620399985825], [-121.32300200043738, 40.50313400031048], [-121.32304000007221, 40.49988399998347], [-121.32297999979775, 40.49758899980031], [-121.3266799996546, 40.497574000094446], [-121.32676800041648, 40.49081800020187], [-121.32683100016567, 40.485978999770126], [-121.32683100016567, 40.485962999957174], [-121.32690099958754, 40.48123999973612], [-121.32693699957257, 40.479083999956096], [-121.32696800043301, 40.477741999664836], [-121.32699000017433, 40.47676500011274], [-121.32699000017433, 40.47673500027152], [-121.3269879996262, 40.47663500024834], [-121.32699299964905, 40.47639799978999], [-121.32699600002209, 40.476260999907545], [-121.32700299969478, 40.47596399982088], [-121.32700400041801, 40.47590999972613], [-121.32700900044091, 40.47559299967323], [-121.32701500028868, 40.475289999676626], [-121.32701500028868, 40.47526499983008], [-121.3270379998549, 40.47420199992961], [-121.3270379998549, 40.47418099999219], [-121.32705600029655, 40.473375999945844], [-121.32708899990853, 40.47094100019013], [-121.32709800012934, 40.47028300033325], [-121.32711900004574, 40.46949200005594], [-121.32711999987066, 40.46945300006737], [-121.32711999987066, 40.46944299994401], [-121.32712099969558, 40.46939200018002], [-121.32712300024372, 40.46933299985533], [-121.32712300024372, 40.46932100009573], [-121.32721799977996, 40.46580599990393], [-121.32724399971922, 40.463769000243765], [-121.32724399971922, 40.463752999921724], [-121.32724399971922, 40.46373300002638], [-121.32726600035886, 40.4619959997626], [-121.32734300035176, 40.46013700024934], [-121.32734400017665, 40.46011799990711], [-121.32740500027602, 40.45864899998705], [-121.32741100012382, 40.45840699975913], [-121.3274179997965, 40.458165000026504], [-121.3274179997965, 40.458150999687675], [-121.32747300004809, 40.45616199986885], [-121.327473999873, 40.45612799968726], [-121.32747600042113, 40.45606199996909], [-121.32747800007095, 40.45600200023124], [-121.32759799972156, 40.4517350003391], [-121.32760199991951, 40.45161199969948], [-121.3278260002255, 40.445366999977736], [-121.3233970004476, 40.445318000042356], [-121.32098700020337, 40.44529199981102], [-121.32001499970974, 40.44528200019264], [-121.3181250000475, 40.44525899976584], [-121.31623700003507, 40.44524000000184], [-121.3154710003041, 40.44522900020791], [-121.31470800004789, 40.44522000006446], [-121.31451899990198, 40.445216000076314], [-121.30835299972439, 40.4450910001548], [-121.29898399980742, 40.44552500000036], [-121.29518600004128, 40.44567899969097], [-121.29273899998712, 40.445777999842875], [-121.28746800031027, 40.445732000004504], [-121.2872890002101, 40.44572999968388], [-121.28711000010995, 40.44572900020716], [-121.28665700037345, 40.44572599972603], [-121.28620499956352, 40.445722999928414], [-121.28577399956828, 40.445717999809666], [-121.28534199974814, 40.44571200021359], [-121.28506999976156, 40.4457099998923], [-121.28479799977502, 40.445707000093975], [-121.25141799979909, 40.44601599981171], [-121.25107800004045, 40.4460190002799], [-121.25043500033314, 40.44603100010036], [-121.2502210000729, 40.446032999728395], [-121.2500090003608, 40.44603699966797], [-121.24991700029929, 40.44603600019582], [-121.24982600006268, 40.44603600019582], [-121.2139560003749, 40.44604900016887], [-121.21367599999242, 40.44605199995194], [-121.21349699989227, 40.44605800020132], [-121.2133179997921, 40.446064999921845], [-121.20796299955137, 40.44619000008286], [-121.202607000384, 40.44631500001146], [-121.19896000023058, 40.44644999983723], [-121.19516800031222, 40.44648199983214], [-121.18553800027934, 40.446312000240084], [-121.18512900002541, 40.44630399970983], [-121.18472399996946, 40.44629900031795], [-121.17549499979458, 40.44613099988819], [-121.15638899971458, 40.446046999857614], [-121.15114599962683, 40.44606200013936], [-121.14684599972033, 40.44605800020132], [-121.14343799994153, 40.446076999734096], [-121.13963799962725, 40.44609899972617], [-121.13960800038834, 40.44609899972617], [-121.13726099989329, 40.446116999776415], [-121.13114499994442, 40.44635399976108], [-121.12603999994892, 40.44653900010583], [-121.12373000016211, 40.44649999977987], [-121.11957699967041, 40.44651399981181], [-121.10066999978207, 40.44661400024832], [-121.08907100044419, 40.44667400016531], [-121.08867399988588, 40.44668599986884], [-121.08121899992057, 40.446675999774214], [-121.08060600035047, 40.446675000311615], [-121.08016500030952, 40.446675000311615], [-121.0797130003979, 40.446665000215354], [-121.07377099962798, 40.44659199974118], [-121.07360499994662, 40.44659199974118], [-121.07254399976458, 40.44659699979495], [-121.07232000035687, 40.44663799967465], [-121.07223300031826, 40.44667199987272], [-121.07218200026465, 40.4466849997227], [-121.07207799960925, 40.44669899971612], [-121.07197600040031, 40.44669800025386], [-121.07166500005569, 40.446676999920484], [-121.07132600012196, 40.446631000013745], [-121.07120599957305, 40.446615999859006], [-121.0709620000739, 40.44658600022311], [-121.07086699963934, 40.44658299978023], [-121.07079899986728, 40.446581000168564], [-121.0701390004415, 40.44659600033113], [-121.0697450002562, 40.446615999859006], [-121.06895299968765, 40.44660599975401], [-121.06849999995111, 40.44655400027771], [-121.06141700042981, 40.44653599966086], [-121.06129000020822, 40.43577900023695], [-121.06127500013959, 40.434405999699436], [-121.06120300016958, 40.4298529996969], [-121.0611639998115, 40.42090099989339], [-121.06096799999294, 40.3814169998207], [-121.06094299987856, 40.374531000072075], [-121.06094000040383, 40.37429000012987], [-121.06096799999294, 40.373621999981516], [-121.0609789998636, 40.37218899993461], [-121.0610500000087, 40.36612199988113], [-121.06093000035811, 40.35754299979361], [-121.06092899963488, 40.357449999795485], [-121.06096899981783, 40.3536079997775], [-121.06096799999294, 40.353593000103594], [-121.06093000035811, 40.35144200026635], [-121.06090699989356, 40.34738599984917], [-121.06083800029658, 40.344565999756405], [-121.06081499983206, 40.34140500028166], [-121.06079300009074, 40.33680299979309], [-121.06081300018224, 40.33113299968555], [-121.0608240000529, 40.32997499980745], [-121.06086599988569, 40.324781999968764], [-121.06085199964198, 40.32233200007817], [-121.06085199964198, 40.32211200000589], [-121.06086099986283, 40.32137099996427], [-121.06094000040383, 40.31469899988902], [-121.06107199975, 40.30373899990622], [-121.06111399958279, 40.30034999978738], [-121.06111399958279, 40.30033400034], [-121.06113600022242, 40.29413499987237], [-121.06112600017669, 40.29378300001743], [-121.06113600022242, 40.28953200007031], [-121.06113600022242, 40.289437000035], [-121.06113299984936, 40.289359000288506], [-121.06109299966641, 40.28848699987523], [-121.06109500021455, 40.28835100010424], [-121.06112899965142, 40.28238700002042], [-121.06115100029103, 40.27863300017656], [-121.06115600031393, 40.26376200017601], [-121.06146000008752, 40.26377800005523], [-121.06149400042271, 40.25837199988435], [-121.0614929996995, 40.25641700003568], [-121.05016600034823, 40.256459000071345], [-121.04754000019393, 40.25645400029699], [-121.04649599973028, 40.25645499984057], [-121.04560600015074, 40.256463000301956], [-121.04151700013146, 40.256474000077795], [-121.04151700013146, 40.25504500007331], [-121.0414920000171, 40.2499189999906], [-121.04152100032941, 40.23479499989098], [-121.03685099962878, 40.234803000169634], [-121.02956300006804, 40.2348280001772], [-121.02259199980143, 40.234850999764525], [-121.0225829995806, 40.23467299998164], [-121.00391800043988, 40.23494099968466], [-121.00373199976873, 40.22097499982349], [-121.00106899980455, 40.22097699995839], [-120.97533299993977, 40.220892999728086], [-120.96830399994684, 40.22086900013312], [-120.96425699976035, 40.22086100026618], [-120.94618799957298, 40.22080800000961], [-120.94644500038925, 40.21702099970247], [-120.9471519996707, 40.206498999679006], [-120.94315100041327, 40.20648800001605], [-120.93669800018051, 40.206472999911405], [-120.92806599968216, 40.2064509998892], [-120.9283269997981, 40.20005199995052], [-120.9283269997981, 40.20003199996986], [-120.92834600006466, 40.19942799969516], [-120.9285379996853, 40.193330000093574], [-120.92858200006623, 40.19193099986973], [-120.9253409997937, 40.19194700025668], [-120.90073700025611, 40.19206600014244], [-120.89517299977798, 40.19209500005411], [-120.89447300016924, 40.19209299975297], [-120.89064600009078, 40.192116000124386], [-120.890676000228, 40.199410000301896], [-120.87820699960551, 40.199399000174814], [-120.87801400015996, 40.199399000174814], [-120.87606000002529, 40.19939700008913], [-120.87524700043866, 40.199424999911], [-120.87247800016922, 40.199379000001535], [-120.87220100015978, 40.19938800004591], [-120.87183000043902, 40.19939700008913], [-120.87175699974577, 40.199438000118406], [-120.87176299959356, 40.21205399999311], [-120.87177000016456, 40.221954999874065], [-120.87176799961642, 40.223643999764136], [-120.87177099998948, 40.22938999969895], [-120.8718150003704, 40.22985100008799], [-120.8718139996472, 40.229960999865895], [-120.87181600019532, 40.230101000197735], [-120.87178699988299, 40.23744499970059], [-120.87178900043114, 40.237869999821015], [-120.87178500023319, 40.238436999882964], [-120.87180299977653, 40.239082000225224], [-120.87178299968507, 40.2411879998511], [-120.87178199986015, 40.24164000023739], [-120.8665069999853, 40.241690999756244], [-120.85549799975303, 40.24178199994513], [-120.85311799964602, 40.24180299970762], [-120.85312000019415, 40.242891999720264], [-120.85319700018705, 40.24885500020654], [-120.84370299969831, 40.248891000147864], [-120.84359899994122, 40.24889199980311], [-120.84356100030638, 40.249507999936625], [-120.8435050002299, 40.249683000183005], [-120.84343400008478, 40.249890000137036], [-120.84350400040498, 40.25601900000285], [-120.83913199963015, 40.256145000087365], [-120.83869200031243, 40.25615199966621], [-120.83565899955403, 40.25613700027395], [-120.83405799959678, 40.256160999711284], [-120.83383800038709, 40.26953699988393], [-120.83382300031847, 40.27057500020111], [-120.83381999994542, 40.27072799971687], [-120.83312700000937, 40.27072799971687], [-120.83119499961603, 40.27072599968063], [-120.81686600036682, 40.270724000329764], [-120.81501299961619, 40.27072599968063], [-120.81498099982913, 40.271573000139206], [-120.81465000029132, 40.27783000003774], [-120.79600000032093, 40.277726000087796], [-120.79571099971761, 40.279961999738596], [-120.79574099985483, 40.28056500032537], [-120.79620100016237, 40.28979900001711], [-120.79623499959924, 40.29048699993112], [-120.79675699983109, 40.300937000058596], [-120.79659600017258, 40.30115300028459], [-120.79642100027041, 40.30128099968667], [-120.79631800033825, 40.30135799980959], [-120.79566999970972, 40.30131300018441], [-120.78578699995684, 40.301390999835455], [-120.78259900028606, 40.30138200032824], [-120.77380500030436, 40.30143400028085], [-120.77379799973336, 40.302341000144615], [-120.77374699967973, 40.30698900015483], [-120.7737280003115, 40.30867799972303], [-120.77074999980466, 40.308690000053126], [-120.76594799975787, 40.30871000014187], [-120.76549400019641, 40.30871199973941], [-120.76529800037785, 40.30871000014187], [-120.76434599997573, 40.3087179999017], [-120.76435000017365, 40.309315000026636], [-120.76435500019655, 40.3099409998196], [-120.76436900044023, 40.31194899993243], [-120.76437100009007, 40.31215799993487], [-120.7644029998771, 40.3160099999572], [-120.7615719996834, 40.31601200002351], [-120.75104299985016, 40.316055000065674], [-120.74637399987273, 40.315895000152516], [-120.74408199962927, 40.31581500005375], [-120.7436890001672, 40.31580000019595], [-120.73775099959524, 40.315767999711795], [-120.737724999656, 40.31576699967503], [-120.72889600041249, 40.31588999997789], [-120.7280109999575, 40.31590499981571], [-120.72657400003179, 40.31592899996028], [-120.72649600021397, 40.315755999954426], [-120.72648799981808, 40.31491299984745], [-120.72641699967296, 40.30843300016704], [-120.72080700006236, 40.308443999710406], [-120.71378999976501, 40.30846100012211], [-120.71157200003972, 40.30845399979192], [-120.71121399983943, 40.30844999989651], [-120.70977899956351, 40.30845399979192], [-120.69385000018198, 40.30849500024773], [-120.69376599961808, 40.30849500024773], [-120.67926199956837, 40.30852999981514], [-120.6521580002732, 40.307655999865425], [-120.65201599998296, 40.30565800002973], [-120.65165100010998, 40.30045099976548], [-120.65114800014476, 40.30044299971167], [-120.6475250002808, 40.300422999915526], [-120.64666699958998, 40.300417999965575], [-120.64233099969852, 40.300393000210285], [-120.6423659998586, 40.29907800004002], [-120.64236199966065, 40.29892500027633], [-120.64237000005657, 40.29877599994958], [-120.64239500017092, 40.29773100018646], [-120.64241199988936, 40.297004999728706], [-120.64242000028526, 40.2966610002534], [-120.64243299980576, 40.29608100007221], [-120.64245200007231, 40.29520799971961], [-120.64246600031605, 40.294738999765606], [-120.64250499977577, 40.293184000287084], [-120.63925500018071, 40.293154000108366], [-120.63047299989456, 40.29307700022815], [-120.62605900018528, 40.292965000183486], [-120.62553699995345, 40.29302900013384], [-120.62316299969424, 40.2930160000739], [-120.6226609995539, 40.29301400001174], [-120.62279600017143, 40.28570999971593], [-120.61181700007637, 40.28563600034103], [-120.60297799988885, 40.285580999799386], [-120.60212000009638, 40.28559699999895], [-120.58657999997892, 40.28548700017795], [-120.58517599966517, 40.28547799992302], [-120.57682500027255, 40.28542999991369], [-120.57681900042476, 40.28399999982123], [-120.5767290000131, 40.26379600017189], [-120.56778299969542, 40.263688000085594], [-120.56340199959807, 40.26363599988098], [-120.56202900014479, 40.26361999996818], [-120.55247500027988, 40.26360500017499], [-120.5487240003694, 40.26359599974914], [-120.54866300027005, 40.2562750001789], [-120.5364179999535, 40.25620299990591], [-120.52969899958198, 40.25620299990591], [-120.5296790003888, 40.24989499971074], [-120.52973399974206, 40.249197000247214], [-120.5214419999007, 40.2490830001971], [-120.5155839996947, 40.24901299980656], [-120.51530800040847, 40.24900299984282], [-120.51512400028548, 40.24899699986385], [-120.5149019996293, 40.24898600024385], [-120.51081699980797, 40.24894500002394], [-120.51081699980797, 40.24854099990655], [-120.51079900026464, 40.24287799987597], [-120.51071200022596, 40.237579999850446], [-120.51070899985294, 40.237361999830405], [-120.51066500037034, 40.23469800003716], [-120.50767699981778, 40.23476900000743], [-120.5067920002611, 40.234789999887745], [-120.50142899962442, 40.2348659997595], [-120.50105399970572, 40.2348659997595], [-120.49171999994883, 40.234790999751276], [-120.49197600004184, 40.22368800029935], [-120.49200299980605, 40.22263999979987], [-120.49206200025559, 40.22029199968008], [-120.49008999967928, 40.22026799987222], [-120.48245999981178, 40.22018400013469], [-120.48255500024634, 40.21494500024739], [-120.4828480001493, 40.20579800000096], [-120.46067300022422, 40.20577700005148], [-120.45433100031954, 40.20575100000695], [-120.4541520002194, 40.19135499989582], [-120.44528500044278, 40.19135700021872], [-120.44589200016509, 40.176853999897936], [-120.43646799999652, 40.176645999767594], [-120.43636900026233, 40.17075099977289], [-120.43637099991213, 40.169563000222865], [-120.43439300038635, 40.16954999978048], [-120.42816199991145, 40.16951099981144], [-120.41950000017421, 40.16948299999582], [-120.41691800040084, 40.1694410002508], [-120.41716400044815, 40.163984000176164], [-120.4172539999615, 40.16207599993893], [-120.41512099972668, 40.162097999939974], [-120.40760899986, 40.16216399990031], [-120.4077410001045, 40.15669299999244], [-120.40776100019596, 40.15579499987729], [-120.4079539996415, 40.147354000307445], [-120.39825599983656, 40.14736499994712], [-120.39827299955498, 40.14499399977696], [-120.3983019998673, 40.14304099968915], [-120.39829600001954, 40.14197000019376], [-120.3983069998902, 40.140639999886794], [-120.3892409999219, 40.14059999991317], [-120.38806299956397, 40.14054500034017], [-120.38803099977692, 40.140547999980924], [-120.38774200007192, 40.14057199984896], [-120.38741900003171, 40.14055100030824], [-120.386671999669, 40.140501999981275], [-120.37911700014462, 40.140555999708944], [-120.37915499977946, 40.138851999972495], [-120.37928600019902, 40.133563000338796], [-120.37939900017689, 40.12950999986451], [-120.37604199955341, 40.129489999695494], [-120.374750000291, 40.12938499991382], [-120.37434400041013, 40.12938499991382], [-120.36689100009464, 40.12945899973106], [-120.36667600000949, 40.12946199986115], [-120.36040100005195, 40.129532000112235], [-120.36035300037138, 40.12588199971837], [-120.36033499992972, 40.12489999999159], [-120.36056599990842, 40.12407799969531], [-120.36061100011426, 40.1225140002115], [-120.3592849996183, 40.122522000001744], [-120.35907999957888, 40.12251599981566], [-120.3491940003513, 40.12253800026635], [-120.34863500030954, 40.122505999733384], [-120.34842699989709, 40.12249400004483], [-120.34797199961243, 40.12249799994125], [-120.34480499985803, 40.122525999896524], [-120.34146300020147, 40.12255600013017], [-120.34144200028507, 40.120577999937645], [-120.34143200023934, 40.11969799976181], [-120.34138500038368, 40.1152429996614], [-120.33764399962061, 40.1152169999607], [-120.33061100032802, 40.11506400025223], [-120.33046900003782, 40.11506199974191], [-120.32213199999059, 40.11494999992237], [-120.3207319998748, 40.11494500001202], [-120.30480599996801, 40.11485800027612], [-120.3034769999973, 40.11485099984244], [-120.30173299992494, 40.11484299983664], [-120.28441199992521, 40.114763999986295], [-120.28423700002304, 40.11475400013788], [-120.28420699988582, 40.114763999986295], [-120.28411599964922, 40.11476099989454], [-120.28397000005936, 40.114762000154144], [-120.28361600005701, 40.114763999986295], [-120.27515299961311, 40.114808999973164], [-120.26656100019606, 40.11586900028785], [-120.26563300008338, 40.10774800023751], [-120.25892100028285, 40.1077670002566], [-120.25169700029622, 40.107788999982795], [-120.24800900013497, 40.10785600016691], [-120.24678800011931, 40.107885000328686], [-120.24686799958694, 40.091334000313424], [-120.24689000022657, 40.08580500030782], [-120.24061199989599, 40.0856789997431], [-120.22866299985546, 40.08541299992326], [-120.2211180003768, 40.08564999973831], [-120.20964100033936, 40.08600800030712], [-120.20963100029363, 40.08482799996251], [-120.2095230003386, 40.07291499986595], [-120.20942000040645, 40.06492900025171], [-120.20931499992615, 40.05628700004901], [-120.2113329996349, 40.0563279998542], [-120.21128800032737, 40.05531299972045], [-120.2108899999441, 40.042756999758076], [-120.2076999997252, 40.042750000160474], [-120.2045820003746, 40.04273700021822], [-120.20367000015547, 40.04274800027533], [-120.20138299993486, 40.04273700021822], [-120.20136700004133, 40.03868099967418], [-120.20132600003346, 40.028686000065335], [-120.20130900031504, 40.02610099978825], [-120.20130699976689, 40.02400500000158], [-120.20128599985048, 40.01878899967189], [-120.20126400010916, 40.01347400006646], [-120.18248400044243, 40.013349999946776], [-120.18254200016878, 40.00030699995314], [-120.18240900009937, 39.99990199985913], [-120.1824540003052, 39.99852100012781], [-120.17735900035545, 39.998415000028245], [-120.17655199971826, 39.998398000276104], [-120.17520900040219, 39.99837000018943], [-120.17300300037247, 39.998325000320975], [-120.17304900040321, 39.99584000031833], [-120.17322299958218, 39.98526200013198], [-120.17322599995524, 39.9851220001879], [-120.17327399963581, 39.983888999893715], [-120.17123300036081, 39.98386599995202], [-120.16364500032614, 39.98378299979879], [-120.16340599995154, 39.98378000013137], [-120.16340500012664, 39.98372599990056], [-120.16348700014238, 39.97881300005057], [-120.16358500005168, 39.972807999967856], [-120.16365399964866, 39.96865900027564], [-120.16279900022921, 39.96864700032645], [-120.15432999993753, 39.96853399966891], [-120.15437900034132, 39.96235100020643], [-120.14950799979924, 39.96232299980372], [-120.14501500044723, 39.96229200015592], [-120.14499100015777, 39.95506700029862], [-120.14315000000101, 39.955060999820056], [-120.1357350002187, 39.95504000020672], [-120.13572900037092, 39.95384500030831], [-120.13576799983068, 39.9477569997204], [-120.12829799979677, 39.947750999977856], [-120.12671100008323, 39.94774900006359], [-120.12667000007536, 39.94525900012838], [-120.12657399981588, 39.939550999918], [-120.12603700041376, 39.939555000225795], [-120.11096599992639, 39.939539999759035], [-120.10876099972155, 39.939510000193195], [-120.10881599997313, 39.926402000281186], [-120.10884000026259, 39.91915899979151], [-120.1088829999203, 39.91037399998288], [-120.10085899986753, 39.91034300022267], [-120.09955599983613, 39.910339000274824], [-120.09939000015474, 39.88799599977999], [-120.09933900010112, 39.88121899980609], [-120.10809899974767, 39.88126600002317], [-120.10816400004498, 39.863478999990186], [-120.10818199958833, 39.85933000024883], [-120.10819900020509, 39.85553399977605], [-120.1082340003652, 39.84832600003], [-120.10823500019009, 39.84809599973331], [-120.1082579997563, 39.843577000046686], [-120.10832100040382, 39.82839100006033], [-120.10832100040382, 39.828314999849106], [-120.10833999977207, 39.82407599970891], [-120.1081659996948, 39.814143000252784], [-120.10804100002132, 39.80711299969979], [-120.10803799964829, 39.80700799975092], [-120.10803000015066, 39.806311999939204], [-120.10793600043937, 39.80117899992505], [-120.10793200024139, 39.80111799969838], [-120.10781000004265, 39.79421400033027], [-120.10817400009073, 39.79267499996902], [-120.10866199998736, 39.79075399990087], [-120.1087289999345, 39.79035700007855], [-120.11059600003053, 39.78257599989652], [-120.11106800003361, 39.78081700006397], [-120.11105399978993, 39.78041600026984], [-120.1110439997442, 39.780263999985074], [-120.11102200000288, 39.7796960000554], [-120.11101699998001, 39.77946399989269], [-120.11093199959119, 39.7766209999763], [-120.11090499982703, 39.77560399998675], [-120.11075699968902, 39.77010800005175], [-120.11062699999266, 39.76577899966512], [-120.11532100008445, 39.76570499967657], [-120.11710199996672, 39.76566400024584], [-120.119584000181, 39.76562700019969], [-120.11948999957136, 39.76269600016707], [-120.11918900017079, 39.753436999840424], [-120.11918699962266, 39.75337800016341], [-120.11910999962976, 39.75108700022256], [-120.12603700041376, 39.75096299985522], [-120.12763499999794, 39.75095399995908], [-120.12764900024168, 39.749923000241424], [-120.12768699987649, 39.74551100021243], [-120.12774299995299, 39.73860199980868], [-120.12776300004447, 39.73615900010676], [-120.14658000041945, 39.736405999746346], [-120.1468859998429, 39.71969700027934], [-120.14691099995726, 39.718608999971345], [-120.14714899960862, 39.707658000230715], [-120.13577200002862, 39.708321000034886], [-120.12603599969056, 39.70888799985091], [-120.12603599969056, 39.7089210000258], [-120.11721499994465, 39.7088720000955], [-120.11331000004839, 39.708869000140986], [-120.11122500039247, 39.70886700017118], [-120.10894900004251, 39.70884799976439], [-120.1082560001065, 39.708841999853036], [-120.08488799975487, 39.708646999686756], [-120.07405199977495, 39.70865700025799], [-120.07306099991308, 39.70865800024598], [-120.0728669997443, 39.70865800024598], [-120.06358400004108, 39.70867999997692], [-120.05953600002968, 39.70866200019759], [-120.05785499970648, 39.7086550002821], [-120.05580900040864, 39.70865900023389], [-120.05037399980193, 39.708665000161105], [-120.03955999956332, 39.70867800000165], [-120.03784599962817, 39.708695999776864], [-120.03777200000835, 39.70869699976423], [-120.03742100037907, 39.70869799975158], [-120.03524899978619, 39.70869799975158], [-120.03458500016247, 39.70869999972627], [-120.03407600034946, 39.70870099971357], [-120.02316599985137, 39.708713000251315], [-120.01884099983054, 39.70871900017383], [-120.01573400035062, 39.70872100014792], [-120.01575899956664, 39.71326099983251], [-120.01579600027488, 39.719888000312004], [-120.0158029999476, 39.72215799994609], [-120.01580399977252, 39.72235900003882], [-120.01528800028679, 39.72237100027333], [-120.01470999997846, 39.722369999793244], [-120.01441100022772, 39.72237100027333], [-120.01406700027115, 39.72238100023685], [-120.01389599966859, 39.72237400033165], [-120.0108750004024, 39.7223869996615], [-120.00890000035135, 39.72239199998776], [-120.00136800039317, 39.72241599975225], [-120.00106200007141, 39.72241800002012], [-120.00101799969046, 39.732608000264705], [-120.00101400039082, 39.73401200033475], [-120.00101299966762, 39.73418899991831], [-120.0010059999949, 39.73540499969476], [-120.0010059999949, 39.73541600013116], [-120.0010319999342, 39.739738999775206], [-120.00103299975909, 39.74209600032568], [-120.00113300021653, 39.75222900023013], [-120.00111800014791, 39.75257699973575], [-120.00089100036719, 39.75783800023727], [-120.00085899968182, 39.75858400001874], [-120.00080500015345, 39.75984600007442], [-120.0007230001377, 39.766161000002086], [-120.00070200022131, 39.76750799965785], [-120.00068299995473, 39.7687250002147], [-120.00067700010693, 39.76937200018862], [-120.00065100016768, 39.77082000016898], [-120.00054800023551, 39.7752229999786], [-120.00053999983959, 39.779955000187904], [-120.00053800018976, 39.780787999695846], [-120.00053800018976, 39.7809449997335], [-120.00052800014403, 39.78152499999864], [-120.00051800009827, 39.78208299974615], [-120.00050300002967, 39.78291399983501], [-120.00049600035697, 39.790936000211474], [-120.00049499963376, 39.791285999773905], [-120.00049499963376, 39.79144800016366], [-120.00049499963376, 39.79166900022069], [-120.00049499963376, 39.7917060000734], [-120.00049100033411, 39.7956729999291], [-120.00049100033411, 39.79570900028343], [-120.00048899978597, 39.79726900006898], [-120.00047600026548, 39.79808099966843], [-120.00047500044057, 39.798135000027656], [-120.0004550003491, 39.79934399969177], [-120.00045399962586, 39.799434000224494], [-120.00030800003601, 39.808395999945546], [-120.00030600038617, 39.808523000138564], [-120.00016999994372, 39.815250000344264], [-120.00009899979864, 39.818764999731684], [-120.00009200012592, 39.81912999971839], [-120.0000689996614, 39.82019399996483], [-120.00002799965353, 39.822083999715574], [-120.00002199980572, 39.823287000196025], [-119.99990700017801, 39.836512999759535], [-119.99994099961488, 39.83757999970232], [-119.99984299970559, 39.84342000022307], [-119.99977599975843, 39.84745299967327], [-119.99974399997137, 39.849385999774185], [-119.99972100040516, 39.85075699997901], [-119.99971600038229, 39.85102999991831], [-119.99969200009284, 39.85203200003735], [-119.99960300040439, 39.857398999999006], [-119.99959800038151, 39.85769199966005], [-119.9994610001142, 39.865535000203145], [-119.99917400005899, 39.87491300001996], [-119.99912700020333, 39.88738399981491], [-119.9991260003784, 39.887714000170675], [-119.99910399973876, 39.893829999969434], [-119.99910399973876, 39.89388899978134], [-119.99910000043914, 39.894772999782916], [-119.99909899971593, 39.89533799975704], [-119.99909899971593, 39.895434000163114], [-119.99908600019545, 39.90310400020439], [-119.99908500037053, 39.90381700032702], [-119.99908500037053, 39.903911999972635], [-119.99908500037053, 39.90396800034038], [-119.9990839996473, 39.904142999816294], [-119.9990839996473, 39.904256999935384], [-119.99908100017255, 39.90615599984529], [-119.99883299957715, 39.923559000038914], [-119.99882300042972, 39.92425499984738], [-119.99882000005667, 39.924461000126335], [-119.99873499966785, 39.93042500032009], [-119.99872899982006, 39.93084399968822], [-119.99872100032245, 39.93137699969244], [-119.99871399975144, 39.93188099971314], [-119.99870600025385, 39.93244399982963], [-119.99869600020811, 39.93313200024627], [-119.99868699998727, 39.9337799997048], [-119.99867899959135, 39.934335000196114], [-119.998661000048, 39.93555300032031], [-119.99865799967495, 39.93578900018554], [-119.99865799967495, 39.93581400003603], [-119.99865299965208, 39.93616599999209], [-119.99862599988792, 39.93803199974133], [-119.9984979998414, 39.95256799988668], [-119.99845699983351, 39.95453799969427], [-119.99844500013793, 39.955110000040335], [-119.99837499981774, 39.95849899977985], [-119.99836999979487, 39.958749000278445], [-119.99833399980987, 39.96045499995448], [-119.9983299996119, 39.960676999799134], [-119.99831700009142, 39.961307000253186], [-119.99829799982484, 39.96223399979989], [-119.99828600012928, 39.96281200029528], [-119.9982789995583, 39.96310499970703], [-119.99827699990844, 39.96320999978508], [-119.99826299966473, 39.96390299997434], [-119.99826100001495, 39.96401100005074], [-119.99824799959613, 39.96465300004377], [-119.99821199961113, 39.96639099999433], [-119.99818900004492, 39.96747299993272], [-119.99818300019713, 39.967761999988596], [-119.99817700034933, 39.968035000124644], [-119.99813799999127, 39.9699789997256], [-119.99813799999127, 39.969989999809], [-119.99813700016635, 39.97001399992217], [-119.99813600034146, 39.970060000173], [-119.99813399979332, 39.9701720000555], [-119.99810700002912, 39.9715020001214], [-119.99809500033356, 39.97211699975363], [-119.9980559999755, 39.97404099989323], [-119.9979139996853, 39.981128000322435], [-119.99790799983752, 39.98140899992544], [-119.99790299981463, 39.981635999931825], [-119.99787500022555, 39.984261999842275], [-119.99787100002757, 39.984615999866016], [-119.99779999988246, 39.991211000270106], [-119.99770600017114, 39.999905000194865], [-119.9976190001325, 40.010652999917355], [-119.99754600033758, 40.022866999663556], [-119.99753399974368, 40.024951000327434], [-119.99747699984228, 40.03201700029493], [-119.99741999994089, 40.039203000219786], [-119.99742499996373, 40.0415610003176], [-119.99740900007022, 40.044371999800816], [-119.99740900007022, 40.044422999765395], [-119.99736899988724, 40.05189300004091], [-119.99736800006232, 40.05203500019862], [-119.99734600032102, 40.05607499967318], [-119.99733200007732, 40.05753799971898], [-119.99732799987937, 40.057569000145236], [-119.99733200007732, 40.057584999871764], [-119.99730799978788, 40.06025400007842], [-119.99721999992434, 40.069811999955114], [-119.99723400016804, 40.07014199973731], [-119.99727299962777, 40.07103899980884], [-119.99727600000085, 40.07163699993888], [-119.99727699982574, 40.071766999810364], [-119.99727799965066, 40.072095000033066], [-119.99729199989434, 40.07477700031416], [-119.99730399958993, 40.077208000319075], [-119.99730399958993, 40.07726599994717], [-119.99730699996299, 40.077756000285206], [-119.99731000033601, 40.078411999888964], [-119.99731000033601, 40.07849900018006], [-119.99731399963567, 40.07922700017141], [-119.99731899965853, 40.080166000160204], [-119.99732799987937, 40.081742000181805], [-119.99732799987937, 40.08180499966905], [-119.99732299985651, 40.08377900012306], [-119.99732299985651, 40.083907000132626], [-119.99732100020667, 40.08452300029203], [-119.99731799983364, 40.08578099966186], [-119.99731799983364, 40.085972999781625], [-119.99732100020667, 40.08695800003866], [-119.99732600022953, 40.08924199979822], [-119.99732600022953, 40.08934000009158], [-119.9973289997043, 40.09049899999864], [-119.9973289997043, 40.09051299969249], [-119.99733000042751, 40.09082600009698], [-119.99733200007732, 40.091564000049196], [-119.99733299990223, 40.091788000233954], [-119.99733299990223, 40.0921139997318], [-119.99733399972715, 40.09272899994842], [-119.99734399977288, 40.096362999872014], [-119.9973520001688, 40.09999100009116], [-119.99731700000872, 40.1037940003121], [-119.9973160001838, 40.103957999745234], [-119.99731199998585, 40.10442699995173], [-119.99731000033601, 40.10463299991555], [-119.9973089996128, 40.10506200000279], [-119.99730399958993, 40.105263999882226], [-119.99730399958993, 40.10531600001262], [-119.99730199994009, 40.105411999726115], [-119.99730399958993, 40.105495000342565], [-119.99730399958993, 40.105719999724464], [-119.99728500022167, 40.10756700029571], [-119.99725599990934, 40.11090900026975], [-119.99725099988648, 40.11133799993784], [-119.99722900014515, 40.11330100020769], [-119.99721499990147, 40.11449799980689], [-119.99718899996218, 40.116694999773706], [-119.99715200015228, 40.11978599967369], [-119.99715100032736, 40.12003200025941], [-119.99713700008365, 40.12490399974645], [-119.99716399984784, 40.12607999989634], [-119.9971699996956, 40.126322000017545], [-119.99709600007576, 40.12944000027761], [-119.99700200036446, 40.142578999674996], [-119.99701499988491, 40.15327700010216], [-119.99701499988491, 40.15342699986978], [-119.99701599970983, 40.15433099983997], [-119.99701599970983, 40.15449199988463], [-119.99701800025797, 40.15602000033073], [-119.99701900008289, 40.15715799972562], [-119.99696800002924, 40.158584000151514], [-119.99696800002924, 40.15884199981592], [-119.99696700020435, 40.159223000185925], [-119.99694399973983, 40.17157999977319], [-119.99699399996851, 40.18328600027734], [-119.99699499979343, 40.1835669999187], [-119.9970059996641, 40.18623499969812], [-119.9969510003108, 40.18744899993785], [-119.99692299982343, 40.188728000072416], [-119.99666599990546, 40.200392999776746], [-119.99665900023278, 40.20069399969522], [-119.9966199998747, 40.20614500008706], [-119.99661099965388, 40.20743200033373], [-119.99656700017124, 40.2135219999829], [-119.99652799981318, 40.21892000010077], [-119.99652699998829, 40.21900000033306], [-119.99645099982031, 40.229680999705714], [-119.99646000004115, 40.23085600008495], [-119.99633199999462, 40.24426800016747], [-119.99628599996386, 40.245317000329], [-119.99628400031406, 40.24544900006327], [-119.99628400031406, 40.24546300006154], [-119.99626500004749, 40.249905999868645], [-119.99626199967443, 40.25810000025394], [-119.99626199967443, 40.25822800029686], [-119.99626199967443, 40.25874700009974], [-119.99626000002459, 40.25920900028793], [-119.99626000002459, 40.2592600002801], [-119.99626000002459, 40.2592780002278], [-119.9962590001997, 40.259297999859434], [-119.9962590001997, 40.25933099985565], [-119.99625699965156, 40.25979000031536], [-119.99625599982664, 40.25996900004646], [-119.99625599982664, 40.26034700015153], [-119.99625800037477, 40.26242899973247], [-119.99625800037477, 40.26247100014929], [-119.99625800037477, 40.2634950002192], [-119.99625800037477, 40.26361600016077], [-119.9962590001997, 40.26411699973421], [-119.9962590001997, 40.26424700027459], [-119.99626500004749, 40.27452099970947], [-119.99628400031406, 40.27756499993538], [-119.99630000020757, 40.28007599984582], [-119.99630000020757, 40.28013799990764], [-119.99630199985738, 40.280545000128484], [-119.9963029996823, 40.2806900000513], [-119.99638100039844, 40.293171999943105], [-119.99650400042208, 40.31298500031008], [-119.99650400042208, 40.31305500025298], [-119.99650500024697, 40.313208000208256], [-119.99650799972171, 40.31367100032058], [-119.99651199991969, 40.31432399967079], [-119.99651500029273, 40.314743000134335], [-119.99651600011764, 40.31492899995149], [-119.99652199996542, 40.31583199997992], [-119.99652299979032, 40.31597600019017], [-119.9965360002091, 40.31813100004521], [-119.99653299983608, 40.318540000216544], [-119.99652600016337, 40.31979199968207], [-119.99651799976745, 40.32096299978011], [-119.99651699994253, 40.32114599971445], [-119.99651699994253, 40.32122700030173], [-119.99651699994253, 40.32125199987988], [-119.99651299974461, 40.32183999994642], [-119.99651000026985, 40.322243999861314], [-119.99649900039921, 40.32407899994], [-119.99649799967598, 40.324162000257374], [-119.99649199982818, 40.32517499984269], [-119.99649100000329, 40.325272000097264], [-119.99644499997252, 40.33264099980898], [-119.9963389996673, 40.339194000114425], [-119.9963389996673, 40.33920799987769], [-119.9963360001926, 40.3393650002516], [-119.99633199999462, 40.339603000021484], [-119.99621200034403, 40.34699900010662], [-119.99619399990235, 40.347954999676865], [-119.99596000044893, 40.360155000192684], [-119.9959550004261, 40.360453000003204], [-119.99595299987796, 40.360547000023914], [-119.99593600015952, 40.36141600013987], [-119.99592299974073, 40.362198999937355], [-119.99576000043243, 40.37241600015179], [-119.99576000043243, 40.372427000218245], [-119.99573399959482, 40.37401500005724], [-119.99570500018083, 40.375829999779135], [-119.99570299963268, 40.384845000334174], [-119.99570199980776, 40.39041400000131], [-119.99568699973915, 40.39433599988324], [-119.9956750000436, 40.39719399998856], [-119.9956740002187, 40.39756200004263], [-119.99566300034805, 40.400204000091186], [-119.99565800032515, 40.40145900026274], [-119.99565599977701, 40.40199499987734], [-119.99565599977701, 40.40207099989071], [-119.99565599977701, 40.40218900024554], [-119.99565499995212, 40.40232200017147], [-119.99565499995212, 40.40240800033856], [-119.99565199957904, 40.40325999989193], [-119.99564599973125, 40.404717999907675], [-119.99564499990636, 40.40494499996141], [-119.99564499990636, 40.40626800022009], [-119.99564099970841, 40.41644499977346], [-119.99564099970841, 40.41652500021262], [-119.99564099970841, 40.41860000004338], [-119.9956399998835, 40.420203999796506], [-119.9956399998835, 40.42040499999535], [-119.99563900005857, 40.42419500019598], [-119.99562700036302, 40.42827500024408], [-119.99562499981488, 40.42887700012995], [-119.99559800005069, 40.43836600027785], [-119.99560300007357, 40.439404999882235], [-119.99563099966268, 40.44557099998044], [-119.99563200038588, 40.44574100007941], [-119.99566400017294, 40.452901999890905], [-119.99567800041663, 40.470158999683925], [-119.99568699973915, 40.48175199987032], [-119.99579600041743, 40.49624800000674], [-119.99578399982353, 40.4999030000035], [-119.9958299998543, 40.51072499994389], [-119.99580599956485, 40.52271600029002], [-119.99580599956485, 40.52292300001178], [-119.99579800006724, 40.52692799989608], [-119.9958099997628, 40.5352550002437], [-119.99581099958772, 40.535638999975106], [-119.99581999980856, 40.5416280002692], [-119.99587099986216, 40.54907399998482], [-119.99587199968708, 40.54919200028674], [-119.99589599997651, 40.55265100006928], [-119.99589699980143, 40.5528080002354], [-119.99590799967208, 40.55425499981617], [-119.99590799967208, 40.55431000023335], [-119.99591900044106, 40.555883999886575], [-119.99592000026598, 40.55604899971815], [-119.99592000026598, 40.5560680002021], [-119.9959219999158, 40.556511000222734], [-119.99592299974073, 40.55664399984941], [-119.99597600034247, 40.57054999967005], [-119.99616700013819, 40.58082600010455], [-119.99617100033613, 40.58104499994642], [-119.9962309997123, 40.58428399983294], [-119.99626000002459, 40.58500400021648], [-119.99659999978321, 40.59874299969924], [-119.99664400016414, 40.59944699991221], [-119.99672299980686, 40.61077800029078], [-119.99672600017992, 40.611279999829655], [-119.99673700005057, 40.61280800025507], [-119.99673899970041, 40.6131320001039], [-119.99674100024855, 40.61334199974767], [-119.99676100034002, 40.61390900005795], [-119.99676299998984, 40.61423700016459], [-119.99676499963965, 40.614639999874896], [-119.99677200021068, 40.61631700028158], [-119.99679300012707, 40.62075300033468], [-119.99681099967042, 40.62476400016336], [-119.99681200039366, 40.62490500015857], [-119.99681599969328, 40.62514099970209], [-119.9968170004165, 40.62520899983181], [-119.99682099971615, 40.62551600010707], [-119.99682699956395, 40.62589700029855], [-119.99683300031005, 40.62627099967173], [-119.99683300031005, 40.626292999890495], [-119.99684800037866, 40.62727100006159], [-119.99685699970117, 40.62785299996223], [-119.99688199981553, 40.628385999707994], [-119.99690299973193, 40.62992800016233], [-119.99699099959545, 40.63634000029071], [-119.99707299961125, 40.64232000026993], [-119.9970619997406, 40.642908000237746], [-119.997238000366, 40.65690199969536], [-119.99723499999295, 40.65736900003394], [-119.99747699984228, 40.67142199967966], [-119.99742599978865, 40.671422999880555], [-119.99746599997162, 40.671912999760096], [-119.99747799966718, 40.67303999985298], [-119.9974800002153, 40.67318500009661], [-119.99758999982019, 40.6835470001741], [-119.99783699969238, 40.70189000018833], [-119.99783800041563, 40.701951999934174], [-119.99784400026341, 40.7024160001983], [-119.99784699973816, 40.702632999726205], [-119.99808799976253, 40.72048800004388], [-119.99809100013562, 40.720702000170576], [-119.99809500033356, 40.721039999700956], [-119.99809799980831, 40.721256999816184], [-119.99838700041161, 40.74268600007905], [-119.99840900015293, 40.74432299983756], [-119.99847899957483, 40.749899000306556], [-119.99848600014583, 40.75047200001867], [-119.99850200003934, 40.7514439996893], [-119.99863400028384, 40.75923299970438], [-119.99876200033034, 40.77159600026925], [-119.99878499989656, 40.77385000018389], [-119.99877200037606, 40.77554099993788], [-119.99874300006377, 40.77952099992364], [-119.99871899977433, 40.78273500000653], [-119.99867600011663, 40.78850300027009], [-119.99865699985006, 40.794156000015064], [-119.99867199991866, 40.7961189997455], [-119.99867299974358, 40.79621199992372], [-119.99868899963708, 40.798256999788265], [-119.99869000036031, 40.79834199973419], [-119.99874100041393, 40.80487400019294], [-119.99875499975934, 40.80672800033675], [-119.99875499975934, 40.80674000011615], [-119.99875700030748, 40.80692899975547], [-119.99875800013237, 40.80704000001585], [-119.99881500003377, 40.81438099969193], [-119.9988729997601, 40.82178599973018], [-119.99890100024751, 40.831366999950276], [-119.99890100024751, 40.83152899983961], [-119.99890200007243, 40.83181100013765], [-119.99890299989734, 40.83197999977526], [-119.99890299989734, 40.83208999975837], [-119.9991670003863, 40.85786000030259], [-119.9992169997167, 40.86379899992208], [-119.99923400033343, 40.86587799975924], [-119.99923400033343, 40.865893999687906], [-119.99924600002902, 40.86738099996026], [-119.99924699985394, 40.86744800015309], [-119.99926299974744, 40.8693390002788], [-119.99927799981607, 40.871077000012406], [-119.99927899964096, 40.87120600006799], [-119.99927899964096, 40.87123199989601], [-119.99928000036421, 40.871370000223365], [-119.9992810001891, 40.871465999927004], [-119.9992879998618, 40.87236299985661], [-119.99929500043281, 40.873084000311536], [-119.999286000212, 40.873100999744196], [-119.999286000212, 40.87315899993342], [-119.99928500038708, 40.87363500019925], [-119.99928500038708, 40.87375100027054], [-119.99928399966386, 40.873965999917935], [-119.99928200001402, 40.87489799978448], [-119.99926699994542, 40.875384000333256], [-119.9992600002727, 40.8756290003251], [-119.9992519998768, 40.875900000122094], [-119.99925100005188, 40.8759310000432], [-119.9992879998618, 40.883869999981926], [-119.99931200015126, 40.88900100026562], [-119.99937099970248, 40.901339000248406], [-119.99940900023563, 40.91367599980166], [-119.99940900023563, 40.91369900006075], [-119.99940900023563, 40.91384399973871], [-119.99941099988546, 40.914414999872996], [-119.99941300043358, 40.91499300003409], [-119.9994150000834, 40.91561300007162], [-119.99940500003765, 40.91562699967247], [-119.99941799955816, 40.91676100026278], [-119.99942099993119, 40.917160000143234], [-119.99944400039574, 40.92079400010174], [-119.99950499959677, 40.93028700018197], [-119.99958599978763, 40.94870100016424], [-119.99959300035864, 40.94916000012777], [-119.99964000021431, 40.95224300017313], [-119.9996669999785, 40.95988899983377], [-119.99966299978053, 40.95990300022982], [-119.9996820000471, 40.963990999695675], [-119.99987500039096, 40.99989400010651], [-119.9998290003602, 41.00558400023475], [-119.9998290003602, 41.005638999704516], [-119.99982000013938, 41.006763000087346], [-119.9998150001165, 41.006818999827004], [-119.99986199997217, 41.00751399989832], [-119.99984400042882, 41.01191499993034], [-119.99984400042882, 41.01192500017064], [-119.99983199983495, 41.01475799973134], [-119.9998169997663, 41.01839200026763], [-119.99981000009363, 41.019914000135714], [-119.99981000009363, 41.019970999918236], [-119.99980199969771, 41.02183600016849], [-119.99980199969771, 41.02195100009247], [-119.99980099987279, 41.022211000123235], [-119.99988799991144, 41.03953800033107], [-119.99987500039096, 41.054040999804755], [-119.99995900005655, 41.065820999773344], [-119.9999420003381, 41.068504999914346], [-120.00003900042249, 41.08299900021501], [-120.00000799956204, 41.1023170003268], [-120.00000799956204, 41.10246199980502], [-119.99999699969139, 41.10974699999228], [-119.99999699969139, 41.11213199978511], [-119.99999699969139, 41.11223699970892], [-119.99999699969139, 41.112885999726444], [-119.99999500004155, 41.122558999812355], [-120.00001099993507, 41.12489800029813], [-119.99997400012515, 41.1265639998405], [-119.99990600035312, 41.13790400003635], [-119.99990499962988, 41.13805099993855], [-119.99990499962988, 41.138083999774665], [-119.99990499962988, 41.13812399979977], [-119.99990399980496, 41.13816000007211], [-119.99990399980496, 41.13818499972346], [-119.99990299998004, 41.138362000256656], [-119.99989799995717, 41.13926700015464], [-119.99989499958411, 41.139893000261694], [-119.9998929999343, 41.140235000269065], [-119.99986699999504, 41.14450999973005], [-119.99986699999504, 41.14457200031351], [-119.99979900022298, 41.155920999750606], [-119.99980900026871, 41.16226900020944], [-119.99980900026871, 41.162308000120376], [-119.99980699972059, 41.16232800018708], [-119.99981000009363, 41.1623470000081], [-119.99981299956838, 41.16434799983058], [-119.9998150001165, 41.16525099979147], [-119.9998150001165, 41.16542400020818], [-119.9998150001165, 41.16575199967797], [-119.99982299961408, 41.17056900009883], [-119.99984699990354, 41.1733220000796], [-119.99984699990354, 41.173344999704646], [-119.99987399966774, 41.17644399989882], [-119.99986600017012, 41.183974000326934], [-119.99988999956125, 41.1839729997414], [-119.99998400017088, 41.18396800019393], [-120.00104700000279, 41.183907000275525], [-120.00323299994105, 41.183865999877234], [-120.0053710001987, 41.183879000072295], [-120.00616000039423, 41.1838840003026], [-120.00887500023701, 41.18395400010685], [-120.00928600014072, 41.18395099970145], [-120.00938400005002, 41.1839499997917], [-120.0095170001194, 41.183948999881885], [-120.00958099969351, 41.183948999881885], [-120.00963199974711, 41.183948999881885], [-120.01132499976588, 41.183937000286825], [-120.01462700013779, 41.18396000024114], [-120.01472800042012, 41.18391799996575], [-120.0147610000321, 41.18390399986798], [-120.01785199961849, 41.18401699979913], [-120.01799300008378, 41.18401900029269], [-120.01817100035903, 41.18402100011017], [-120.02068799983508, 41.184030999872725], [-120.02132100039499, 41.18403500018293], [-120.02541700008695, 41.18405600028647], [-120.02920200033262, 41.184083999737986], [-120.02928199980023, 41.18408500032177], [-120.02933100020402, 41.18408500032177], [-120.02954899976392, 41.18408700013724], [-120.03100099975825, 41.18409799979727], [-120.03136300015652, 41.18410200010337], [-120.03296400011374, 41.18411899988056], [-120.03378400027141, 41.18399700026825], [-120.0338770001578, 41.18400099990444], [-120.03730800040114, 41.18414799988802], [-120.03821499969912, 41.184154999911165], [-120.04147400041333, 41.18418700029734], [-120.045548000364, 41.18409599998215], [-120.0471049999403, 41.184103999918314], [-120.04767800022576, 41.184103999918314], [-120.06012799968337, 41.18414999970155], [-120.06027499999647, 41.18414999970155], [-120.09768000041758, 41.18428900011404], [-120.09966299996623, 41.18429799993119], [-120.10021299978717, 41.18429500021764], [-120.10171300036036, 41.184285999724], [-120.10321399986017, 41.18427699990525], [-120.10510199987257, 41.18426600027528], [-120.10776700038495, 41.18424999976546], [-120.10924199994548, 41.184241999847075], [-120.11071599968115, 41.18423300002228], [-120.1113609999366, 41.184230000305746], [-120.11200600019205, 41.18422600000742], [-120.11733100029561, 41.184196000128516], [-120.12619700024733, 41.18414600007441], [-120.13160000016867, 41.18414099986406], [-120.1332339997379, 41.18413900005025], [-120.13750699988017, 41.18413499974641], [-120.13892700008746, 41.184130000211304], [-120.14487399998193, 41.18411199985356], [-120.14509499991486, 41.18411199985356], [-120.15314099970892, 41.1841070003167], [-120.15379000016236, 41.1841059997332], [-120.15564600038773, 41.1841059997332], [-120.16133899983899, 41.18410300001085], [-120.16141500000697, 41.18410300001085], [-120.16232200020325, 41.18408999986031], [-120.1623339998988, 41.18409799979727], [-120.1638539996652, 41.18410100019588], [-120.16599000027304, 41.184100000288375], [-120.17798100014639, 41.184095000074564], [-120.18994000023265, 41.184095000074564], [-120.1910929995779, 41.18409699988972], [-120.20085999987813, 41.18409599998215], [-120.20886499966433, 41.18409599998215], [-120.21004499967209, 41.18409599998215], [-120.21111699972484, 41.18409599998215], [-120.21208199964744, 41.18409599998215], [-120.21801299964837, 41.18409599998215], [-120.22163999971029, 41.18409599998215], [-120.22551299981951, 41.18409599998215], [-120.22840900031055, 41.18410200010337], [-120.23798400009184, 41.18412099969499], [-120.23898800037253, 41.18412300018543], [-120.24049600044334, 41.18412599990686], [-120.24113999997557, 41.18412699981397], [-120.24124799993061, 41.18412699981397], [-120.24130099963406, 41.18412699981397], [-120.25101500023085, 41.18414400026076], [-120.25243200006506, 41.18414899979479], [-120.2538639999679, 41.18415400000448], [-120.25446300019263, 41.18415699972449], [-120.26529199960152, 41.184190999921974], [-120.26530400019541, 41.184190999921974], [-120.26533599998247, 41.184190999921974], [-120.26569800038071, 41.1841919998281], [-120.2662049996456, 41.184194000316374], [-120.28678799983425, 41.18415900021384], [-120.30189399958343, 41.18412499999974], [-120.30829599976255, 41.18411199985356], [-120.30956799983183, 41.184117000066074], [-120.30995199997139, 41.18411500025157], [-120.31090600002335, 41.184112999760885], [-120.32105699956483, 41.18409400016695], [-120.33522800042691, 41.184095000074564], [-120.3353110002676, 41.184095000074564], [-120.33649499957498, 41.184095000074564], [-120.33663900041336, 41.184095000074564], [-120.37604400010154, 41.18409300025934], [-120.38527099972832, 41.18411099994623], [-120.38751799976593, 41.18411600015886], [-120.39372699960123, 41.18412699981397], [-120.39433699969659, 41.18412599990686], [-120.39465999973677, 41.18412499999974], [-120.39467800017846, 41.18412499999974], [-120.39482600031644, 41.18412599990686], [-120.39640399980914, 41.18413600032942], [-120.39654100007651, 41.18413499974641], [-120.3966470003817, 41.18413399983942], [-120.39691799964507, 41.184131000118356], [-120.41077899998744, 41.18415699972449], [-120.42592499991957, 41.18418599971507], [-120.42614500002762, 41.18418599971507], [-120.4281100000329, 41.18419000001585], [-120.42818399965277, 41.18419000001585], [-120.42935799981272, 41.1841919998281], [-120.42943300015581, 41.1841919998281], [-120.42973600010451, 41.1841919998281], [-120.43013699996249, 41.18419299973421], [-120.43143099977308, 41.184195000222445], [-120.47066700030518, 41.18399499977396], [-120.47380899994522, 41.184012000255], [-120.47395899973306, 41.18401300016385], [-120.4740039999389, 41.18401300016385], [-120.4740690002362, 41.18401300016385], [-120.4745260001707, 41.18401499998152], [-120.47608399957191, 41.184022000018885], [-120.47686600009474, 41.18402700023832], [-120.49336899958662, 41.18407200016766], [-120.50046899972467, 41.18395599992631], [-120.50140400040837, 41.18394000001678], [-120.50465599965327, 41.18395900033147], [-120.51222199994663, 41.183987999733645], [-120.51399600015624, 41.18399599968307], [-120.5140070000269, 41.18400400030754], [-120.51566999990841, 41.18400600012548], [-120.5255180003995, 41.184047999668344], [-120.53090700007712, 41.184058000102816], [-120.53925599981991, 41.18409099976798], [-120.54059300018652, 41.18409599998215], [-120.55271100028145, 41.18413900005025], [-120.55750199955928, 41.18415599981783], [-120.56741299979957, 41.184194000316374], [-120.56747999974671, 41.184194000316374], [-120.59309799961069, 41.18432699985932], [-120.60694600043259, 41.18439799976909], [-120.61066600038095, 41.18441699995085], [-120.61888999955194, 41.1844589999062], [-120.62055599980653, 41.18446799969993], [-120.62068800005099, 41.1844690002779], [-120.62607599990372, 41.18403899981684], [-120.62654100023413, 41.18403799990839], [-120.63259000023585, 41.18402499974495], [-120.6326150003502, 41.18402499974495], [-120.63810699996, 41.18401400007269], [-120.63856800009248, 41.18401300016385], [-120.64163500028772, 41.18401400007269], [-120.64224299983493, 41.18401499998152], [-120.64793899965926, 41.184015999890335], [-120.65033600038302, 41.18401699979913], [-120.6516679998284, 41.18400700003443], [-120.65184699992858, 41.18400600012548], [-120.65766099975366, 41.183999000086395], [-120.65796500042558, 41.18399599968307], [-120.66457299957074, 41.18393100015048], [-120.66666800017069, 41.18384299988996], [-120.66715900044038, 41.18384499971282], [-120.66759700010827, 41.183847000211635], [-120.71590000043359, 41.18411099994623], [-120.71676700044692, 41.18411600015886], [-120.72075799965857, 41.18413900005025], [-120.72093299956077, 41.18413999995717], [-120.73045600036185, 41.184196000128516], [-120.73109300022138, 41.184190999921974], [-120.73149300025446, 41.18419000001585], [-120.73196299970945, 41.18418499980885], [-120.73294000022594, 41.184177999788915], [-120.7392600003893, 41.184131000118356], [-120.74390900027521, 41.18409599998215], [-120.74593899967957, 41.18408299983022], [-120.74666000010299, 41.18408100001463], [-120.74757300014706, 41.184076999707194], [-120.74765699981266, 41.18407599979931], [-120.74767899955398, 41.18407599979931], [-120.7505189999685, 41.184042000218206], [-120.75141699994394, 41.184042000218206], [-120.75243499957001, 41.1840430001266], [-120.75411300041849, 41.184044999943346], [-120.76294300038518, 41.18403799990839], [-120.76443300001434, 41.18403799990839], [-120.76593400041244, 41.18403699999991], [-120.76866500014876, 41.184036000091425], [-120.77361199996054, 41.1840340002744], [-120.77581700016535, 41.18403299968984], [-120.78201099993201, 41.184030999872725], [-120.78238000000296, 41.184030999872725], [-120.79198999994438, 41.18402900005555], [-120.79200800038603, 41.18402900005555], [-120.79259500001686, 41.18402900005555], [-120.802363000142, 41.18402299992759], [-120.80248600016564, 41.18402299992759], [-120.803573000287, 41.184022000018885], [-120.80478199970875, 41.184020000201436], [-120.80626300001542, 41.18402100011017], [-120.80638199984108, 41.18402100011017], [-120.8221810004246, 41.18401499998152], [-120.82353600033454, 41.18401499998152], [-120.82360599975642, 41.18401499998152], [-120.83375299999828, 41.18401099967005], [-120.84142600042178, 41.18400700003443], [-120.84920000022929, 41.18400199981346], [-120.85182899985831, 41.18400099990444], [-120.85445699966243, 41.18399999999541], [-120.85450400041644, 41.18399999999541], [-120.87666900029576, 41.183977000055194], [-120.87859900014098, 41.18399800017734], [-120.88146399977155, 41.18400600012548], [-120.88250700041027, 41.18400999976117]]]}, "properties": {"GEOID": "06035", "NAME": "Lassen County"}}]}