{"type": "FeatureCollection", "features": [{"type": "Feature", "geometry": {"type": "Polygon", "coordinates": [[[-120.20886499966433, 41.18409599998215], [-120.20085999987813, 41.18409599998215], [-120.1910929995779, 41.18409699988972], [-120.18994000023265, 41.184095000074564], [-120.17798100014639, 41.184095000074564], [-120.16599000027304, 41.184100000288375], [-120.1638539996652, 41.18410100019588], [-120.1623339998988, 41.18409799979727], [-120.16232200020325, 41.18408999986031], [-120.16141500000697, 41.18410300001085], [-120.16133899983899, 41.18410300001085], [-120.15564600038773, 41.1841059997332], [-120.15379000016236, 41.1841059997332], [-120.15314099970892, 41.1841070003167], [-120.14509499991486, 41.18411199985356], [-120.14487399998193, 41.18411199985356], [-120.13892700008746, 41.184130000211304], [-120.13750699988017, 41.18413499974641], [-120.1332339997379, 41.18413900005025], [-120.13160000016867, 41.18414099986406], [-120.12619700024733, 41.18414600007441], [-120.11733100029561, 41.184196000128516], [-120.11200600019205, 41.18422600000742], [-120.1113609999366, 41.184230000305746], [-120.11071599968115, 41.18423300002228], [-120.10924199994548, 41.184241999847075], [-120.10776700038495, 41.18424999976546], [-120.10510199987257, 41.18426600027528], [-120.10321399986017, 41.18427699990525], [-120.10171300036036, 41.184285999724], [-120.10021299978717, 41.18429500021764], [-120.09966299996623, 41.18429799993119], [-120.09768000041758, 41.18428900011404], [-120.06027499999647, 41.18414999970155], [-120.06012799968337, 41.18414999970155], [-120.04767800022576, 41.184103999918314], [-120.0471049999403, 41.184103999918314], [-120.045548000364, 41.18409599998215], [-120.04147400041333, 41.18418700029734], [-120.03821499969912, 41.184154999911165], [-120.03730800040114, 41.18414799988802], [-120.0338770001578, 41.18400099990444], [-120.03378400027141, 41.18399700026825], [-120.03296400011374, 41.18411899988056], [-120.03136300015652, 41.18410200010337], [-120.03100099975825, 41.18409799979727], [-120.02954899976392, 41.18408700013724], [-120.02933100020402, 41.18408500032177], [-120.02928199980023, 41.18408500032177], [-120.02920200033262, 41.184083999737986], [-120.02541700008695, 41.18405600028647], [-120.02132100039499, 41.18403500018293], [-120.02068799983508, 41.184030999872725], [-120.01817100035903, 41.18402100011017], [-120.01799300008378, 41.18401900029269], [-120.01785199961849, 41.18401699979913], [-120.0147610000321, 41.18390399986798], [-120.01472800042012, 41.18391799996575], [-120.01462700013779, 41.18396000024114], [-120.01132499976588, 41.183937000286825], [-120.00963199974711, 41.183948999881885], [-120.00958099969351, 41.183948999881885], [-120.0095170001194, 41.183948999881885], [-120.00938400005002, 41.1839499997917], [-120.00928600014072, 41.18395099970145], [-120.00887500023701, 41.18395400010685], [-120.00616000039423, 41.1838840003026], [-120.0053710001987, 41.183879000072295], [-120.00323299994105, 41.183865999877234], [-120.00104700000279, 41.183907000275525], [-119.99998400017088, 41.18396800019393], [-119.99988999956125, 41.1839729997414], [-119.99986600017012, 41.183974000326934], [-119.99986399962198, 41.18477300016734], [-119.99984799972846, 41.193647999696495], [-119.99984600007863, 41.19457299987098], [-119.99983199983495, 41.201507999767166], [-119.99983100001003, 41.20199200027392], [-119.99982500016225, 41.2050209997703], [-119.99982299961408, 41.20587199980133], [-119.9998209999643, 41.20670099974892], [-119.9998209999643, 41.206723000254215], [-119.99982000013938, 41.20701399988292], [-119.99982000013938, 41.207304000015974], [-119.99981799959122, 41.20854300027927], [-119.9998150001165, 41.20978200005793], [-119.99981400029158, 41.21049600013245], [-119.99981199974346, 41.21120999984868], [-119.99980699972059, 41.213462000278476], [-119.99980199969771, 41.215714000220444], [-119.99979199965195, 41.22058999981344], [-119.99978199960624, 41.22546600007281], [-119.99977900013148, 41.22680899988842], [-119.99977599975843, 41.22815199982054], [-119.99976999991065, 41.231220000257935], [-119.99976300023795, 41.234288999759755], [-119.99975999986492, 41.23606100022604], [-119.99976700043592, 41.23662499984104], [-119.9997799999564, 41.24185100014341], [-119.9997799999564, 41.241948000081635], [-119.99986699999504, 41.244269999977256], [-119.99992800009439, 41.24588700011374], [-120.00007299985934, 41.24975800002025], [-120.00004899956991, 41.256375000058064], [-120.000047999745, 41.25676500011619], [-120.00003000020165, 41.263357000262616], [-120.00002799965353, 41.264004999732855], [-120.00001599995794, 41.26648699969296], [-120.00001599995794, 41.26654800027463], [-120.00001599995794, 41.26742300008883], [-120.00001599995794, 41.267493000323604], [-119.99999000001867, 41.27479399982064], [-119.99998900019375, 41.27501199984314], [-119.99993200029236, 41.29243299978682], [-119.99993099956912, 41.292797000170026], [-119.9999080000029, 41.29975000016467], [-119.99988500043669, 41.30706700028672], [-119.99986500034522, 41.31310099973123], [-119.99983600003287, 41.32249099984829], [-119.99983600003287, 41.32261000003467], [-119.99983199983495, 41.323637000169825], [-119.99982000013938, 41.327318999690334], [-119.99982000013938, 41.3274500000753], [-119.99973399992564, 41.355575999725595], [-119.99969899976556, 41.36511000020786], [-119.99969999959045, 41.365322999865825], [-119.99971600038229, 41.36781399997494], [-119.99975700039016, 41.37465000017756], [-119.9997029999635, 41.39821199996306], [-119.9996820000471, 41.40642700023059], [-119.99967399965118, 41.41057799984058], [-119.99966500032868, 41.414730000087225], [-119.99965899958258, 41.41766699967873], [-119.99965299973478, 41.42060399984201], [-119.9996610001307, 41.42215800021217], [-119.99964799971191, 41.42313999983872], [-119.99964799971191, 41.42327499983972], [-119.99964199986412, 41.42641000033364], [-119.99963500019145, 41.42967900030192], [-119.99963299964331, 41.432470000336224], [-119.99963099999349, 41.43526000015174], [-119.99962199977264, 41.435810999739964], [-119.99962199977264, 41.43607299991758], [-119.99962099994772, 41.436334999711136], [-119.99962099994772, 41.436412999728084], [-119.99961199972691, 41.44117199995538], [-119.99960199968118, 41.44593199995334], [-119.99959900020642, 41.447325999982645], [-119.99959500000848, 41.44926500013925], [-119.99958999998559, 41.451780000076546], [-119.99958099976475, 41.45594999981887], [-119.99956599969615, 41.46308400023546], [-119.99955200035077, 41.4702180000561], [-119.99951700019066, 41.47856699970003], [-119.99951700019066, 41.478668999988884], [-119.9995120001678, 41.480898000301835], [-119.99950799996982, 41.482727000056926], [-119.99950299994698, 41.484931999837336], [-119.99949799992409, 41.48713799992902], [-119.99949600027425, 41.487983999776034], [-119.99949399972611, 41.4888260002124], [-119.99948899970327, 41.48900100012517], [-119.99949399972611, 41.48901699996673], [-119.99948600022853, 41.492751000010216], [-119.9994779998326, 41.496457999936084], [-119.9994779998326, 41.4964989998069], [-119.99947500035788, 41.49819500020798], [-119.9994710001599, 41.49989399994211], [-119.99946500031211, 41.50022800028686], [-119.99904600001247, 41.521809000065794], [-119.99904299963943, 41.52286400029205], [-119.99901800042339, 41.52597900021592], [-119.99899300030903, 41.529094000145584], [-119.99895700032403, 41.533569999710814], [-119.998921000339, 41.53804499968539], [-119.99889799987446, 41.54087099990819], [-119.99887600013315, 41.54369800012706], [-119.99886799973726, 41.54466500001027], [-119.99886000023965, 41.54563200022308], [-119.99885900041473, 41.54576499991013], [-119.99876300015525, 41.557834000136324], [-119.99876200033034, 41.557943000180586], [-119.99874499971358, 41.56008999974184], [-119.99857499983426, 41.581431999869906], [-119.99830700004566, 41.61554400016091], [-119.99830299984771, 41.6161919996703], [-119.99829500035011, 41.61747300031653], [-119.99828699995419, 41.61881800030873], [-119.99886100006454, 41.62493699988457], [-119.99889700004954, 41.65443099986874], [-119.99890200007243, 41.65789900025759], [-119.99889299985159, 41.658510999812925], [-119.99882199970648, 41.663707999803634], [-119.99882199970648, 41.66376699975375], [-119.99881900023175, 41.6642489999945], [-119.99881900023175, 41.66432099977639], [-119.99882300042972, 41.66514800029664], [-119.9988250000795, 41.66516199969222], [-119.99875399993442, 41.671328000299965], [-119.99875099956135, 41.674798000101454], [-119.99875099956135, 41.6748610003281], [-119.99874700026172, 41.675942999953214], [-119.99872999964498, 41.69168199976161], [-119.99869799985792, 41.72063199991541], [-119.99829500035011, 41.74991500007197], [-119.99833200016003, 41.755575000317144], [-119.9984719999021, 41.773651999752296], [-119.99847299972701, 41.7737170000606], [-119.99849899966631, 41.7769149998039], [-119.99850000038954, 41.77698499971543], [-119.99862900026095, 41.79368800028907], [-119.9986739995685, 41.799292999821674], [-119.99867500029171, 41.79947799995886], [-119.99869399965998, 41.80207100007905], [-119.99869500038321, 41.802159999962335], [-119.99869299983506, 41.8021799997235], [-119.99889600022465, 41.82740399969113], [-119.99889600022465, 41.827465000141444], [-119.99895700032403, 41.83512700016901], [-119.99895800014892, 41.83518999983537], [-119.99903500014182, 41.84474599977525], [-119.99921400024196, 41.867140999708454], [-119.99927600016623, 41.87489499996016], [-119.99926899959523, 41.88211200031652], [-119.99926100009762, 41.89128600029555], [-119.99925299970172, 41.89945599998477], [-119.99925299970172, 41.89962100012922], [-119.99929500043281, 41.902497999803195], [-119.99929500043281, 41.90284199973895], [-119.99929200005975, 41.90635000005903], [-119.99929200005975, 41.90653800017598], [-119.99932999969458, 41.90764299995077], [-119.99933200024273, 41.90770199981231], [-119.99930499958023, 41.922229999683296], [-119.99930399975534, 41.92256999992028], [-119.9993020001055, 41.92374799979747], [-119.99929999955737, 41.92492500010735], [-119.9992650002956, 41.94348599982516], [-119.99923000013548, 41.9619729999776], [-119.99923000013548, 41.96204699977917], [-119.99920400019623, 41.9751630001904], [-119.9991899999525, 41.97897499979071], [-119.9991899999525, 41.979046999822216], [-119.99916900003612, 41.99372999983506], [-119.99923400033343, 41.9949440002954], [-120.0004000000975, 41.99493299973198], [-120.00429099975007, 41.99496399985833], [-120.00514600006781, 41.99495000029845], [-120.00573100004883, 41.99495000029845], [-120.00617999958739, 41.99495099974256], [-120.00750100006046, 41.99495799985659], [-120.00815700018659, 41.99496299974683], [-120.01049000043794, 41.99497300019369], [-120.0117690001799, 41.9949800003053], [-120.0124949997279, 41.99498899997081], [-120.0135500000622, 41.99498600030497], [-120.01379199991152, 41.99498799985966], [-120.01474900033652, 41.994991000193004], [-120.01582200021417, 41.99499200030411], [-120.01627699960052, 41.99499200030411], [-120.01778300002152, 41.99499200030411], [-120.01861599969963, 41.99499200030411], [-120.0195360003147, 41.9949929997475], [-120.02048600016872, 41.9949929997475], [-120.0213659997025, 41.99499499996962], [-120.02185699997219, 41.9949929997475], [-120.02308100036089, 41.9949929997475], [-120.02509700041982, 41.9949929997475], [-120.02575699984558, 41.9949929997475], [-120.02740800003151, 41.99499499996962], [-120.0281529998461, 41.99499499996962], [-120.02927299957942, 41.99498899997081], [-120.03034200015739, 41.99498799985966], [-120.03125600002637, 41.9949869997485], [-120.0317299996793, 41.99498400008261], [-120.0331149997265, 41.99498099974894], [-120.03470800018613, 41.99497800008275], [-120.0352069999534, 41.99497800008275], [-120.03600000034687, 41.994975999860145], [-120.03699000038382, 41.99497400030507], [-120.0408249999599, 41.99496800030428], [-120.04214800008278, 41.99496399985833], [-120.04245299968133, 41.99496499996985], [-120.04273800008666, 41.99496299974683], [-120.04281699972941, 41.99496200030291], [-120.04287000033118, 41.99496200030291], [-120.04339099983973, 41.994961000191346], [-120.0441909999059, 41.994958999968205], [-120.04430399988381, 41.994958999968205], [-120.04484799985694, 41.994958999968205], [-120.04504299985062, 41.994958999968205], [-120.04597500016126, 41.994956000300995], [-120.0464150003773, 41.994955000189336], [-120.04674599991512, 41.994955000189336], [-120.04698299974154, 41.99495400007765], [-120.0475340002857, 41.994952999966], [-120.04765899995918, 41.994952999966], [-120.04935500035096, 41.99494900018674], [-120.05156399985543, 41.994944999739594], [-120.05291899976538, 41.994942000071724], [-120.05424699991116, 41.994938999736064], [-120.05528399980379, 41.994938000291775], [-120.05605399973268, 41.994936000067916], [-120.05624600025165, 41.99493700017983], [-120.05644200007023, 41.994936000067916], [-120.056664999653, 41.99493499995594], [-120.05848900009131, 41.99493200028759], [-120.05977200003122, 41.99493100017554], [-120.05996899967471, 41.99493000006353], [-120.06034100011871, 41.99493000006353], [-120.06179599958776, 41.99492799983937], [-120.06325000013024, 41.994925000170696], [-120.06361199963018, 41.994924000058596], [-120.0648030004069, 41.99492199983424], [-120.06535900007557, 41.99492099972209], [-120.06613700040045, 41.99491900016529], [-120.06688200021503, 41.99491800005303], [-120.06722399962348, 41.99491699994083], [-120.06828800017858, 41.99491499971625], [-120.06942399980542, 41.99491900016529], [-120.0699350001666, 41.994924000058596], [-120.07072699983684, 41.99493000006353], [-120.07154600016958, 41.99492299994643], [-120.07189299960089, 41.99491699994083], [-120.07244499996993, 41.994912000046966], [-120.07263499994073, 41.99490999982228], [-120.07333799992253, 41.994902000258115], [-120.07398099962984, 41.994896000250534], [-120.07483900032064, 41.99489799980807], [-120.07556499986866, 41.99489899992058], [-120.07680299960272, 41.99489199980006], [-120.0775609998361, 41.99488800001701], [-120.07888200030916, 41.99488200000807], [-120.07974500012452, 41.99487899966959], [-120.08086900005581, 41.9948759999986], [-120.08183700035143, 41.994873999772786], [-120.08256399972436, 41.99487200021451], [-120.08315600027638, 41.994869999988566], [-120.08493299996071, 41.994861999751784], [-120.08586699992118, 41.994857999966804], [-120.08730200019707, 41.99485300006832], [-120.08817599988308, 41.99484999972846], [-120.09110599981098, 41.99483999992987], [-120.09112400025266, 41.99483999992987], [-120.09120299989537, 41.99483999992987], [-120.09279700017991, 41.994833999916445], [-120.09334299980287, 41.99483199968932], [-120.09447299958191, 41.99482900001612], [-120.09574300000136, 41.994824000115344], [-120.09654700026547, 41.99482099977412], [-120.09715700036084, 41.99481800010041], [-120.0978939997795, 41.994816999986575], [-120.09815599972033, 41.99481599987278], [-120.09848299995846, 41.994813000198825], [-120.09895300031177, 41.99481099997098], [-120.09938099993393, 41.99480999985708], [-120.10019299969566, 41.99480899974313], [-120.1012730001443, 41.99480499995482], [-120.10309300038467, 41.9947989999381], [-120.10478499968019, 41.99479600026334], [-120.10493600019123, 41.99479600026334], [-120.106144999613, 41.99479500014917], [-120.10673899981485, 41.99479400003497], [-120.10805600008997, 41.99479099969238], [-120.10889200014114, 41.99479000024577], [-120.10974800028379, 41.99478699990295], [-120.11059699985543, 41.99478699990295], [-120.11136699978438, 41.994785999788625], [-120.1120510003979, 41.99478499967429], [-120.11280200006027, 41.99478300011326], [-120.11294699982523, 41.9947989999381], [-120.11311000003185, 41.9947989999381], [-120.11382300005937, 41.99479500014917], [-120.11464800023988, 41.99479099969238], [-120.1155780000024, 41.994785999788625], [-120.11615299993765, 41.99478300011326], [-120.11642300027441, 41.99478199999887], [-120.11673600026884, 41.99477900032333], [-120.1173870003721, 41.99477599997998], [-120.11888000037429, 41.994772000189606], [-120.12086600029602, 41.994767000284405], [-120.12241899967437, 41.99475900003462], [-120.12381399976728, 41.9947519998987], [-120.12441200016708, 41.99474900022173], [-120.12579999968898, 41.99474200008471], [-120.12799599967299, 41.99473200026915], [-120.12861300033937, 41.9947289999236], [-120.12974700031634, 41.994722999899714], [-120.13041299958992, 41.99472000022138], [-120.1312989998698, 41.99471599975983], [-120.13181899955347, 41.99471300008117], [-120.13246200015912, 41.99470999973472], [-120.13277699980338, 41.99470800017133], [-120.13352699964084, 41.99470599994019], [-120.1337769998861, 41.994703000261055], [-120.1346299996557, 41.994698999798494], [-120.13608699967288, 41.99469100020781], [-120.1367150002099, 41.99468799986032], [-120.13778800008757, 41.994682999948516], [-120.1385570001916, 41.994679000152296], [-120.1400929998515, 41.994670999891454], [-120.14088799989479, 41.99466800021066], [-120.14214499989544, 41.99466399974585], [-120.142965999878, 41.99466100006474], [-120.1444920003905, 41.99465600015081], [-120.14538199997004, 41.99465299980168], [-120.14663999979558, 41.99464799988707], [-120.14751500020483, 41.994646000321744], [-120.14847699975438, 41.99464199985555], [-120.14967400037891, 41.994638000056746], [-120.1511749998787, 41.99463300014102], [-120.15191200019568, 41.9946299997908], [-120.15200000005923, 41.9946299997908], [-120.15252800013883, 41.99462800022485], [-120.15321500022709, 41.994625999991236], [-120.15366100029094, 41.99462399975757], [-120.1542219999825, 41.99462200019144], [-120.1547299999706, 41.99461999995765], [-120.15533400021819, 41.994617999723744], [-120.1560949999263, 41.994615000040454], [-120.15661399978507, 41.99461299980644], [-120.15716399960598, 41.994611000239956], [-120.15745999988198, 41.99461000012292], [-120.15781200023447, 41.994609000005816], [-120.15805599973365, 41.9946079998887], [-120.15825400010037, 41.99460699977162], [-120.15852199988898, 41.99460600032211], [-120.15873000030143, 41.99460600032211], [-120.15895000040945, 41.99460500020494], [-120.15923499991649, 41.99460400008781], [-120.15940999981869, 41.99460299997062], [-120.1596080001854, 41.99460299997062], [-120.16009299970898, 41.9946019998534], [-120.1602559999156, 41.99460099973623], [-120.16049600011512, 41.99460099973623], [-120.16071100020027, 41.99460099973623], [-120.16076100042898, 41.994600000286624], [-120.16085699979014, 41.994600000286624], [-120.16100499992815, 41.994600000286624], [-120.16138499986974, 41.99459900016936], [-120.16158599971116, 41.99459800005208], [-120.16180599981921, 41.99459699993485], [-120.16207500033103, 41.99459699993485], [-120.16223199979156, 41.99459599981754], [-120.1624469998767, 41.99459599981754], [-120.16261099990824, 41.99459499970026], [-120.16287899969687, 41.99459499970026], [-120.16306000034514, 41.99459400025057], [-120.16335800027096, 41.99459400025057], [-120.16356800033326, 41.994593000133214], [-120.16380299961156, 41.994593000133214], [-120.16411700032926, 41.99459200001585], [-120.1645919998071, 41.994590999898506], [-120.1649600000531, 41.99458999978111], [-120.16509099957437, 41.99458999978111], [-120.16554699968395, 41.99458900033134], [-120.16569099962399, 41.99458800021391], [-120.16600799981642, 41.99458800021391], [-120.16697399956391, 41.99458499986161], [-120.1678110003383, 41.994583000294256], [-120.16835500031145, 41.99458200017672], [-120.16864999986421, 41.99458100005923], [-120.16903400000376, 41.99457999994167], [-120.16957899980183, 41.9945789998241], [-120.16974200000845, 41.9945789998241], [-120.17064099980881, 41.99457600013898], [-120.17132500042233, 41.99457500002138], [-120.17212499959018, 41.994572999786065], [-120.1729630001895, 41.99457100021838], [-120.173744999814, 41.99456899998293], [-120.17447399973506, 41.99456699974746], [-120.17526600030361, 41.99456600029734], [-120.17598600000383, 41.99456400006178], [-120.17670300022932, 41.99456199982616], [-120.17733500006598, 41.994560999708305], [-120.17770900015982, 41.99456000025808], [-120.17811900023861, 41.99455900014019], [-120.17851500007374, 41.99455800002234], [-120.17892099995461, 41.99455699990441], [-120.1790890001841, 41.99455499966858], [-120.1816719997824, 41.99452199977373], [-120.18357300021358, 41.99450300019065], [-120.1848750004201, 41.994486000172415], [-120.18802600028094, 41.99445200012222], [-120.19049699972625, 41.99442299998655], [-120.19292299986401, 41.99439399983765], [-120.19562799966103, 41.994363000101266], [-120.19717400026501, 41.99434499992439], [-120.19835699974749, 41.994331999682174], [-120.19883299994855, 41.99432400004536], [-120.19926399994377, 41.994315999739946], [-120.19952900025764, 41.99430999967707], [-120.20028099974492, 41.994288999786555], [-120.2011229996439, 41.994277999777516], [-120.20142300011787, 41.99427199971111], [-120.20203999988591, 41.994259000121644], [-120.2025739998133, 41.994248000107426], [-120.20267199972258, 41.9942409999153], [-120.20361400007897, 41.99422100012518], [-120.20394600034, 41.99422000000202], [-120.20465699981936, 41.99420500015505], [-120.2063840001733, 41.99416999983079], [-120.20930599970531, 41.99410999970701], [-120.2128819997136, 41.99403699989184], [-120.21495300002411, 41.99399399979691], [-120.21712100041904, 41.993950000213125], [-120.21798199968623, 41.99394000027313], [-120.21993099979802, 41.99389499985608], [-120.2205190001521, 41.99388300031815], [-120.22195400042797, 41.99385500005212], [-120.22394700002238, 41.99381500022301], [-120.22569899959234, 41.99377900022181], [-120.22842900040204, 41.993727000109935], [-120.228610000152, 41.993723000253624], [-120.23026200016287, 41.993691000058945], [-120.23086200021248, 41.99367899981483], [-120.23110099968879, 41.99367499995552], [-120.23260700010977, 41.9936450000012], [-120.23377000039909, 41.99362200029372], [-120.23422300013563, 41.99361299976731], [-120.23528699979244, 41.99359299977985], [-120.23557800004556, 41.99358700031652], [-120.2368199999776, 41.99356299978688], [-120.23724500012506, 41.99355399991978], [-120.238339999744, 41.993532999779774], [-120.23923699989454, 41.993515000035764], [-120.2398600004087, 41.99350299975853], [-120.24090700034706, 41.9934699999859], [-120.24158900041245, 41.99344700021517], [-120.24198799972233, 41.99343499992507], [-120.24443399995155, 41.99335300010785], [-120.24458100026467, 41.993349000228044], [-120.24517899976614, 41.99332900015763], [-120.24653600022424, 41.99328399997625], [-120.24730600015316, 41.9932589998617], [-120.24799800026432, 41.993233999737384], [-120.24999599988156, 41.993170000175496], [-120.25348200037648, 41.99304999998889], [-120.25438200000175, 41.9930270000664], [-120.25562499975874, 41.99298199967151], [-120.25649900034304, 41.992953000201304], [-120.25698800006458, 41.992949000296356], [-120.25762599974904, 41.99294499972355], [-120.2625640002383, 41.99292199976306], [-120.2632820002887, 41.992916999712534], [-120.27053399986438, 41.99288099987107], [-120.27209399981375, 41.99286599970853], [-120.27692099997492, 41.992879999726796], [-120.27887299956143, 41.9929029997024], [-120.2791579999668, 41.99289600003002], [-120.28066100001472, 41.99285600026589], [-120.28212600042785, 41.99281699995418], [-120.28404500040241, 41.992770999932496], [-120.2864239997862, 41.99305799978583], [-120.28726800023328, 41.99304799970569], [-120.28919800007847, 41.99302800020836], [-120.29064500004995, 41.9930109997961], [-120.291373999971, 41.9930040001356], [-120.29208100015076, 41.99303499986623], [-120.2927470003226, 41.993048999847325], [-120.29292700024767, 41.99303600000802], [-120.29357900017585, 41.993024000308125], [-120.29371200024522, 41.993020999882056], [-120.29441199985396, 41.99300800003708], [-120.29454599974827, 41.99301199993831], [-120.2965059997307, 41.99298500009942], [-120.29751400020932, 41.99299299990447], [-120.29807499990089, 41.99299799994908], [-120.29975700004898, 41.99301499969716], [-120.29983900006475, 41.9930109997961], [-120.30164300041157, 41.99300900017929], [-120.3040390004121, 41.993048999847325], [-120.30667899991178, 41.99312600002207], [-120.30694300040075, 41.99313399980941], [-120.30730900009867, 41.99313499994969], [-120.30861899980276, 41.99315899997306], [-120.31004999988068, 41.993171999787194], [-120.31396599964759, 41.993122000128004], [-120.31758000018904, 41.99315100018882], [-120.31837699988216, 41.993147000296325], [-120.3184160002402, 41.99314600015627], [-120.32109300044812, 41.99313399980941], [-120.32387400041314, 41.99314500001616], [-120.32575099965659, 41.99314299973596], [-120.32601500014556, 41.99314299973596], [-120.32638699969121, 41.99258600003203], [-120.32838199983378, 41.99259700033344], [-120.32853900019258, 41.99259399988724], [-120.337191999709, 41.99265299995704], [-120.35635800006342, 41.99277499984863], [-120.367866000063, 41.9928479997759], [-120.37802599982533, 41.99291299980533], [-120.3826499995969, 41.99294199996137], [-120.3908179995897, 41.99299400004697], [-120.3952799998779, 41.99302200002411], [-120.4011819995665, 41.99306000006872], [-120.40832799973532, 41.99310499974085], [-120.41398500009987, 41.99314100012328], [-120.45044499979154, 41.99337200003418], [-120.45154799980642, 41.99337900032187], [-120.48793399987824, 41.99361299976731], [-120.48901299960367, 41.99361299976731], [-120.49113699961765, 41.99362600015637], [-120.49121899963339, 41.99362600015637], [-120.4925219996648, 41.99361500003275], [-120.50569199972097, 41.99361899989584], [-120.50843500005115, 41.99362200029372], [-120.51022500015425, 41.99361500003275], [-120.51054099962346, 41.993616000165474], [-120.5109020001968, 41.993612000302186], [-120.51779399992238, 41.993546000185184], [-120.52051399978801, 41.99352500004253], [-120.52224399961668, 41.99350600016188], [-120.53254300019448, 41.9934230003004], [-120.53295800029618, 41.99342700017556], [-120.53596000019412, 41.99340999986987], [-120.53746400006698, 41.9934230003004], [-120.54249100024468, 41.9933699997611], [-120.54591499991702, 41.993351999971], [-120.55072500035976, 41.99332300000176], [-120.55273399984766, 41.99331000021847], [-120.55855400041885, 41.99326899990869], [-120.56070199982393, 41.99325399983765], [-120.56486299981323, 41.99322499982371], [-120.56704399972861, 41.99320699999265], [-120.56917100011563, 41.993189000156455], [-120.56997500037977, 41.99318000023647], [-120.57034000025274, 41.9931740000665], [-120.57238200025094, 41.99314600015627], [-120.57341800031867, 41.99312600002207], [-120.57734800032928, 41.99306699972307], [-120.57865499966034, 41.99304600009004], [-120.5812349997839, 41.9930040001356], [-120.58337700023951, 41.99297100010425], [-120.58449199994998, 41.99296700020043], [-120.58658900019974, 41.99296799967567], [-120.58790099955368, 41.99296899981851], [-120.58853099974051, 41.99296999996138], [-120.5902399996528, 41.99297100010425], [-120.59104300009201, 41.99297100010425], [-120.59153699983644, 41.99297100010425], [-120.59191299958005, 41.992972000247036], [-120.59224599966599, 41.992972000247036], [-120.60297799988885, 41.992977999768385], [-120.60317500043065, 41.99297899991106], [-120.60319499962382, 41.99297899991106], [-120.60358200013643, 41.992980000053784], [-120.60394199998653, 41.99298199967151], [-120.60424800030829, 41.992982999814124], [-120.60446699969307, 41.99298399995678], [-120.60527900035311, 41.99298699971693], [-120.6055660004083, 41.992987999859515], [-120.60607400039642, 41.99299000014461], [-120.60649699999571, 41.99299199976201], [-120.61589000020214, 41.99302899968264], [-120.61617100040952, 41.99302899968264], [-120.61623400015874, 41.99302899968264], [-120.61972200030347, 41.99304300033267], [-120.61987600028927, 41.99304399980672], [-120.62094699961877, 41.99304799970569], [-120.62129099957535, 41.993048999847325], [-120.62200899962575, 41.99305200027208], [-120.62425499983846, 41.99306000006872], [-120.62510599995827, 41.99306399996669], [-120.62543599967113, 41.99306500010807], [-120.62561300012145, 41.99306600024938], [-120.62588099991005, 41.99306699972307], [-120.62638499970019, 41.99306900000572], [-120.62666199970964, 41.99307000014698], [-120.62697600042732, 41.99307100028826], [-120.62734600032316, 41.99307299990307], [-120.627716000219, 41.99307400004431], [-120.62805000012985, 41.99307600032669], [-120.62854200022446, 41.9930779999414], [-120.62875099956352, 41.9930779999414], [-120.62906399955794, 41.99308000022366], [-120.63021000012884, 41.99308400012037], [-120.63048499959015, 41.99308500026143], [-120.63190499979741, 41.99309099977208], [-120.63335599996684, 41.99309599980899], [-120.63366099956535, 41.993094999668095], [-120.63461799999035, 41.99310099984547], [-120.63501800002345, 41.99310300012699], [-120.63651900042157, 41.993109000303654], [-120.6377400004372, 41.99311300019849], [-120.63919300025641, 41.993118999706546], [-120.64051700020426, 41.993123999741215], [-120.64138199966942, 41.99312700016243], [-120.64258599996661, 41.99313200019652], [-120.6440620002504, 41.993137999702725], [-120.64438699994041, 41.99313899984295], [-120.64471199963043, 41.99313999998315], [-120.647435999694, 41.993150000048836], [-120.64869799971753, 41.99316500014439], [-120.64983000004472, 41.99315899997306], [-120.65038200041379, 41.99316100025277], [-120.6514259999791, 41.993166000284184], [-120.65340600005301, 41.993171999787194], [-120.65483200010809, 41.99317699981774], [-120.65755100014879, 41.993186999877615], [-120.66212300004183, 41.9932120000204], [-120.66551999994996, 41.99327600020772], [-120.66788199961533, 41.993320999727146], [-120.67572800029119, 41.9934699999859], [-120.68098399989944, 41.99357000005357], [-120.69056899972648, 41.993693999785776], [-120.69118700021777, 41.99370100003806], [-120.69135799992199, 41.99370399976441], [-120.69185900023741, 41.993711000015594], [-120.69237600044634, 41.9937170001349], [-120.69293799996284, 41.993724999847956], [-120.69354399986025, 41.993733000227714], [-120.69424000016933, 41.9937420000695], [-120.694427999592, 41.99374599992461], [-120.69482400032543, 41.9937490003165], [-120.69668200020061, 41.993773000108355], [-120.69834099988418, 41.99379500029903], [-120.69916100004181, 41.99380500026181], [-120.70018399969074, 41.993819000073536], [-120.70047099974593, 41.993821999794335], [-120.70081499970252, 41.993821999794335], [-120.70602000015545, 41.99381299996386], [-120.70664899961908, 41.993810999704635], [-120.70745500043134, 41.99380900011296], [-120.70810999983424, 41.993807999983275], [-120.70934000007071, 41.99380599972388], [-120.71081299998143, 41.99380300000234], [-120.71208000002784, 41.993800999742795], [-120.71341400002139, 41.99379800002096], [-120.71474700019, 41.993795999761275], [-120.7161749998949, 41.99379300003924], [-120.71731999974254, 41.99379099977939], [-120.71882899963828, 41.99378800005709], [-120.72046899995358, 41.99378499966703], [-120.72148099973184, 41.99378300007458], [-120.72318700016939, 41.993778000091645], [-120.72435299993344, 41.99377499970112], [-120.72552200007055, 41.993773000108355], [-120.72702199974546, 41.99376900025494], [-120.72881699987146, 41.99376400027089], [-120.72992900010713, 41.993762000010136], [-120.73066700024904, 41.993759999749315], [-120.73275699992782, 41.99375499976456], [-120.7343529998622, 41.99375099991006], [-120.73550899958049, 41.993748000185875], [-120.73773499970173, 41.9937420000695], [-120.73908200011407, 41.99373899967728], [-120.7407540002164, 41.993733000227714], [-120.74282299997878, 41.993723999717], [-120.74362800006783, 41.993719999860495], [-120.74493000027434, 41.99371399974149], [-120.74618700027499, 41.99370800028952], [-120.74667599999654, 41.99370600002701], [-120.74790200003503, 41.993699999906674], [-120.74820300033392, 41.99369899977527], [-120.74824799964145, 41.99369899977527], [-120.74838300025898, 41.99369300032193], [-120.74881900027707, 41.99369200019042], [-120.75026000040073, 41.993688999795836], [-120.75069100039597, 41.993687000200374], [-120.7510329998044, 41.99368600006877], [-120.75171400004488, 41.9936829996739], [-120.75251599976086, 41.99367899981483], [-120.75362700017166, 41.99367399982377], [-120.7549030004389, 41.99366799970043], [-120.75611400040879, 41.99366299970845], [-120.75658700023679, 41.99366100011217], [-120.75768000020592, 41.993656000119636], [-120.75838800021059, 41.99365299972336], [-120.75930999957717, 41.99365299972336], [-120.75999900021357, 41.99365499998755], [-120.76074900005102, 41.993656000119636], [-120.76106100022054, 41.99365899984812], [-120.76181500025596, 41.993662000244115], [-120.7625790003371, 41.993663999840415], [-120.76330999990799, 41.99366700023617], [-120.76391099978254, 41.99366700023617], [-120.76458000032743, 41.99366999996414], [-120.76516000028558, 41.99367200022779], [-120.77007299976215, 41.993688999795836], [-120.77045500025189, 41.993691000058945], [-120.77066199994111, 41.99369200019042], [-120.77107799986774, 41.99369300032193], [-120.77323299984383, 41.993699999906674], [-120.77640899981905, 41.993711000015594], [-120.77786099981337, 41.993718000265964], [-120.77811199988355, 41.99371899972941], [-120.77900999985899, 41.993723999717], [-120.77940099967125, 41.99372800024084], [-120.7840720001968, 41.99378400020461], [-120.78467300007134, 41.99379099977939], [-120.78616600007354, 41.99380900011296], [-120.78710400023196, 41.99382000020305], [-120.78804200039038, 41.99383100029119], [-120.78952500034686, 41.99384799981677], [-120.79100900012823, 41.99386600013426], [-120.79195599960919, 41.993877000214454], [-120.79290299998844, 41.993888999753565], [-120.79437699972408, 41.993905999931314], [-120.79585200018292, 41.993924000232354], [-120.79776399958645, 41.993945999703236], [-120.79811699976388, 41.993950999672926], [-120.7994059995516, 41.993945999703236], [-120.80069500023761, 41.99394199986069], [-120.80166099998513, 41.99393900014555], [-120.80262599990776, 41.99393500030257], [-120.80407899972697, 41.99393000033156], [-120.80553200044454, 41.99392599982042], [-120.80745600044195, 41.99391900026053], [-120.80891199973593, 41.99391400028827], [-120.81036899975311, 41.99390900031567], [-120.81042599965454, 41.99390800018755], [-120.81064400011272, 41.99390999977612], [-120.81139999979797, 41.993905999931314], [-120.81629100043156, 41.993888999753565], [-120.81929900017728, 41.99388399977896], [-120.82163200042862, 41.993877999675405], [-120.8264550003918, 41.99386500000547], [-120.83001100030862, 41.9938620002867], [-120.83837299957189, 41.99384100024831], [-120.83867999971854, 41.99384000011918], [-120.84292400044686, 41.993831999752864], [-120.84399499977636, 41.9938300001619], [-120.84533499961766, 41.993826999773816], [-120.8513200000453, 41.99381500022301], [-120.85318600031638, 41.993810999704635], [-120.853305999967, 41.993810999704635], [-120.85398499965935, 41.99381000024263], [-120.8545310001806, 41.99380900011296], [-120.85473600022003, 41.99380900011296], [-120.8549179997949, 41.993807999983275], [-120.85512700003227, 41.99380699985361], [-120.85647199989647, 41.99380500026181], [-120.85675999977654, 41.99380400013206], [-120.85774200031591, 41.99380300000234], [-120.85802500017314, 41.99380300000234], [-120.85898199969981, 41.993800999742795], [-120.85935699961856, 41.993800999742795], [-120.86006899982115, 41.99380000028064], [-120.86055500006798, 41.99379900015081], [-120.86116299961519, 41.99379900015081], [-120.86163200014356, 41.99379800002096], [-120.86250699965447, 41.993795999761275], [-120.86301399981768, 41.993795999761275], [-120.86358399973007, 41.99379500029903], [-120.86417999958175, 41.99379400016912], [-120.8647899996771, 41.99379300003924], [-120.865415999666, 41.993791999909305], [-120.86616899987649, 41.99379099977939], [-120.8667310002913, 41.993790000317084], [-120.86747500028096, 41.99378900018709], [-120.86790100025331, 41.99378900018709], [-120.86854399996064, 41.99378800005709], [-120.86918699966795, 41.99378699992712], [-120.86972899999125, 41.99378599979708], [-120.87016800038242, 41.99378499966703], [-120.8708930001055, 41.99378400020461], [-120.8712789998949, 41.99378400020461], [-120.87176299959356, 41.99378300007458], [-120.87189700038617, 41.99378300007458], [-120.87251499997915, 41.99378199994449], [-120.87357199996325, 41.99377999968429], [-120.87402100040015, 41.99377999968429], [-120.87484900005539, 41.993778000091645], [-120.87547199967125, 41.993778000091645], [-120.87607300044408, 41.99377699996151], [-120.87648199979967, 41.99377699996151], [-120.87689299970343, 41.99377699996151], [-120.87709799974284, 41.99377699996151], [-120.87769199994467, 41.993774000238545], [-120.87823099989492, 41.9937719999781], [-120.87869799987514, 41.993769999717586], [-120.8790660001212, 41.993768000124625], [-120.87947700002493, 41.99376599986399], [-120.87976800027809, 41.99376499973362], [-120.8799259995635, 41.99376400027089], [-120.87997900016526, 41.99376400027089], [-120.88823199964858, 41.99373200009683], [-120.89110100037544, 41.99372099999158], [-120.89563800010838, 41.99370399976441], [-120.89648099983226, 41.99370200016938], [-120.89656700004598, 41.99370600002701], [-120.90133800013064, 41.9936899999274], [-120.90278699975192, 41.99368600006877], [-120.90423600027151, 41.993682000209894], [-120.90521500043782, 41.99367999994655], [-120.90619500042905, 41.99367799968316], [-120.90690400025862, 41.9936760000873], [-120.90703499977987, 41.99367499995552], [-120.92085900031232, 41.99364700026569], [-120.92562399965088, 41.993638999875124], [-120.92732300041574, 41.993635000013285], [-120.93452399993782, 41.9936250000238], [-120.93533900007259, 41.993606000173], [-120.93833299957463, 41.99353500004773], [-120.93892500012664, 41.99352200030774], [-120.94020100039387, 41.993492000281314], [-120.94163900014448, 41.993457999700176], [-120.94307600007018, 41.99342399976849], [-120.94406899958189, 41.99340099998114], [-120.9450619999919, 41.99337800018543], [-120.9458150002024, 41.993359999729975], [-120.94650499976541, 41.99334400021106], [-120.94893500010112, 41.99328699972227], [-120.9513699995614, 41.9932299998501], [-120.95406000018812, 41.993166999756305], [-120.95768499970191, 41.99313499994969], [-120.95833800035327, 41.99312800030282], [-120.95866300004329, 41.99312600002207], [-120.95908499981769, 41.99312099998752], [-120.95965499973008, 41.993114999812036], [-120.96254899967299, 41.99309099977208], [-120.9635350004103, 41.99308199983824], [-120.96378399993232, 41.99308000022366], [-120.96702600002978, 41.99305100013049], [-120.97413500038866, 41.992987999859515], [-120.97425800041229, 41.99299400004697], [-120.98041600019398, 41.993023000166104], [-120.98057600002755, 41.99301900026556], [-120.98201499960308, 41.99302499978247], [-120.98301399986089, 41.99302899968264], [-120.98401300011867, 41.99303300025017], [-120.98545199969419, 41.99303899976577], [-120.98689100016803, 41.99304499994841], [-120.98789000042585, 41.993048999847325], [-120.98888899978532, 41.99305299974593], [-120.98995400016537, 41.9930560001705], [-120.99008300003676, 41.9930560001705], [-120.99334299967758, 41.99308900015783], [-121.01196099986095, 41.993277999816094], [-121.01705599981068, 41.993359999729975], [-121.01909500033418, 41.99338599994115], [-121.02180900035202, 41.9933079999434], [-121.02205600022423, 41.99330199978554], [-121.02211399995055, 41.9933079999434], [-121.02383899975634, 41.99352700031079], [-121.02674799976786, 41.99358000005171], [-121.02915399981414, 41.993656000119636], [-121.0294609999608, 41.99365399985548], [-121.02981099976516, 41.99366299970845], [-121.03051100027224, 41.99369300032193], [-121.03204000025946, 41.993699999906674], [-121.03250999971442, 41.9937070001583], [-121.03332300019937, 41.99374599992461], [-121.03350899997223, 41.99375499976456], [-121.03461299981198, 41.99379099977939], [-121.03517299967864, 41.993817999944], [-121.03525300004459, 41.993821999794335], [-121.03628699956417, 41.9938620002867], [-121.03928099996449, 41.9939490000857], [-121.0416100000179, 41.99401700003762], [-121.04385200003262, 41.99407299974712], [-121.04459900039535, 41.99409499983416], [-121.04733699980432, 41.99420400003163], [-121.04853600007864, 41.994245999861874], [-121.04973500035298, 41.99428299972118], [-121.05064699967382, 41.99430499973557], [-121.05160499992375, 41.994336000167806], [-121.05165099995449, 41.99433799974293], [-121.05401400034306, 41.994431999730764], [-121.05537400027588, 41.99449200021865], [-121.05571200038469, 41.994499999834304], [-121.05666800008646, 41.99454100001874], [-121.0575429995974, 41.994573999903736], [-121.0590210004293, 41.9946299997908], [-121.06018600036843, 41.994676999920244], [-121.06239200039818, 41.99475900003462], [-121.06303699975533, 41.99478499967429], [-121.06461099994839, 41.99484999972846], [-121.06486899969124, 41.99485500029484], [-121.06545500039547, 41.99486500009107], [-121.06634800034807, 41.99489799980807], [-121.06779000029663, 41.99496200030291], [-121.07106900020402, 41.99510199974233], [-121.07156299994843, 41.99511599993637], [-121.07251500035055, 41.99514400031528], [-121.07480599987079, 41.995187999741226], [-121.0777700001339, 41.99526100023914], [-121.07863899979702, 41.99527499973055], [-121.07985800016287, 41.99528699967374], [-121.08095600015487, 41.99531399987134], [-121.08225900018628, 41.99535400009365], [-121.08380200041718, 41.99538299980512], [-121.08443099988081, 41.99539900014676], [-121.08517900006841, 41.995411000066525], [-121.08709700021808, 41.99546200003411], [-121.08792999989619, 41.9954750000455], [-121.08864200009883, 41.9954779996883], [-121.0902460004291, 41.99552300032132], [-121.09152500017106, 41.99554399980473], [-121.0916559996923, 41.99555699979937], [-121.09351500029074, 41.9953790000529], [-121.09498499982841, 41.995401999793096], [-121.09658699961057, 41.99542799983773], [-121.0971590000711, 41.995436000003366], [-121.09843899963796, 41.99540899985752], [-121.09993900021118, 41.99545999982672], [-121.10144300008405, 41.9955020001634], [-121.10312799970686, 41.99552800016718], [-121.10530899962225, 41.995559000003716], [-121.10605900035802, 41.99557400019922], [-121.10728500039654, 41.99559500033338], [-121.1085099997118, 41.99561499969174], [-121.10973499992541, 41.99563599981237], [-121.11124200017134, 41.99567200009848], [-121.12500700025424, 41.99612499989972], [-121.12527900024081, 41.996136999682584], [-121.13001099996742, 41.996250000086306], [-121.13501499968059, 41.99637500002743], [-121.13505300021373, 41.996378000295394], [-121.13509000002365, 41.99637999980631], [-121.13995900001761, 41.99649999972299], [-121.1411049996902, 41.99652900024752], [-121.14493799961646, 41.99661300014986], [-121.14644599968727, 41.99666100023495], [-121.14935700024694, 41.996728999959814], [-121.14966799969325, 41.99673699996191], [-121.14980300031075, 41.99673900012922], [-121.14983400027292, 41.99673900012922], [-121.14986600005994, 41.99673900012922], [-121.15415099989781, 41.996835000073204], [-121.16847699967231, 41.99717799994189], [-121.16931799974634, 41.9971800000953], [-121.16959700030391, 41.99718900011728], [-121.16967799959644, 41.99718900011728], [-121.17321500014502, 41.997218999736326], [-121.17415199958019, 41.99722799975279], [-121.174533000245, 41.99723099998054], [-121.1778129999773, 41.997261000247356], [-121.17898600031238, 41.99727199974082], [-121.18130600014493, 41.99730099991356], [-121.18382500016911, 41.997316999773005], [-121.18856500029163, 41.99738400005861], [-121.1889920000889, 41.99738799968484], [-121.18908599980023, 41.997387000279005], [-121.19340999999615, 41.997396999677406], [-121.19393300005287, 41.99739600027172], [-121.20090299959625, 41.99742699986597], [-121.2013910003912, 41.99741200010727], [-121.20243499995654, 41.99740899988805], [-121.20539900021966, 41.9974310001571], [-121.20667299993875, 41.99740699974185], [-121.20883600031077, 41.99741200010727], [-121.20984999973886, 41.99741400025331], [-121.21225800033328, 41.99744200028876], [-121.23408000008092, 41.99741100003419], [-121.23640599976126, 41.99738099983808], [-121.23707500030618, 41.9973750000642], [-121.23799000000005, 41.99736800021602], [-121.23963600016312, 41.99735399984978], [-121.24043200003133, 41.99734699999928], [-121.2419350000793, 41.997333999702654], [-121.24290000000191, 41.99732599977561], [-121.24673799995104, 41.997294000057245], [-121.24724400028931, 41.99728800027516], [-121.24781000000374, 41.99729299998232], [-121.25034300027164, 41.99731500029148], [-121.250404000371, 41.99731200006769], [-121.25272199965542, 41.99733300029599], [-121.26114499991635, 41.99739199997843], [-121.26745300038418, 41.99743200022986], [-121.26804300038803, 41.99743799999836], [-121.27712000022696, 41.99744100021621], [-121.28399500023411, 41.997434999780374], [-121.28529900009045, 41.99743599985302], [-121.28639999955716, 41.99744100021621], [-121.28827900024706, 41.99743599985302], [-121.29021099974213, 41.99743599985302], [-121.29537600001208, 41.99736900028977], [-121.29653000008057, 41.997364999994744], [-121.29680200006713, 41.99736399992097], [-121.29730400020746, 41.99735599999765], [-121.3000319995707, 41.99731099999305], [-121.30023199958725, 41.99731500029148], [-121.30075800001703, 41.99730799976912], [-121.30486499957965, 41.99724200014681], [-121.30635400028223, 41.99723200005644], [-121.30964900008313, 41.99718900011728], [-121.30993799978812, 41.9971830003253], [-121.31445199995484, 41.99708899972734], [-121.31471899991854, 41.997085000082336], [-121.31620000022518, 41.997062000282725], [-121.31648700028036, 41.997056999889814], [-121.31760600018876, 41.9970280002735], [-121.31778399956563, 41.99702500003618], [-121.31926999989517, 41.996995000325676], [-121.319463000239, 41.99699100000719], [-121.32095799989102, 41.996961000280656], [-121.32255300000048, 41.99693199995298], [-121.32404500017778, 41.9968969997932], [-121.32422699975265, 41.99689300013612], [-121.3255940002565, 41.99686599994073], [-121.32881200006449, 41.996802000025355], [-121.32898799979158, 41.996797999694685], [-121.33071000012266, 41.996718999788825], [-121.33357099955529, 41.9965869999217], [-121.33439400008598, 41.99655800009122], [-121.33836799957925, 41.99638400016326], [-121.33850400002167, 41.99637500002743], [-121.33869399999246, 41.99636200019989], [-121.33933599987486, 41.9963509998815], [-121.33978600013667, 41.99634100031875], [-121.33981899974864, 41.996347000190156], [-121.34006099959797, 41.99636100011031], [-121.34020799991106, 41.99635600032994], [-121.34065800017285, 41.9963400002289], [-121.34090199967203, 41.9963119997086], [-121.34322900007557, 41.9962539997838], [-121.34343300029006, 41.996250000086306], [-121.34355399976559, 41.996246999812314], [-121.34491100022366, 41.996214000127154], [-121.34807600032823, 41.99628999972033], [-121.34967800011039, 41.99632600030408], [-121.35454000043164, 41.996439999792926], [-121.35524500006323, 41.99645800004497], [-121.35664900037702, 41.99649299977861], [-121.35763100001805, 41.99651699987094], [-121.35766399963002, 41.99651699987094], [-121.35939900037985, 41.99655900017769], [-121.36008200027017, 41.99654699980677], [-121.36030599967785, 41.996539999867515], [-121.36140500039305, 41.99652900024752], [-121.36323700032898, 41.99649900030327], [-121.36426800037381, 41.99651100001562], [-121.36588400039967, 41.99652999966683], [-121.36750799992313, 41.99654799989337], [-121.36910899988035, 41.99656700020117], [-121.36912700032204, 41.99656700020117], [-121.37237299971915, 41.99660400004641], [-121.37406099971503, 41.996623999755265], [-121.37571000025112, 41.99664300004038], [-121.37712500043554, 41.99666499990661], [-121.37723199966734, 41.99666700007619], [-121.37807399956633, 41.996677000255296], [-121.37878400011911, 41.99668500026397], [-121.3788259999519, 41.996685999680835], [-121.3789049995946, 41.996685999680835], [-121.37899500000631, 41.99668500026397], [-121.3791840001522, 41.99668300009497], [-121.38092700039964, 41.99670299977905], [-121.38209200033877, 41.99671600020457], [-121.38392799957435, 41.99673699996191], [-121.38886199986567, 41.99679500011414], [-121.39368599965378, 41.99684999996796], [-121.39372699966165, 41.99684999996796], [-121.39664900009194, 41.996882999990916], [-121.39848000020297, 41.99690499977419], [-121.39859300018087, 41.99690499977419], [-121.39861200044746, 41.99690499977419], [-121.40150499966714, 41.996936999688145], [-121.40207100027986, 41.99694500033173], [-121.40328600044774, 41.99695900012038], [-121.40345899980179, 41.996961000280656], [-121.40622399987328, 41.99698999992751], [-121.40637000036143, 41.99699200008681], [-121.40685999990787, 41.99699799989679], [-121.40781200031002, 41.99701000018272], [-121.4083239995978, 41.99701499991171], [-121.40914499958035, 41.99702500003618], [-121.41013100031766, 41.997036000238005], [-121.41122500011168, 41.99704799984915], [-121.41315400013201, 41.997070000242964], [-121.4131830004443, 41.997070000242964], [-121.41608099968688, 41.99710300015189], [-121.41708300031769, 41.99711499975036], [-121.41739200011419, 41.99712299970398], [-121.41742100042651, 41.99711799998344], [-121.41744700036577, 41.9971190000611], [-121.41746699955895, 41.9971190000611], [-121.41750599991701, 41.9971190000611], [-121.41777200005578, 41.997122000293984], [-121.41790699977501, 41.99712399978153], [-121.4181529998223, 41.997127000014174], [-121.42093899981016, 41.99716200004751], [-121.42150700007275, 41.99716699976461], [-121.42285500030998, 41.997182000248685], [-121.42305199995347, 41.997184999810976], [-121.42579600010856, 41.99721600017564], [-121.42776199993878, 41.9972379998438], [-121.42906900016817, 41.99725300031113], [-121.42976100027927, 41.997261000247356], [-121.43050500026897, 41.997269000182634], [-121.43063900016327, 41.99727100033318], [-121.43220800033343, 41.99728899968256], [-121.43262199971191, 41.997294000057245], [-121.43358900018266, 41.997305000212585], [-121.43547700019506, 41.99732599977561], [-121.43553099972344, 41.997326999849975], [-121.43748300020826, 41.99734900014737], [-121.4401600004162, 41.99737999976452], [-121.44033199994534, 41.997381999911624], [-121.44036600028052, 41.997382999985106], [-121.44066400020635, 41.99738600020554], [-121.44092399959904, 41.997388999758265], [-121.44110299969915, 41.997390999905036], [-121.4423439998063, 41.99740500026315], [-121.44518599987069, 41.99743799999836], [-121.4465399999557, 41.99745399982335], [-121.44720500030266, 41.997461000329636], [-121.44745800002265, 41.99746399987878], [-121.4475380003886, 41.99746499995102], [-121.44760600016066, 41.98810700016324], [-121.44760600016066, 41.98801799995036], [-121.44760399961253, 41.98256700002476], [-121.4476029997876, 41.979428000219855], [-121.44760500033576, 41.979046999822216], [-121.44760500033576, 41.97872599980541], [-121.44754199968826, 41.97732399991135], [-121.4475319996425, 41.975762999821725], [-121.44756400032786, 41.97122000027012], [-121.44758500024426, 41.966808999729565], [-121.44762000040434, 41.96490400026238], [-121.4475819998712, 41.96102399977843], [-121.4475819998712, 41.96100500021856], [-121.4475679996275, 41.95879000001129], [-121.44757100000055, 41.9575560002929], [-121.44758299969612, 41.956706000248026], [-121.44756900035073, 41.953663000112314], [-121.4475669998026, 41.95069299981681], [-121.44756299960463, 41.95064200006691], [-121.44754300041147, 41.95058699971448], [-121.44750599970322, 41.950531999982694], [-121.44744999962676, 41.95048500000422], [-121.44754300041147, 41.950360000162945], [-121.44757699984834, 41.95033399975361], [-121.44764700016856, 41.95031699996846], [-121.4476780001307, 41.95031699996846], [-121.44926599966912, 41.95031900025778], [-121.45216100033525, 41.95031300005765], [-121.45228000016094, 41.95031300005765], [-121.45235499960569, 41.95031300005765], [-121.4524869998502, 41.9503029999455], [-121.45721299972901, 41.94994499984066], [-121.45716000002554, 41.94878599990318], [-121.45711099962175, 41.94750299969383], [-121.45711399999482, 41.946622999813926], [-121.45712999988832, 41.94566700002118], [-121.4571340000863, 41.94443799997027], [-121.45711999984259, 41.942784999820155], [-121.45715900020065, 41.94222999985158], [-121.45715099980472, 41.94202100021493], [-121.45713499991119, 41.941770999836066], [-121.45712300021565, 41.94158100004191], [-121.45710399994906, 41.94126299985817], [-121.45710300012416, 41.94009099982264], [-121.45710300012416, 41.94004299985919], [-121.45710599959888, 41.93884299972141], [-121.45710899997192, 41.9379129996859], [-121.45712300021565, 41.935976000006995], [-121.45712200039073, 41.93509699979117], [-121.45712099966751, 41.9341410002637], [-121.45712499986546, 41.93384799979048], [-121.45714800032998, 41.93222400018482], [-121.45713699956103, 41.93131400003355], [-121.45713200043649, 41.93013300013035], [-121.45714400013203, 41.92910100022797], [-121.45713900010917, 41.92736899978565], [-121.45714300030711, 41.92662500026086], [-121.45714400013203, 41.92641399990602], [-121.45714400013203, 41.92639800027827], [-121.45714499995695, 41.92631200028884], [-121.45714499995695, 41.926254999959966], [-121.45714499995695, 41.92623500020772], [-121.45714499995695, 41.926208000131204], [-121.45714400013203, 41.926143000197214], [-121.45714400013203, 41.92610299994789], [-121.45714300030711, 41.92608599971736], [-121.45714300030711, 41.9260759998155], [-121.45714300030711, 41.92605400029332], [-121.45714300030711, 41.92600700031649], [-121.45714300030711, 41.925980000143475], [-121.45714199958391, 41.92589400025894], [-121.45714699960675, 41.92578299972369], [-121.45715099980472, 41.92570999979022], [-121.45715199962964, 41.92569300012333], [-121.45715400017778, 41.925638000305035], [-121.45715699965251, 41.92550799987775], [-121.45716000002554, 41.92549399975423], [-121.45716199967538, 41.92546100016706], [-121.45717199972111, 41.923743000331925], [-121.4571340000863, 41.92247799997205], [-121.4571340000863, 41.92246200002559], [-121.45711499981972, 41.92183200011592], [-121.45716099985046, 41.91402099977119], [-121.45716800042146, 41.91195199978767], [-121.45716500004843, 41.911187999866534], [-121.45717199972111, 41.90950699978431], [-121.45718000011703, 41.90776100028785], [-121.45718000011703, 41.90774499999433], [-121.45718099994195, 41.90771999973656], [-121.45718099994195, 41.907595999784114], [-121.45718099994195, 41.90758400003473], [-121.45718099994195, 41.90756999999], [-121.45718099994195, 41.9075530001703], [-121.45718099994195, 41.90753199975758], [-121.45718099994195, 41.90750700008495], [-121.45718099994195, 41.90747500003509], [-121.45718000011703, 41.905610999703605], [-121.45714800032998, 41.903482000005525], [-121.45716800042146, 41.90090899998], [-121.45715800037574, 41.90044899991126], [-121.45715599982762, 41.900349000097435], [-121.4571499999798, 41.90013599992505], [-121.45714800032998, 41.90006300007288], [-121.45714400013203, 41.89993500023147], [-121.45714099975898, 41.89982400000977], [-121.45713999993406, 41.899673000163375], [-121.45713800028425, 41.899243000176895], [-121.45713800028425, 41.89918500013125], [-121.45713800028425, 41.89917500002582], [-121.45713800028425, 41.89916300003095], [-121.45713800028425, 41.899149000145556], [-121.45713800028425, 41.89913299969966], [-121.45713800028425, 41.89911500002907], [-121.45713800028425, 41.899094000184014], [-121.45713800028425, 41.899070999772725], [-121.45713800028425, 41.89904499985012], [-121.45713800028425, 41.89901599974396], [-121.45713800028425, 41.898984000118816], [-121.45713800028425, 41.898949000301485], [-121.45713800028425, 41.89891100028703], [-121.45713800028425, 41.89887000007008], [-121.45713800028425, 41.89882699992852], [-121.45713800028425, 41.898781999858166], [-121.45713800028425, 41.89873499985482], [-121.45713800028425, 41.89868700019984], [-121.45713800028425, 41.898638999840124], [-121.45713800028425, 41.898591999731536], [-121.45713800028425, 41.89854599987633], [-121.45713800028425, 41.898501999896595], [-121.45713800028425, 41.89845999979646], [-121.45713800028425, 41.89842099986979], [-121.45713800028425, 41.89838500012207], [-121.45713800028425, 41.89835199988978], [-121.45713699956103, 41.898321999846104], [-121.4571340000863, 41.89811500003012], [-121.45713699956103, 41.89742900013979], [-121.45713699956103, 41.89735500022983], [-121.45713699956103, 41.89734400019977], [-121.45713699956103, 41.89733100022256], [-121.45713699956103, 41.89731600029702], [-121.45713699956103, 41.89729899975303], [-121.45713699956103, 41.897277999979515], [-121.45713699956103, 41.897253000303756], [-121.45713699956103, 41.89722400005248], [-121.45713699956103, 41.897188999939225], [-121.45713699956103, 41.897146000003005], [-121.45713699956103, 41.8970919999644], [-121.45713699956103, 41.89702299988575], [-121.45713699956103, 41.89693400015876], [-121.45713699956103, 41.89681500022479], [-121.45713699956103, 41.89664800021889], [-121.45713999993406, 41.894684000095964], [-121.45713499991119, 41.893811999923166], [-121.4571499999798, 41.89294899991927], [-121.45713099971324, 41.89200599987377], [-121.45712499986546, 41.89046600004906], [-121.45711399999482, 41.888898000296855], [-121.45711900001767, 41.88724200011372], [-121.45710999979686, 41.886401000113906], [-121.45708899988045, 41.88554799986587], [-121.45708700023062, 41.8847110003175], [-121.45710200029924, 41.88383399984763], [-121.45711700036784, 41.88134000004529], [-121.45709800010127, 41.87960499994415], [-121.45709499972824, 41.878550999825194], [-121.45709999975111, 41.876071000101966], [-121.45711599964461, 41.87488100010683], [-121.457028999606, 41.87140299973288], [-121.45702799978108, 41.87133600009121], [-121.45702699995616, 41.871270999802704], [-121.4569800001005, 41.861091999761165], [-121.45697799955236, 41.86063499995695], [-121.45697599990255, 41.860141999674084], [-121.45697400025271, 41.859722999701454], [-121.45697400025271, 41.859684000212646], [-121.45697400025271, 41.8596690001456], [-121.4569730004278, 41.85965200028838], [-121.4569730004278, 41.85962599971085], [-121.4569730004278, 41.85957699988039], [-121.45695699963596, 41.856086999811765], [-121.45695699963596, 41.856013999806834], [-121.45695699963596, 41.85594300029039], [-121.45695699963596, 41.85586600031109], [-121.45695800035921, 41.855833999814486], [-121.45695800035921, 41.85580799969195], [-121.45695800035921, 41.855775000215985], [-121.45695800035921, 41.85571599989402], [-121.45695800035921, 41.85569699974473], [-121.45695599981107, 41.855565999794244], [-121.45695400016123, 41.85044000024155], [-121.45695199961308, 41.845313000328645], [-121.45695199961308, 41.84407800019923], [-121.45695099978818, 41.842844000144915], [-121.45694999996329, 41.84081299984588], [-121.45694900013837, 41.8394779998144], [-121.45694900013837, 41.83901000013906], [-121.45694900013837, 41.83883300013777], [-121.45694900013837, 41.83878200000121], [-121.45694900013837, 41.83876400006137], [-121.45694900013837, 41.83871399975583], [-121.45694599976531, 41.837765999715266], [-121.45694800031345, 41.83752999992518], [-121.45694800031345, 41.83734800030951], [-121.45694599976531, 41.83438899984214], [-121.45694499994042, 41.83421900014086], [-121.45692999987179, 41.815688999872016], [-121.45692499984891, 41.80139999972612], [-121.45692400002399, 41.798541999669915], [-121.45692200037418, 41.78014300010084], [-121.45692200037418, 41.77630199973551], [-121.44898100016209, 41.77639200008515], [-121.44938000037024, 41.75000399997936], [-121.44919799989707, 41.726632000005246], [-121.44916100008714, 41.69201999985578], [-121.44914299964547, 41.690618999942245], [-121.44895400039789, 41.6762530002093], [-121.44891699968967, 41.67460899972261], [-121.44856400041057, 41.65688900008182], [-121.44859600019763, 41.65600600006111], [-121.44860100022049, 41.65585999983769], [-121.4486089997181, 41.65564500011525], [-121.44861100026623, 41.65559299983731], [-121.44861100026623, 41.65558299993394], [-121.44861200009113, 41.65555899989103], [-121.44861299991605, 41.655544999750056], [-121.44861399974097, 41.65551700013007], [-121.4486239997867, 41.65524300028205], [-121.44898299981189, 41.6453550002765], [-121.44898399963684, 41.64532400027583], [-121.44908200044442, 41.64261999971193], [-121.44923100040735, 41.63827700027016], [-121.44923100040735, 41.6382310000186], [-121.44923399988207, 41.63817200017335], [-121.44931500007294, 41.63593000027009], [-121.44963599956499, 41.627253999817825], [-121.4496930003647, 41.62564799972205], [-121.44972299960362, 41.62487700009489], [-121.44919100022435, 41.62143500021132], [-121.44919000039945, 41.62140899970301], [-121.44911400023148, 41.61386200007565], [-121.44909199959184, 41.60823500027788], [-121.44909199959184, 41.60813000028194], [-121.44909099976695, 41.60802500011508], [-121.44908499991917, 41.60622899968992], [-121.44907900007136, 41.60443300031923], [-121.44897799978905, 41.59179499981003], [-121.44897299976617, 41.591328000128065], [-121.44896199989552, 41.59039499976011], [-121.44895100002486, 41.58818600030008], [-121.44894400035217, 41.58706400031985], [-121.44893299958318, 41.58613700023369], [-121.44893099993338, 41.585710999724974], [-121.44889699959818, 41.578828000138934], [-121.44888499990262, 41.57727899987993], [-121.44888699955246, 41.57701400015816], [-121.44888800027567, 41.57674999995768], [-121.44888200042789, 41.5757389996729], [-121.44887499985688, 41.57472900033126], [-121.44887200038214, 41.57398799969891], [-121.44886800018416, 41.57324599998344], [-121.44885200029064, 41.56964599974764], [-121.44883600039714, 41.56604599985127], [-121.4487140001984, 41.55910500027754], [-121.44866499979457, 41.5528210000151], [-121.44862700015976, 41.548336000243154], [-121.44862100031199, 41.547294000318345], [-121.44861000044133, 41.54596299998889], [-121.44855600001465, 41.53922700002396], [-121.44865599957376, 41.53094000028968], [-121.44882800000121, 41.51671799999631], [-121.44891000001697, 41.51000799993358], [-121.44893500013133, 41.50783400015945], [-121.44896600009346, 41.50527500013101], [-121.44897199994125, 41.50525000030251], [-121.44897199994125, 41.504576000319155], [-121.44897899961394, 41.50389999993846], [-121.44898299981189, 41.50350100015464], [-121.44898299981189, 41.503462999854776], [-121.44898399963684, 41.50340899988605], [-121.44899600023068, 41.502202999839064], [-121.44900100025357, 41.502178999914776], [-121.44904899993413, 41.499692000331905], [-121.44903600041368, 41.4971949998731], [-121.44906200035295, 41.495257000231135], [-121.44903800006347, 41.494931000017544], [-121.44902800001776, 41.49482899975819], [-121.449017999972, 41.49471899978663], [-121.44894900037504, 41.49446300015724], [-121.44900299990339, 41.494105000135164], [-121.44899799988052, 41.493111999768225], [-121.44898799983478, 41.491613999720826], [-121.44899100020784, 41.49159400021535], [-121.44896899956821, 41.47797900013044], [-121.44896600009346, 41.47785000022556], [-121.4489180004129, 41.475695000036076], [-121.44890699964394, 41.47379800009687], [-121.44890199962104, 41.47281299968841], [-121.44884200024491, 41.46805900015643], [-121.44887800022994, 41.46778600022664], [-121.44880399971177, 41.45274799966453], [-121.44881799995545, 41.451678999748495], [-121.44874099996258, 41.438180000278706], [-121.44869900012979, 41.429383000049484], [-121.44815400033175, 41.42927899996806], [-121.44659900040524, 41.428982999912485], [-121.4465940003824, 41.42475599979899], [-121.44658599998645, 41.42187699996048], [-121.4465740002909, 41.412388000290086], [-121.44655599984924, 41.39918699986514], [-121.44636699970336, 41.389293999759246], [-121.44635300035796, 41.38855999968648], [-121.44635199963473, 41.38850800000607], [-121.44633200044156, 41.38743900026334], [-121.44650800016865, 41.36596500019082], [-121.44650399997069, 41.361569999698084], [-121.44649999977274, 41.35859900029024], [-121.44647499965839, 41.34196499969269], [-121.44646499961266, 41.33446300027619], [-121.44645399974199, 41.32996900031426], [-121.446461000313, 41.328533999889345], [-121.44644600024439, 41.32226100007409], [-121.44643600019864, 41.31462599966732], [-121.44643600019864, 41.3144039999911], [-121.44643500037373, 41.31418100029071], [-121.44643500037373, 41.314088000138796], [-121.44643500037373, 41.3139949998542], [-121.44642299977983, 41.30477600016096], [-121.44642299977983, 41.30472200015691], [-121.44640600006142, 41.29223199993788], [-121.44639900038872, 41.287033999731975], [-121.44639900038872, 41.28701100024143], [-121.44639699984059, 41.27277799982022], [-121.44639699984059, 41.27244399977152], [-121.44639699984059, 41.272240999964154], [-121.44639699984059, 41.272128999730356], [-121.44639699984059, 41.27207000013878], [-121.44639699984059, 41.27205500008537], [-121.44639600001567, 41.272010999818775], [-121.44639600001567, 41.27126599997846], [-121.44639600001567, 41.27038400010302], [-121.44639600001567, 41.26970400006244], [-121.44639600001567, 41.269333000128206], [-121.44639600001567, 41.26916799986055], [-121.44639600001567, 41.269100999947895], [-121.44639600001567, 41.26907500033616], [-121.44639600001567, 41.26906500006722], [-121.44638599996993, 41.266956000209404], [-121.44635900020572, 41.255643999707544], [-121.44634599978693, 41.24990899986789], [-121.44632499987057, 41.2473070001471], [-121.44628499968756, 41.24236399993164], [-121.44625700009848, 41.23894800014088], [-121.44625700009848, 41.23893599982135], [-121.44625700009848, 41.238924000175146], [-121.44625600027358, 41.23886399988453], [-121.44625399972543, 41.238649000023266], [-121.44625200007563, 41.23836300006998], [-121.44625200007563, 41.23834199982804], [-121.44623500035719, 41.236340000273735], [-121.44623500035719, 41.23632699969021], [-121.44618699977829, 41.23034599973989], [-121.44617199970968, 41.22850199988164], [-121.44606100027991, 41.21520900028415], [-121.44604399966317, 41.213158999949165], [-121.44604100018843, 41.21278699972654], [-121.44604000036351, 41.21266900006421], [-121.44603899964028, 41.21265200026709], [-121.44603899964028, 41.21263999985116], [-121.44603899964028, 41.212626999961174], [-121.44603899964028, 41.21261599968843], [-121.44603799981539, 41.21254200020122], [-121.44603600016555, 41.21229799991096], [-121.44603399961741, 41.212017999830216], [-121.44603299979252, 41.211885999936456], [-121.44599400033275, 41.207243000213595], [-121.44606399975464, 41.20384999999663], [-121.44606399975464, 41.203831000047444], [-121.44608700021918, 41.20274799990801], [-121.44609100041713, 41.20257300013746], [-121.44609100041713, 41.202557000046276], [-121.44609200024205, 41.20254200025292], [-121.44609200024205, 41.2025319999382], [-121.44609300006697, 41.202481000066584], [-121.44611700035641, 41.20140599973999], [-121.44619699982405, 41.19757799976471], [-121.44624100020498, 41.195492999798546], [-121.44649499974986, 41.1834840002755], [-121.41901200033801, 41.183678000096855], [-121.39205799993235, 41.18386699978832], [-121.39152900002783, 41.18387100010859], [-121.3910339995602, 41.18387599966347], [-121.39100799962092, 41.18387599966347], [-121.39048799993725, 41.183879999983176], [-121.39040300044675, 41.18388099989404], [-121.39017300029298, 41.1838819998049], [-121.38985799975039, 41.1838840003026], [-121.38952300001463, 41.18388500021341], [-121.38930700010457, 41.18388500021341], [-121.38914399989797, 41.18388500021341], [-121.38894999972919, 41.18388500021341], [-121.38859200042722, 41.18388500021341], [-121.37640099963905, 41.18388700003498], [-121.37222399975622, 41.18388500021341], [-121.36541200039659, 41.18388500021341], [-121.36281700020442, 41.18388700003498], [-121.35734099958984, 41.18388700003498], [-121.34687200003103, 41.18388700003498], [-121.33178600037334, 41.1838860001242], [-121.33157499958783, 41.1838860001242], [-121.33129799957841, 41.18388799994574], [-121.3308330001463, 41.1838840003026], [-121.32999700009513, 41.1838840003026], [-121.32998299985142, 41.1838840003026], [-121.32995000023948, 41.1838840003026], [-121.32263500001628, 41.183865999877234], [-121.32075799987452, 41.18386100032164], [-121.32061300010956, 41.18386100032164], [-121.31010099999473, 41.18383499992186], [-121.30990500017614, 41.18383499992186], [-121.2895139996081, 41.18378899991739], [-121.28859600043948, 41.183787000092835], [-121.2885079996776, 41.183787000092835], [-121.28849400033224, 41.183787000092835], [-121.28815100020056, 41.183786000180525], [-121.28610900020236, 41.183820999806336], [-121.28560200003913, 41.1838299996878], [-121.27283100019115, 41.18405399979398], [-121.27185899969756, 41.184071000259706], [-121.26985100003454, 41.1841059997332], [-121.26957499985, 41.18411099994623], [-121.26940900016864, 41.1841139996682], [-121.26927799974908, 41.18411600015886], [-121.26908600012845, 41.18411899988056], [-121.2680059996798, 41.18413800014332], [-121.266204999706, 41.18416999986173], [-121.26393500010218, 41.18421100006969], [-121.26387300017791, 41.184211999975496], [-121.26375699982697, 41.18421399978708], [-121.2636949999027, 41.18421600027463], [-121.26332199963377, 41.184226999913], [-121.26330200044062, 41.184223000290565], [-121.26258900041309, 41.18423499983317], [-121.25415500028147, 41.1843819999675], [-121.22810300004923, 41.18442399994529], [-121.21102200024902, 41.1845139999035], [-121.21099499958653, 41.184422000140124], [-121.2109589996015, 41.184422000140124], [-121.21087999995879, 41.18442100023751], [-121.21059999957629, 41.184420000334896], [-121.21048499994858, 41.184418999756176], [-121.2103319997877, 41.184417999853515], [-121.21009300031142, 41.18441600004817], [-121.209880999701, 41.184420000334896], [-121.20985399993683, 41.18441400024275], [-121.19933099995134, 41.18440700024728], [-121.19911099984333, 41.18440700024728], [-121.19860500040335, 41.18440700024728], [-121.19751599973387, 41.184405999668364], [-121.19574300024748, 41.18440499976552], [-121.19572700035397, 41.18440499976552], [-121.1957080000874, 41.18440499976552], [-121.19323500009398, 41.184403999862646], [-121.17070399961844, 41.18439199967493], [-121.16873000029058, 41.18439099977187], [-121.16864099970384, 41.18439099977187], [-121.16773500023078, 41.18439099977187], [-121.16422299979656, 41.184388999965684], [-121.162484999572, 41.184388000062576], [-121.1624500003102, 41.184388000062576], [-121.16241500015009, 41.184388000062576], [-121.16010700001311, 41.18441600004817], [-121.16006600000522, 41.18441600004817], [-121.15983000000367, 41.184418999756176], [-121.15959499982702, 41.184422000140124], [-121.15944800041227, 41.1844259997504], [-121.15930100009919, 41.18443000003647], [-121.15846500004797, 41.1844259997504], [-121.15833399962841, 41.1844259997504], [-121.1582619996584, 41.1844259997504], [-121.15818200019079, 41.184422000140124], [-121.15816899977197, 41.184418999756176], [-121.15722200029103, 41.18442300004272], [-121.15709000004655, 41.18442300004272], [-121.15697600024376, 41.184418999756176], [-121.15602800003958, 41.184388000062576], [-121.1559529996965, 41.1843860002563], [-121.15587700042683, 41.18438299987069], [-121.15576600009875, 41.18438399977389], [-121.15429400001292, 41.18439400015709], [-121.15421299982208, 41.18439500006012], [-121.15407800010288, 41.18439599996312], [-121.15395699972903, 41.184402999959765], [-121.15307600037033, 41.18439899967204], [-121.13860400010768, 41.18438499967706], [-121.13339299980696, 41.18437900025785], [-121.13336900041583, 41.18436999977575], [-121.13328499985192, 41.18437900025785], [-121.13321299988189, 41.18437900025785], [-121.1331979998133, 41.18437900025785], [-121.13312099982038, 41.18437900025785], [-121.13305800007122, 41.18437900025785], [-121.13303999962953, 41.18436799996893], [-121.13285899987957, 41.18437900025785], [-121.12603699957586, 41.18437200025859], [-121.11094099987245, 41.184388999965684], [-121.11079899958223, 41.184388999965684], [-121.10491600016019, 41.184388999965684], [-121.10242600044833, 41.184388999965684], [-121.09918500017578, 41.18438299987069], [-121.09592200016193, 41.18438399977389], [-121.0949980002472, 41.18438399977389], [-121.0863239999161, 41.184388999965684], [-121.08584400041538, 41.184388000062576], [-121.08541599989488, 41.184388000062576], [-121.0851000004257, 41.184388000062576], [-121.08482000004322, 41.184388000062576], [-121.08369399956383, 41.184388999965684], [-121.07940799990105, 41.184388999965684], [-121.0760670000694, 41.184388000062576], [-121.07427799979116, 41.18438700015945], [-121.07278899998693, 41.184388000062576], [-121.0724900002362, 41.184388000062576], [-121.06958600024754, 41.184388999965684], [-121.06902800003074, 41.184388999965684], [-121.06864399989118, 41.184388999965684], [-121.06820399967512, 41.184388999965684], [-121.0665910000223, 41.18438999986878], [-121.06632499988353, 41.18438999986878], [-121.06615699965403, 41.18438999986878], [-121.06308699998404, 41.1843860002563], [-121.06303099990754, 41.18439899967204], [-121.05610099964879, 41.184376999775225], [-121.05042400009106, 41.18437900025785], [-121.04146400042801, 41.18437300016194], [-121.04036800008583, 41.18437200025859], [-121.03701600038353, 41.18436999977575], [-121.03476799962269, 41.18436799996893], [-121.02855499958945, 41.18436399967907], [-121.00690600009413, 41.18434999967666], [-121.00085500044258, 41.18433999996281], [-120.99668500023246, 41.18432799976337], [-120.99648600004085, 41.18432699985932], [-120.99618999976482, 41.18432599995526], [-120.99598200025068, 41.18432500005119], [-120.99567299955588, 41.18432500005119], [-120.99565199963946, 41.18432500005119], [-120.99455500037072, 41.18432199966279], [-120.99447400017985, 41.18432199966279], [-120.99008300003676, 41.184310000136136], [-120.98341899991684, 41.18429400031309], [-120.98316299982379, 41.18429299973244], [-120.98308900020395, 41.18429299973244], [-120.98301399986089, 41.18429299973244], [-120.9829229996243, 41.18429199982787], [-120.98287699959353, 41.18429199982787], [-120.98210900021274, 41.18428900011404], [-120.98119000032088, 41.18428499981932], [-120.9806859996324, 41.18428399991461], [-120.98021500035252, 41.18428399991461], [-120.98018699986513, 41.18428200010522], [-120.97888600038185, 41.18427899971485], [-120.97777999999394, 41.18427600000043], [-120.97661000003191, 41.18427300028587], [-120.97145200033293, 41.18425799968282], [-120.97140899977693, 41.18425699977771], [-120.97088800026835, 41.184255999872576], [-120.96398399994887, 41.18423700032014], [-120.96036799975761, 41.184224000196195], [-120.958557999563, 41.184223000290565], [-120.95056399964744, 41.18419999975259], [-120.95042999975314, 41.18419999975259], [-120.94711900005872, 41.184190999921974], [-120.94586100023315, 41.18418700029734], [-120.94439199962207, 41.18418299999643], [-120.94431200015445, 41.18418299999643], [-120.94410899976486, 41.18418200009018], [-120.93875400042239, 41.18416800004879], [-120.93790099975449, 41.184165000329344], [-120.93765899990515, 41.18416399974674], [-120.93664700012687, 41.18416100002704], [-120.93619699986507, 41.18416000012045], [-120.9349370003897, 41.18415699972449], [-120.93391399984246, 41.18415400000448], [-120.93075799995873, 41.18414400026076], [-120.9307219999737, 41.18414400026076], [-120.92848300033201, 41.18413900005025], [-120.92804099956783, 41.184137000236376], [-120.92231700015444, 41.18412099969499], [-120.90872299977576, 41.184083999737986], [-120.90786300033344, 41.18408199992243], [-120.9078459997167, 41.18408199992243], [-120.90740700022384, 41.18408100001463], [-120.88264100030456, 41.18400999976117], [-120.88250700041027, 41.18400999976117], [-120.88146399977155, 41.18400600012548], [-120.87859900014098, 41.18399800017734], [-120.87666900029576, 41.183977000055194], [-120.85450400041644, 41.18399999999541], [-120.85445699966243, 41.18399999999541], [-120.85182899985831, 41.18400099990444], [-120.84920000022929, 41.18400199981346], [-120.84142600042178, 41.18400700003443], [-120.83375299999828, 41.18401099967005], [-120.82360599975642, 41.18401499998152], [-120.82353600033454, 41.18401499998152], [-120.8221810004246, 41.18401499998152], [-120.80638199984108, 41.18402100011017], [-120.80626300001542, 41.18402100011017], [-120.80478199970875, 41.184020000201436], [-120.803573000287, 41.184022000018885], [-120.80248600016564, 41.18402299992759], [-120.802363000142, 41.18402299992759], [-120.79259500001686, 41.18402900005555], [-120.79200800038603, 41.18402900005555], [-120.79198999994438, 41.18402900005555], [-120.78238000000296, 41.184030999872725], [-120.78201099993201, 41.184030999872725], [-120.77581700016535, 41.18403299968984], [-120.77361199996054, 41.1840340002744], [-120.76866500014876, 41.184036000091425], [-120.76593400041244, 41.18403699999991], [-120.76443300001434, 41.18403799990839], [-120.76294300038518, 41.18403799990839], [-120.75411300041849, 41.184044999943346], [-120.75243499957001, 41.1840430001266], [-120.75141699994394, 41.184042000218206], [-120.7505189999685, 41.184042000218206], [-120.74767899955398, 41.18407599979931], [-120.74765699981266, 41.18407599979931], [-120.74757300014706, 41.184076999707194], [-120.74666000010299, 41.18408100001463], [-120.74593899967957, 41.18408299983022], [-120.74390900027521, 41.18409599998215], [-120.7392600003893, 41.184131000118356], [-120.73294000022594, 41.184177999788915], [-120.73196299970945, 41.18418499980885], [-120.73149300025446, 41.18419000001585], [-120.73109300022138, 41.184190999921974], [-120.73045600036185, 41.184196000128516], [-120.72093299956077, 41.18413999995717], [-120.72075799965857, 41.18413900005025], [-120.71676700044692, 41.18411600015886], [-120.71590000043359, 41.18411099994623], [-120.66759700010827, 41.183847000211635], [-120.66715900044038, 41.18384499971282], [-120.66666800017069, 41.18384299988996], [-120.66457299957074, 41.18393100015048], [-120.65796500042558, 41.18399599968307], [-120.65766099975366, 41.183999000086395], [-120.65184699992858, 41.18400600012548], [-120.6516679998284, 41.18400700003443], [-120.65033600038302, 41.18401699979913], [-120.64793899965926, 41.184015999890335], [-120.64224299983493, 41.18401499998152], [-120.64163500028772, 41.18401400007269], [-120.63856800009248, 41.18401300016385], [-120.63810699996, 41.18401400007269], [-120.6326150003502, 41.18402499974495], [-120.63259000023585, 41.18402499974495], [-120.62654100023413, 41.18403799990839], [-120.62607599990372, 41.18403899981684], [-120.62068800005099, 41.1844690002779], [-120.62055599980653, 41.18446799969993], [-120.61888999955194, 41.1844589999062], [-120.61066600038095, 41.18441699995085], [-120.60694600043259, 41.18439799976909], [-120.59309799961069, 41.18432699985932], [-120.56747999974671, 41.184194000316374], [-120.56741299979957, 41.184194000316374], [-120.55750199955928, 41.18415599981783], [-120.55271100028145, 41.18413900005025], [-120.54059300018652, 41.18409599998215], [-120.53925599981991, 41.18409099976798], [-120.53090700007712, 41.184058000102816], [-120.5255180003995, 41.184047999668344], [-120.51566999990841, 41.18400600012548], [-120.5140070000269, 41.18400400030754], [-120.51399600015624, 41.18399599968307], [-120.51222199994663, 41.183987999733645], [-120.50465599965327, 41.18395900033147], [-120.50140400040837, 41.18394000001678], [-120.50046899972467, 41.18395599992631], [-120.49336899958662, 41.18407200016766], [-120.47686600009474, 41.18402700023832], [-120.47608399957191, 41.184022000018885], [-120.4745260001707, 41.18401499998152], [-120.4740690002362, 41.18401300016385], [-120.4740039999389, 41.18401300016385], [-120.47395899973306, 41.18401300016385], [-120.47380899994522, 41.184012000255], [-120.47066700030518, 41.18399499977396], [-120.43143099977308, 41.184195000222445], [-120.43013699996249, 41.18419299973421], [-120.42973600010451, 41.1841919998281], [-120.42943300015581, 41.1841919998281], [-120.42935799981272, 41.1841919998281], [-120.42818399965277, 41.18419000001585], [-120.4281100000329, 41.18419000001585], [-120.42614500002762, 41.18418599971507], [-120.42592499991957, 41.18418599971507], [-120.41077899998744, 41.18415699972449], [-120.39691799964507, 41.184131000118356], [-120.3966470003817, 41.18413399983942], [-120.39654100007651, 41.18413499974641], [-120.39640399980914, 41.18413600032942], [-120.39482600031644, 41.18412599990686], [-120.39467800017846, 41.18412499999974], [-120.39465999973677, 41.18412499999974], [-120.39433699969659, 41.18412599990686], [-120.39372699960123, 41.18412699981397], [-120.38751799976593, 41.18411600015886], [-120.38527099972832, 41.18411099994623], [-120.37604400010154, 41.18409300025934], [-120.33663900041336, 41.184095000074564], [-120.33649499957498, 41.184095000074564], [-120.3353110002676, 41.184095000074564], [-120.33522800042691, 41.184095000074564], [-120.32105699956483, 41.18409400016695], [-120.31090600002335, 41.184112999760885], [-120.30995199997139, 41.18411500025157], [-120.30956799983183, 41.184117000066074], [-120.30829599976255, 41.18411199985356], [-120.30189399958343, 41.18412499999974], [-120.28678799983425, 41.18415900021384], [-120.2662049996456, 41.184194000316374], [-120.26569800038071, 41.1841919998281], [-120.26533599998247, 41.184190999921974], [-120.26530400019541, 41.184190999921974], [-120.26529199960152, 41.184190999921974], [-120.25446300019263, 41.18415699972449], [-120.2538639999679, 41.18415400000448], [-120.25243200006506, 41.18414899979479], [-120.25101500023085, 41.18414400026076], [-120.24130099963406, 41.18412699981397], [-120.24124799993061, 41.18412699981397], [-120.24113999997557, 41.18412699981397], [-120.24049600044334, 41.18412599990686], [-120.23898800037253, 41.18412300018543], [-120.23798400009184, 41.18412099969499], [-120.22840900031055, 41.18410200010337], [-120.22551299981951, 41.18409599998215], [-120.22163999971029, 41.18409599998215], [-120.21801299964837, 41.18409599998215], [-120.21208199964744, 41.18409599998215], [-120.21111699972484, 41.18409599998215], [-120.21004499967209, 41.18409599998215], [-120.20886499966433, 41.18409599998215]]]}, "properties": {"GEOID": "06049", "NAME": "Modoc County"}}]}